{
"type": "FeatureCollection",
"name": "breach_candidates_2022",
"crs": { "type": "name", "properties": { "name": "urn:ogc:def:crs:OGC:1.3:CRS84" } },
"features": [
{ "type": "Feature", "properties": { "bund_id": "BND151", "bund_name": "S M BUND", "km_start": 132.1, "km_end": 133.1, "sar_drop": -3.1386642833233815, "label_strict": "breach" }, "geometry": { "type": "Point", "coordinates": [ 68.03243, 26.2856 ] } },
{ "type": "Feature", "properties": { "bund_id": "BND151", "bund_name": "S M BUND", "km_start": 133.1, "km_end": 134.1, "sar_drop": -3.384441939306591, "label_strict": "breach" }, "geometry": { "type": "Point", "coordinates": [ 68.02921, 26.2939 ] } },
{ "type": "Feature", "properties": { "bund_id": "BND151", "bund_name": "S M BUND", "km_start": 206.16, "km_end": 207.16, "sar_drop": -2.6766397745924877, "label_strict": "breach" }, "geometry": { "type": "Point", "coordinates": [ 67.94876, 26.83209 ] } },
{ "type": "Feature", "properties": { "bund_id": "BND151", "bund_name": "S M BUND", "km_start": 211.16, "km_end": 212.16, "sar_drop": -2.8026620245345595, "label_strict": "breach" }, "geometry": { "type": "Point", "coordinates": [ 67.96268, 26.85998 ] } },
{ "type": "Feature", "properties": { "bund_id": "BND151", "bund_name": "S M BUND", "km_start": 425.33, "km_end": 426.33, "sar_drop": -2.5483233630596263, "label_strict": "breach" }, "geometry": { "type": "Point", "coordinates": [ 67.94902, 26.82877 ] } },
{ "type": "Feature", "properties": { "bund_id": "BND151", "bund_name": "S M BUND", "km_start": 507.39, "km_end": 508.39, "sar_drop": -3.0514383246308059, "label_strict": "breach" }, "geometry": { "type": "Point", "coordinates": [ 68.03218, 26.28906 ] } }
]
}
