{
"type": "FeatureCollection",
"name": "drains",
"crs": { "type": "name", "properties": { "name": "urn:ogc:def:crs:OGC:1.3:CRS84" } },
"features": [
{ "type": "Feature", "properties": { "Name": "Nasir Branch Drain", "descriptio": "Branch Drain" }, "geometry": { "type": "LineString", "coordinates": [ [ 67.84284761, 27.46366064, 0.0 ], [ 67.84643118, 27.46280065, 0.0 ], [ 67.85710288, 27.46317195, 0.0 ], [ 67.86143774, 27.46428741, 0.0 ], [ 67.87680764, 27.46725172, 0.0 ], [ 67.88233237, 27.46654789, 0.0 ], [ 67.8902404, 27.46470341, 0.0 ], [ 67.89529872, 27.46285551, 0.0 ], [ 67.90755514, 27.46222493, 0.0 ], [ 67.91038102, 27.46097654, 0.0 ], [ 67.91948471, 27.46486158, 0.0 ], [ 67.92519278, 27.46551597, 0.0 ], [ 67.93098266, 27.46488455, 0.0 ], [ 67.93248197, 27.46672912, 0.0 ], [ 67.93370019, 27.46997679, 0.0 ], [ 67.93650747, 27.47269257, 0.0 ], [ 67.94203805, 27.47237525, 0.0 ], [ 67.94565396, 27.47368403, 0.0 ], [ 67.94832482, 27.47409197, 0.0 ], [ 67.95510997, 27.47324738, 0.0 ], [ 67.96090491, 27.48629054, 0.0 ], [ 67.96908223, 27.4866379, 0.0 ], [ 67.97603859, 27.48761934, 0.0 ], [ 67.97897304, 27.4920461, 0.0 ], [ 67.98011019, 27.49444875, 0.0 ], [ 67.98431878, 27.49888035, 0.0 ], [ 67.9912788, 27.49622145, 0.0 ], [ 67.99934358, 27.49812208, 0.0 ], [ 68.00688282, 27.49508286, 0.0 ], [ 68.00863672, 27.49520045, 0.0 ], [ 68.00952693, 27.49462454, 0.0 ], [ 68.01084966, 27.49481354, 0.0 ], [ 68.013079, 27.49423673, 0.0 ], [ 68.02006131, 27.49921453, 0.0 ], [ 68.03298604, 27.50448489, 0.0 ], [ 68.09176357, 27.50225508, 0.0 ], [ 68.09192404, 27.509783, 0.0 ], [ 68.09374935, 27.51339346, 0.0 ], [ 68.09488918, 27.51965331, 0.0 ], [ 68.10394931, 27.51733275, 0.0 ], [ 68.11311309, 27.52329509, 0.0 ], [ 68.11423083, 27.52488957, 0.0 ], [ 68.11458214, 27.52827218, 0.0 ], [ 68.1150358, 27.52954801, 0.0 ], [ 68.11492371, 27.53210123, 0.0 ], [ 68.11670351, 27.53409496, 0.0 ], [ 68.11663051, 27.53488538, 0.0 ], [ 68.11532974, 27.53595147, 0.0 ], [ 68.11732424, 27.53831836, 0.0 ], [ 68.11909161, 27.54354227, 0.0 ], [ 68.11895646, 27.54439625, 0.0 ], [ 68.11785265, 27.54598359, 0.0 ], [ 68.1178808, 27.5471038, 0.0 ], [ 68.12073877, 27.55232123, 0.0 ], [ 68.12427147, 27.55466951, 0.0 ], [ 68.12817417, 27.55814175, 0.0 ], [ 68.12960651, 27.56139934, 0.0 ], [ 68.13148068, 27.56716803, 0.0 ], [ 68.13606982, 27.57656117, 0.0 ], [ 68.15033402, 27.57505418, 0.0 ], [ 68.15054599, 27.57422984, 0.0 ], [ 68.15558866, 27.57177898, 0.0 ], [ 68.1746836, 27.56281651, 0.0 ], [ 68.17592818, 27.56284805, 0.0 ], [ 68.17641734, 27.56237633, 0.0 ], [ 68.18106772, 27.56056533, 0.0 ], [ 68.18431321, 27.55892293, 0.0 ] ] } },
{ "type": "Feature", "properties": { "Name": "Badah Branch Drain", "descriptio": "Branch Drain" }, "geometry": { "type": "LineString", "coordinates": [ [ 67.7694335, 27.36070573, 0.0 ], [ 67.78415647, 27.33741365, 0.0 ], [ 67.82155286, 27.33220269, 0.0 ], [ 67.83213367, 27.33700433, 0.0 ], [ 67.84703645, 27.33529318, 0.0 ], [ 67.9125458, 27.33565261, 0.0 ], [ 67.96647628, 27.31063304, 0.0 ], [ 68.00316643, 27.32671193, 0.0 ], [ 68.00537061, 27.32757511, 0.0 ], [ 68.00562826, 27.32732518, 0.0 ], [ 68.01020707, 27.32934979, 0.0 ] ] } },
{ "type": "Feature", "properties": { "Name": "Panwar Branch Drain", "descriptio": "Unknown Line Type" }, "geometry": { "type": "LineString", "coordinates": [ [ 67.80863654, 27.42318472, 0.0 ], [ 67.81054301, 27.42372728, 0.0 ], [ 67.81726987, 27.42857238, 0.0 ], [ 67.81973091, 27.43093757, 0.0 ], [ 67.82047864, 27.4332629, 0.0 ], [ 67.82017454, 27.43571505, 0.0 ], [ 67.82152017, 27.43839903, 0.0 ], [ 67.82241417, 27.44477312, 0.0 ], [ 67.83177515, 27.44924458, 0.0 ], [ 67.83281058, 27.45004021, 0.0 ], [ 67.83851121, 27.4595787, 0.0 ], [ 67.84783629, 27.46840882, 0.0 ], [ 67.84743032, 27.4698789, 0.0 ], [ 67.84811079, 27.47561117, 0.0 ], [ 67.84732963, 27.48433179, 0.0 ], [ 67.84711955, 27.49120192, 0.0 ], [ 67.85442131, 27.49495535, 0.0 ], [ 67.85441883, 27.50331347, 0.0 ], [ 67.85507369, 27.51193263, 0.0 ], [ 67.85667776, 27.5206815, 0.0 ], [ 67.86428361, 27.52940933, 0.0 ], [ 67.86716985, 27.53120137, 0.0 ], [ 67.87225572, 27.54365063, 0.0 ], [ 67.87570164, 27.54903492, 0.0 ], [ 67.88120584, 27.55663224, 0.0 ], [ 67.88040886, 27.5654935, 0.0 ], [ 67.8807543, 27.5661546, 0.0 ], [ 67.88202372, 27.56632865, 0.0 ], [ 67.87725336, 27.58785684, 0.0 ], [ 67.87706851, 27.59118138, 0.0 ], [ 67.87143244, 27.59991478, 0.0 ], [ 67.88267615, 27.60158261, 0.0 ], [ 67.88360864, 27.60359502, 0.0 ], [ 67.88408842, 27.60372194, 0.0 ], [ 67.88583299, 27.60294864, 0.0 ], [ 67.88706029, 27.60305288, 0.0 ], [ 67.88784999, 27.60246663, 0.0 ], [ 67.88762589, 27.60197601, 0.0 ], [ 67.88917303, 27.60096441, 0.0 ], [ 67.89184815, 27.60004856, 0.0 ], [ 67.89397946, 27.59881214, 0.0 ] ] } },
{ "type": "Feature", "properties": { "Name": "Nasirabad Branch Drain", "descriptio": "Branch Drain" }, "geometry": { "type": "LineString", "coordinates": [ [ 67.77854399, 27.38343743, 0.0 ], [ 67.78512704, 27.38142845, 0.0 ], [ 67.78585361, 27.38302518, 0.0 ], [ 67.78925547, 27.38453713, 0.0 ], [ 67.79964652, 27.38481267, 0.0 ], [ 67.80139276, 27.38563453, 0.0 ], [ 67.80753727, 27.38752333, 0.0 ], [ 67.82137853, 27.38808516, 0.0 ], [ 67.82457655, 27.38886285, 0.0 ], [ 67.82747967, 27.38868121, 0.0 ], [ 67.82889028, 27.39454059, 0.0 ], [ 67.8338064, 27.39401714, 0.0 ], [ 67.84679642, 27.39139407, 0.0 ], [ 67.84952344, 27.39129694, 0.0 ], [ 67.86220316, 27.38896527, 0.0 ], [ 67.86906082, 27.38964831, 0.0 ], [ 67.87019321, 27.39385762, 0.0 ], [ 67.87886964, 27.39347007, 0.0 ], [ 67.87940023, 27.39325579, 0.0 ], [ 67.88459602, 27.38751954, 0.0 ], [ 67.89078038, 27.38791555, 0.0 ], [ 67.89264352, 27.38837945, 0.0 ], [ 67.89477974, 27.38975338, 0.0 ], [ 67.89850391, 27.39286848, 0.0 ], [ 67.90177012, 27.39512092, 0.0 ], [ 67.90351884, 27.39711963, 0.0 ], [ 67.90548619, 27.39737868, 0.0 ], [ 67.9071928, 27.39707567, 0.0 ], [ 67.91292518, 27.405653, 0.0 ], [ 67.91682855, 27.40451351, 0.0 ], [ 67.92350931, 27.40190871, 0.0 ], [ 67.9245583, 27.40054214, 0.0 ], [ 67.92655602, 27.40151249, 0.0 ], [ 67.92849237, 27.40166622, 0.0 ], [ 67.93266482, 27.40422334, 0.0 ], [ 67.93949272, 27.40256031, 0.0 ], [ 67.9428283, 27.40567285, 0.0 ], [ 67.94600197, 27.4071819, 0.0 ], [ 67.94750807, 27.40872051, 0.0 ], [ 67.94956779, 27.41009831, 0.0 ], [ 67.95046943, 27.40992835, 0.0 ], [ 67.95253644, 27.40877787, 0.0 ], [ 67.95468963, 27.40820501, 0.0 ], [ 67.955326, 27.4068019, 0.0 ], [ 67.9582341, 27.40852504, 0.0 ] ] } },
{ "type": "Feature", "properties": { "Name": "Branch Drain", "descriptio": "Branch Drain" }, "geometry": { "type": "LineString", "coordinates": [ [ 67.81052673, 27.42369208, 0.0 ], [ 67.8164793, 27.41983111, 0.0 ], [ 67.81974818, 27.42120307, 0.0 ], [ 67.82960302, 27.42368501, 0.0 ], [ 67.83812975, 27.42736018, 0.0 ], [ 67.83927348, 27.42735288, 0.0 ], [ 67.84009174, 27.42678453, 0.0 ], [ 67.84167234, 27.42638421, 0.0 ], [ 67.84825712, 27.42545124, 0.0 ], [ 67.85988546, 27.42523464, 0.0 ], [ 67.86651902, 27.42432965, 0.0 ], [ 67.87578836, 27.42201159, 0.0 ], [ 67.87993477, 27.42327883, 0.0 ], [ 67.88190575, 27.4234558, 0.0 ], [ 67.88668187, 27.42466501, 0.0 ], [ 67.88943197, 27.42748189, 0.0 ], [ 67.89411781, 27.43388618, 0.0 ], [ 67.89772695, 27.43306331, 0.0 ], [ 67.90193017, 27.43637802, 0.0 ], [ 67.90591236, 27.43726049, 0.0 ], [ 67.90930386, 27.43712882, 0.0 ], [ 67.92034758, 27.437553, 0.0 ], [ 67.9206315, 27.43768105, 0.0 ], [ 67.92077742, 27.44080365, 0.0 ] ] } },
{ "type": "Feature", "properties": { "Name": "Branch Drain", "descriptio": null }, "geometry": { "type": "LineString", "coordinates": [ [ 67.74296685, 27.20514396, 0.0 ], [ 67.74548021, 27.21456995, 0.0 ], [ 67.74352264, 27.22107354, 0.0 ], [ 67.74202845, 27.23180166, 0.0 ], [ 67.74119619, 27.24121819, 0.0 ], [ 67.74457462, 27.24745364, 0.0 ], [ 67.74605186, 27.24811133, 0.0 ], [ 67.75363059, 27.25903312, 0.0 ], [ 67.75367032, 27.25971034, 0.0 ], [ 67.75189929, 27.2634935, 0.0 ], [ 67.75263714, 27.26784263, 0.0 ], [ 67.75723889, 27.26627184, 0.0 ], [ 67.75877906, 27.26610036, 0.0 ], [ 67.76019628, 27.26645222, 0.0 ], [ 67.7672462, 27.26479357, 0.0 ], [ 67.78245169, 27.26413399, 0.0 ], [ 67.78309643, 27.26472753, 0.0 ], [ 67.7837595, 27.27343066, 0.0 ], [ 67.7863798, 27.27335518, 0.0 ], [ 67.78950722, 27.27281572, 0.0 ], [ 67.79167185, 27.27377458, 0.0 ], [ 67.79389357, 27.27337196, 0.0 ], [ 67.79703308, 27.2721721, 0.0 ], [ 67.80319124, 27.26902032, 0.0 ], [ 67.81041332, 27.26605228, 0.0 ], [ 67.81200191, 27.26576147, 0.0 ], [ 67.81879295, 27.26563613, 0.0 ], [ 67.82677337, 27.26767753, 0.0 ], [ 67.83473719, 27.26351587, 0.0 ], [ 67.84237396, 27.26226094, 0.0 ], [ 67.84724066, 27.2570069, 0.0 ], [ 67.85325018, 27.25502115, 0.0 ], [ 67.85401827, 27.25497762, 0.0 ], [ 67.86348137, 27.25740687, 0.0 ], [ 67.87872916, 27.24998865, 0.0 ], [ 67.88481241, 27.25123883, 0.0 ], [ 67.88929237, 27.2538658, 0.0 ], [ 67.88995652, 27.25397062, 0.0 ], [ 67.89863232, 27.24502926, 0.0 ], [ 67.89950273, 27.24526423, 0.0 ], [ 67.9032294, 27.24850002, 0.0 ], [ 67.91001224, 27.24897599, 0.0 ], [ 67.91555654, 27.25416935, 0.0 ] ] } },
{ "type": "Feature", "properties": { "Name": "Shahdadkot Branch Drain", "descriptio": "Branch Drain" }, "geometry": { "type": "LineString", "coordinates": [ [ 67.78422014, 27.76531522, 0.0 ], [ 67.79459658, 27.76798084, 0.0 ], [ 67.83356068, 27.77695398, 0.0 ], [ 67.8948659, 27.78065106, 0.0 ], [ 67.92319892, 27.77680721, 0.0 ], [ 67.9433209, 27.77273251, 0.0 ], [ 67.96101699, 27.7801734, 0.0 ], [ 67.9940162, 27.78031337, 0.0 ], [ 68.01188284, 27.7787706, 0.0 ], [ 68.02000908, 27.780457, 0.0 ], [ 68.03888652, 27.78595483, 0.0 ], [ 68.0521505, 27.78751751, 0.0 ], [ 68.06264872, 27.78961831, 0.0 ], [ 68.08552377, 27.78953326, 0.0 ], [ 68.13304877, 27.77374767, 0.0 ] ] } },
{ "type": "Feature", "properties": { "Name": "Taib Branch Drain", "descriptio": null }, "geometry": { "type": "LineString", "coordinates": [ [ 68.15699103, 27.78236465, 0.0 ], [ 68.17399665, 27.77545875, 0.0 ], [ 68.18780516, 27.7688981, 0.0 ], [ 68.20227459, 27.76871082, 0.0 ], [ 68.20414638, 27.76838964, 0.0 ], [ 68.20517004, 27.76756806, 0.0 ], [ 68.21197005, 27.75719952, 0.0 ], [ 68.21344036, 27.75626662, 0.0 ], [ 68.22864586, 27.75578367, 0.0 ], [ 68.23739677, 27.75420105, 0.0 ], [ 68.24535264, 27.75523622, 0.0 ], [ 68.24737556, 27.75637094, 0.0 ], [ 68.25166231, 27.76002356, 0.0 ], [ 68.25347275, 27.7609626, 0.0 ], [ 68.27840423, 27.76634608, 0.0 ], [ 68.2937631, 27.77135204, 0.0 ], [ 68.3138659, 27.78255123, 0.0 ], [ 68.31730928, 27.78817687, 0.0 ], [ 68.31669479, 27.79698372, 0.0 ], [ 68.31702209, 27.79789084, 0.0 ], [ 68.32802013, 27.80459497, 0.0 ], [ 68.33189035, 27.80433465, 0.0 ], [ 68.33350629, 27.80506593, 0.0 ], [ 68.34008395, 27.81701988, 0.0 ], [ 68.34062866, 27.81787232, 0.0 ], [ 68.34168033, 27.81860447, 0.0 ], [ 68.35201025, 27.82051477, 0.0 ], [ 68.36076852, 27.82262933, 0.0 ], [ 68.37163266, 27.82668582, 0.0 ], [ 68.38597849, 27.82785946, 0.0 ], [ 68.38990995, 27.83006424, 0.0 ], [ 68.40512723, 27.83269349, 0.0 ], [ 68.42850598, 27.83931306, 0.0 ], [ 68.44268107, 27.84169481, 0.0 ], [ 68.45042622, 27.83964882, 0.0 ], [ 68.45132198, 27.83964158, 0.0 ], [ 68.45249818, 27.84024534, 0.0 ] ] } },
{ "type": "Feature", "properties": { "Name": "Branch Drain", "descriptio": null }, "geometry": { "type": "LineString", "coordinates": [ [ 67.88207415, 27.56631942, 0.0 ], [ 67.89031599, 27.56615246, 0.0 ], [ 67.89412834, 27.56308038, 0.0 ], [ 67.89564616, 27.55897496, 0.0 ], [ 67.89787601, 27.55613344, 0.0 ], [ 67.89973284, 27.55457066, 0.0 ], [ 67.90480984, 27.55431577, 0.0 ], [ 67.90839073, 27.55474268, 0.0 ], [ 67.90834959, 27.55586632, 0.0 ], [ 67.90689034, 27.56136946, 0.0 ], [ 67.91114926, 27.56254224, 0.0 ], [ 67.91139451, 27.56734558, 0.0 ], [ 67.91517257, 27.56909539, 0.0 ], [ 67.91598732, 27.56986724, 0.0 ], [ 67.91898837, 27.57143922, 0.0 ], [ 67.92916588, 27.57213249, 0.0 ], [ 67.93265823, 27.57135287, 0.0 ], [ 67.93661059, 27.5713667, 0.0 ], [ 67.94352095, 27.57015116, 0.0 ], [ 67.9519399, 27.56723185, 0.0 ], [ 67.96111821, 27.57042531, 0.0 ], [ 67.96811334, 27.5737694, 0.0 ], [ 67.97527403, 27.5751513, 0.0 ], [ 67.98310004, 27.58055706, 0.0 ], [ 67.98564386, 27.58151125, 0.0 ], [ 67.98657189, 27.58127124, 0.0 ], [ 67.9877894, 27.58144798, 0.0 ], [ 67.99206574, 27.57912144, 0.0 ], [ 67.99424378, 27.57678337, 0.0 ], [ 67.99715445, 27.57525915, 0.0 ], [ 68.00040151, 27.57418846, 0.0 ], [ 68.00442024, 27.57531026, 0.0 ], [ 68.01024108, 27.57780673, 0.0 ], [ 68.01366095, 27.57994103, 0.0 ], [ 68.01500582, 27.58144524, 0.0 ], [ 68.01581034, 27.58450323, 0.0 ], [ 68.01638024, 27.58509956, 0.0 ], [ 68.01687545, 27.59033515, 0.0 ] ] } },
{ "type": "Feature", "properties": { "Name": "Zakaria Branch Drain", "descriptio": "Branch Drain" }, "geometry": { "type": "LineString", "coordinates": [ [ 68.05002146, 27.71267273, 0.0 ], [ 68.06092228, 27.70902681, 0.0 ], [ 68.08794675, 27.70266062, 0.0 ], [ 68.09066922, 27.70127012, 0.0 ], [ 68.09412501, 27.69781153, 0.0 ], [ 68.12821799, 27.67939723, 0.0 ], [ 68.1477977, 27.66756118, 0.0 ], [ 68.16799099, 27.66334189, 0.0 ], [ 68.16978802, 27.66392778, 0.0 ], [ 68.17807553, 27.67174153, 0.0 ], [ 68.1790672, 27.67234954, 0.0 ], [ 68.18142388, 27.67241445, 0.0 ], [ 68.19119926, 27.66890004, 0.0 ], [ 68.19214301, 27.66881109, 0.0 ], [ 68.20550473, 27.67457534, 0.0 ], [ 68.22495677, 27.68914267, 0.0 ], [ 68.23396111, 27.68922354, 0.0 ], [ 68.25263859, 27.68780993, 0.0 ], [ 68.28460569, 27.68620359, 0.0 ], [ 68.28554146, 27.68585562, 0.0 ], [ 68.2879252, 27.68300888, 0.0 ], [ 68.2889724, 27.68264307, 0.0 ], [ 68.30200551, 27.68489996, 0.0 ], [ 68.30250838, 27.68548499, 0.0 ], [ 68.30289902, 27.69002165, 0.0 ], [ 68.30602375, 27.69471878, 0.0 ], [ 68.30798054, 27.69589675, 0.0 ], [ 68.30925104, 27.69604229, 0.0 ], [ 68.31888042, 27.69461819, 0.0 ], [ 68.33283391, 27.69460614, 0.0 ], [ 68.33337355, 27.69516452, 0.0 ], [ 68.33418471, 27.70326258, 0.0 ], [ 68.3345225, 27.70360821, 0.0 ], [ 68.38108636, 27.73130539, 0.0 ], [ 68.41425632, 27.72977852, 0.0 ], [ 68.42696795, 27.72970492, 0.0 ], [ 68.44959557, 27.7422966, 0.0 ] ] } },
{ "type": "Feature", "properties": { "Name": "Branch Drain", "descriptio": null }, "geometry": { "type": "LineString", "coordinates": [ [ 68.18696815, 27.76940137, 0.0 ], [ 68.19342817, 27.77216725, 0.0 ], [ 68.19801079, 27.77798347, 0.0 ], [ 68.2007567, 27.780327, 0.0 ], [ 68.20568149, 27.7869833, 0.0 ] ] } },
{ "type": "Feature", "properties": { "Name": "Branch Drain", "descriptio": null }, "geometry": { "type": "LineString", "coordinates": [ [ 67.6765714, 27.02035484, 0.0 ], [ 67.67670504, 27.02149529, 0.0 ], [ 67.67793059, 27.02265943, 0.0 ], [ 67.69446472, 27.03017742, 0.0 ], [ 67.69604678, 27.03135698, 0.0 ], [ 67.70566466, 27.0476722, 0.0 ], [ 67.70698212, 27.05105901, 0.0 ], [ 67.70872692, 27.05291717, 0.0 ], [ 67.71666729, 27.06666054, 0.0 ], [ 67.71758791, 27.06735218, 0.0 ], [ 67.720399, 27.06777711, 0.0 ], [ 67.72097778, 27.06820435, 0.0 ], [ 67.72249924, 27.06799377, 0.0 ], [ 67.72566633, 27.06839806, 0.0 ], [ 67.75420974, 27.07401485, 0.0 ], [ 67.76279131, 27.07317739, 0.0 ], [ 67.76521718, 27.07339962, 0.0 ], [ 67.77560263, 27.0710794, 0.0 ], [ 67.77844802, 27.07149868, 0.0 ], [ 67.79035359, 27.07108995, 0.0 ], [ 67.7928857, 27.07160553, 0.0 ], [ 67.7939247, 27.07133675, 0.0 ], [ 67.7964683, 27.06967745, 0.0 ], [ 67.79821936, 27.06931043, 0.0 ], [ 67.80269599, 27.07087502, 0.0 ], [ 67.80472355, 27.07074244, 0.0 ], [ 67.80697536, 27.07188488, 0.0 ], [ 67.80872252, 27.07231182, 0.0 ], [ 67.80958359, 27.07328411, 0.0 ], [ 67.80973504, 27.0740767, 0.0 ], [ 67.81087499, 27.07499352, 0.0 ], [ 67.81186405, 27.07754944, 0.0 ], [ 67.81228593, 27.07778437, 0.0 ], [ 67.83607249, 27.06729967, 0.0 ], [ 67.8478811, 27.06266488, 0.0 ], [ 67.86226086, 27.05648857, 0.0 ] ] } },
{ "type": "Feature", "properties": { "Name": "Pritchered Escape", "descriptio": null }, "geometry": { "type": "LineString", "coordinates": [ [ 67.68595845, 26.92814756, 0.0 ], [ 67.69747033, 26.9338118, 0.0 ], [ 67.69798804, 26.9342303, 0.0 ], [ 67.69850697, 26.93546534, 0.0 ], [ 67.69921563, 26.93581922, 0.0 ], [ 67.70566714, 26.93529347, 0.0 ], [ 67.70763515, 26.93432952, 0.0 ], [ 67.7086691, 26.93416702, 0.0 ], [ 67.71025148, 26.9343614, 0.0 ], [ 67.71359303, 26.93575443, 0.0 ], [ 67.7172328, 26.93932675, 0.0 ], [ 67.71907433, 26.94213963, 0.0 ], [ 67.72113287, 26.94402625, 0.0 ], [ 67.72475395, 26.94844658, 0.0 ], [ 67.72573941, 26.9510097, 0.0 ], [ 67.7273843, 26.95844435, 0.0 ], [ 67.73453813, 26.96640046, 0.0 ], [ 67.74837183, 26.97277607, 0.0 ], [ 67.75313475, 26.9734681, 0.0 ], [ 67.75434407, 26.97402001, 0.0 ], [ 67.76406525, 26.9822396, 0.0 ], [ 67.77085391, 26.98407705, 0.0 ], [ 67.78523153, 26.99001452, 0.0 ], [ 67.78718238, 26.99160374, 0.0 ], [ 67.78989051, 26.99527384, 0.0 ], [ 67.79268153, 26.9961727, 0.0 ], [ 67.79624269, 26.99879168, 0.0 ], [ 67.79817572, 27.00117042, 0.0 ], [ 67.79949423, 27.00470869, 0.0 ], [ 67.80353055, 27.01092561, 0.0 ], [ 67.80620308, 27.01365382, 0.0 ], [ 67.84226867, 27.0364309, 0.0 ], [ 67.84417906, 27.03689083, 0.0 ], [ 67.84844176, 27.03513667, 0.0 ], [ 67.84966452, 27.03503962, 0.0 ], [ 67.85113854, 27.03542071, 0.0 ], [ 67.86608578, 27.04959152, 0.0 ], [ 67.87014812, 27.052526, 0.0 ], [ 67.88284196, 27.06368982, 0.0 ], [ 67.88619711, 27.06517921, 0.0 ], [ 67.88883586, 27.06583305, 0.0 ], [ 67.89694748, 27.0662601, 0.0 ] ] } },
{ "type": "Feature", "properties": { "Name": "Chhar Main Drain", "descriptio": null }, "geometry": { "type": "LineString", "coordinates": [ [ 67.65228615, 27.32992084, 0.0 ], [ 67.66290814, 27.33227868, 0.0 ], [ 67.6647524, 27.33230255, 0.0 ], [ 67.69292089, 27.32753662, 0.0 ], [ 67.69653717, 27.32593374, 0.0 ], [ 67.69967754, 27.32560873, 0.0 ], [ 67.70510376, 27.32314647, 0.0 ], [ 67.70674891, 27.32269438, 0.0 ], [ 67.72164784, 27.32284373, 0.0 ], [ 67.72287259, 27.32328826, 0.0 ], [ 67.74157185, 27.34871844, 0.0 ], [ 67.74247623, 27.34943714, 0.0 ], [ 67.77280164, 27.36196579, 0.0 ], [ 67.77394183, 27.36291894, 0.0 ], [ 67.77561818, 27.36914554, 0.0 ], [ 67.77927492, 27.38677722, 0.0 ], [ 67.77762309, 27.38954255, 0.0 ], [ 67.77966164, 27.39086514, 0.0 ], [ 67.78036186, 27.39209256, 0.0 ], [ 67.784135, 27.40877784, 0.0 ], [ 67.78609777, 27.41327995, 0.0 ], [ 67.7872591, 27.41407846, 0.0 ], [ 67.79369168, 27.41630821, 0.0 ], [ 67.80166889, 27.42095258, 0.0 ], [ 67.80856278, 27.42316762, 0.0 ] ] } },
{ "type": "Feature", "properties": { "Name": null, "descriptio": null }, "geometry": { "type": "LineString", "coordinates": [ [ 68.544167, 28.4955549, 0.0 ], [ 68.5353444, 28.4817443, 0.0 ], [ 68.5172484, 28.4733665, 0.0 ], [ 68.4999252, 28.4647617, 0.0 ], [ 68.4653029, 28.4463764, 0.0 ], [ 68.4644874, 28.4456694, 0.0 ], [ 68.4271549, 28.404338, 0.0 ], [ 68.4127941, 28.3888725, 0.0 ], [ 68.4062254, 28.3828104, 0.0 ], [ 68.4025547, 28.371365, 0.0 ], [ 68.3912971, 28.3496997, 0.0 ], [ 68.3808676, 28.3266991, 0.0 ], [ 68.3499703, 28.3020063, 0.0 ], [ 68.349269, 28.3005689, 0.0 ], [ 68.3436663, 28.2960327, 0.0 ], [ 68.341348, 28.295012, 0.0 ], [ 68.3356809, 28.2948986, 0.0 ], [ 68.333427, 28.2933109, 0.0 ], [ 68.3323322, 28.2918933, 0.0 ], [ 68.3307222, 28.2914396, 0.0 ], [ 68.2633919, 28.2753614, 0.0 ], [ 68.2475592, 28.2649685, 0.0 ] ] } },
{ "type": "Feature", "properties": { "Name": null, "descriptio": null }, "geometry": { "type": "LineString", "coordinates": [ [ 68.18889248, 28.22495255, 0.0 ], [ 68.1888902, 28.22495274, 0.0 ] ] } },
{ "type": "Feature", "properties": { "Name": null, "descriptio": null }, "geometry": { "type": "LineString", "coordinates": [ [ 68.70200077, 28.53072295, 0.0 ], [ 68.6913521, 28.5204197, 0.0 ], [ 68.6529296, 28.4893148, 0.0 ], [ 68.607003, 28.5063933, 0.0 ], [ 68.5997894, 28.5092765, 0.0 ], [ 68.5886431, 28.5143892, 0.0 ], [ 68.5628996, 28.504248, 0.0 ], [ 68.5449668, 28.4965488, 0.0 ], [ 68.5443936, 28.4958941, 0.0 ] ] } },
{ "type": "Feature", "properties": { "Name": null, "descriptio": null }, "geometry": { "type": "LineString", "coordinates": [ [ 68.2475592, 28.2649685, 0.0 ], [ 68.2358628, 28.2561241, 0.0 ], [ 68.2051685, 28.2372834, 0.0 ], [ 68.1901902, 28.2254839, 0.0 ], [ 68.18889248, 28.22495255, 0.0 ] ] } },
{ "type": "Feature", "properties": { "Name": "Mehar Main Drain", "descriptio": "Unknown Line Type" }, "geometry": { "type": "LineString", "coordinates": [ [ 67.63040789, 27.19152786, 0.0 ], [ 67.67101778, 27.18669507, 0.0 ], [ 67.67336926, 27.18704302, 0.0 ], [ 67.6755104, 27.18631169, 0.0 ], [ 67.6815905, 27.18605897, 0.0 ], [ 67.68762597, 27.18599638, 0.0 ], [ 67.69011838, 27.18627363, 0.0 ], [ 67.69383681, 27.18986704, 0.0 ], [ 67.69976423, 27.19185692, 0.0 ], [ 67.70822469, 27.19719416, 0.0 ], [ 67.70914145, 27.19849218, 0.0 ], [ 67.71575776, 27.20534246, 0.0 ], [ 67.72112087, 27.20567356, 0.0 ], [ 67.7416066, 27.204756, 0.0 ], [ 67.74328132, 27.20513428, 0.0 ], [ 67.74798231, 27.20485962, 0.0 ], [ 67.75283328, 27.20548318, 0.0 ], [ 67.7537815, 27.20524286, 0.0 ], [ 67.75804341, 27.20043013, 0.0 ], [ 67.75909034, 27.19966138, 0.0 ], [ 67.75913136, 27.19915449, 0.0 ], [ 67.75855462, 27.1983045, 0.0 ], [ 67.75877469, 27.19736643, 0.0 ], [ 67.76096345, 27.19391851, 0.0 ], [ 67.76785328, 27.1927009, 0.0 ], [ 67.77068437, 27.19168486, 0.0 ], [ 67.77121576, 27.19211197, 0.0 ], [ 67.77540579, 27.19048225, 0.0 ], [ 67.78167461, 27.19022433, 0.0 ], [ 67.78340952, 27.19065907, 0.0 ], [ 67.78402652, 27.18998925, 0.0 ], [ 67.78939816, 27.19020305, 0.0 ], [ 67.7925801, 27.18547668, 0.0 ], [ 67.79690195, 27.18504182, 0.0 ], [ 67.800821, 27.18524997, 0.0 ], [ 67.80419163, 27.18874391, 0.0 ], [ 67.80575373, 27.19063903, 0.0 ], [ 67.80833397, 27.19481223, 0.0 ], [ 67.80996812, 27.19626945, 0.0 ], [ 67.81160321, 27.19588462, 0.0 ], [ 67.81508886, 27.19433194, 0.0 ], [ 67.81817176, 27.19673904, 0.0 ], [ 67.8208601, 27.1996714, 0.0 ], [ 67.8266368, 27.20063014, 0.0 ], [ 67.8316866, 27.20217109, 0.0 ], [ 67.83993976, 27.19206294, 0.0 ], [ 67.85806456, 27.18849298, 0.0 ], [ 67.85543716, 27.1838768, 0.0 ] ] } },
{ "type": "Feature", "properties": { "Name": "MIRO KHAN DRAIN", "descriptio": "MIRO KHAN DRAIN" }, "geometry": { "type": "LineString", "coordinates": [ [ 67.75802161, 27.64149577, 0.0 ], [ 67.80980888, 27.66119322, 0.0 ], [ 67.84980231, 27.66728756, 0.0 ], [ 67.86031763, 27.66509703, 0.0 ], [ 67.86339023, 27.6647969, 0.0 ], [ 67.88158788, 27.66071581, 0.0 ], [ 67.88355357, 27.66079143, 0.0 ], [ 67.88585731, 27.66168745, 0.0 ], [ 67.89765137, 27.67196597, 0.0 ], [ 67.90417212, 27.67484804, 0.0 ], [ 67.91377452, 27.68067353, 0.0 ], [ 67.91502986, 27.68112192, 0.0 ], [ 67.93534624, 27.68721416, 0.0 ], [ 67.95406592, 27.68524014, 0.0 ], [ 67.96731902, 27.68989933, 0.0 ], [ 67.96883227, 27.69076272, 0.0 ], [ 67.97178468, 27.6933373, 0.0 ], [ 67.9803562, 27.70141574, 0.0 ], [ 67.98641364, 27.71392553, 0.0 ], [ 67.98823667, 27.71569911, 0.0 ], [ 67.99025093, 27.71654939, 0.0 ], [ 67.99515434, 27.7176525, 0.0 ], [ 67.99951405, 27.71824422, 0.0 ], [ 68.01647524, 27.72195622, 0.0 ], [ 68.01924022, 27.72124046, 0.0 ], [ 68.02700308, 27.71509681, 0.0 ], [ 68.05016019, 27.71260569, 0.0 ], [ 68.06697352, 27.71670738, 0.0 ], [ 68.06865715, 27.71741286, 0.0 ], [ 68.0691854, 27.71802193, 0.0 ], [ 68.07147317, 27.72317435, 0.0 ], [ 68.07171687, 27.72658195, 0.0 ], [ 68.07589494, 27.73724013, 0.0 ], [ 68.07673097, 27.7381604, 0.0 ], [ 68.09096537, 27.73746783, 0.0 ], [ 68.10393406, 27.73984179, 0.0 ], [ 68.10500847, 27.7395671, 0.0 ], [ 68.11136192, 27.73608037, 0.0 ], [ 68.11883735, 27.73464334, 0.0 ], [ 68.12003034, 27.73456415, 0.0 ], [ 68.1276122, 27.73634547, 0.0 ], [ 68.12905378, 27.73715145, 0.0 ], [ 68.12998038, 27.73812326, 0.0 ], [ 68.13347411, 27.74311421, 0.0 ], [ 68.13385022, 27.74609049, 0.0 ], [ 68.13322275, 27.74706703, 0.0 ], [ 68.13270743, 27.75130382, 0.0 ], [ 68.1334943, 27.76239002, 0.0 ], [ 68.13271142, 27.77320642, 0.0 ], [ 68.13377701, 27.774235, 0.0 ], [ 68.1427948, 27.77935928, 0.0 ], [ 68.15699896, 27.78230599, 0.0 ], [ 68.17275253, 27.77595792, 0.0 ], [ 68.18693674, 27.76926607, 0.0 ], [ 68.18901339, 27.76880254, 0.0 ], [ 68.20397252, 27.76854186, 0.0 ], [ 68.20529365, 27.76741641, 0.0 ], [ 68.21184161, 27.75745328, 0.0 ], [ 68.2130294, 27.75639297, 0.0 ], [ 68.21376927, 27.75621765, 0.0 ], [ 68.22896871, 27.75582692, 0.0 ], [ 68.23829249, 27.75418143, 0.0 ], [ 68.24564895, 27.75524934, 0.0 ], [ 68.25305875, 27.76086198, 0.0 ], [ 68.27691495, 27.76591931, 0.0 ], [ 68.29393919, 27.77141414, 0.0 ], [ 68.31419373, 27.7828172, 0.0 ], [ 68.31739265, 27.78850474, 0.0 ], [ 68.31668337, 27.79707351, 0.0 ], [ 68.31716243, 27.79802996, 0.0 ], [ 68.32831677, 27.80468169, 0.0 ], [ 68.33175534, 27.80440288, 0.0 ], [ 68.3332993, 27.80484192, 0.0 ], [ 68.3402697, 27.8173002, 0.0 ], [ 68.34141827, 27.81849713, 0.0 ], [ 68.36037885, 27.82251814, 0.0 ], [ 68.37160346, 27.82667798, 0.0 ], [ 68.38553299, 27.82779873, 0.0 ], [ 68.39016383, 27.83014841, 0.0 ], [ 68.40550588, 27.83274324, 0.0 ], [ 68.42782823, 27.83903433, 0.0 ], [ 68.43346849, 27.84001701, 0.0 ] ] } },
{ "type": "Feature", "properties": { "Name": "RBOD - I", "descriptio": null }, "geometry": { "type": "LineString", "coordinates": [ [ 67.75968019, 27.64123424, 0.0 ], [ 67.76099575, 27.63710426, 0.0 ], [ 67.76097956, 27.63524172, 0.0 ], [ 67.76048388, 27.63339839, 0.0 ], [ 67.75546189, 27.62316993, 0.0 ], [ 67.74892072, 27.61381562, 0.0 ], [ 67.74751415, 27.6110583, 0.0 ], [ 67.74268256, 27.59550376, 0.0 ], [ 67.74260571, 27.59352605, 0.0 ], [ 67.74393508, 27.58227705, 0.0 ], [ 67.74275623, 27.57585337, 0.0 ], [ 67.74138929, 27.57269464, 0.0 ], [ 67.73968173, 27.55661268, 0.0 ], [ 67.73866048, 27.55342874, 0.0 ], [ 67.73646341, 27.55085895, 0.0 ], [ 67.73376646, 27.54937899, 0.0 ], [ 67.73072563, 27.54896426, 0.0 ], [ 67.72525937, 27.54959088, 0.0 ], [ 67.72255425, 27.54945724, 0.0 ], [ 67.67554602, 27.53501286, 0.0 ], [ 67.6729638, 27.53375893, 0.0 ], [ 67.66996356, 27.53153321, 0.0 ], [ 67.667782, 27.52881326, 0.0 ], [ 67.66479881, 27.52237278, 0.0 ], [ 67.6645342, 27.52069785, 0.0 ], [ 67.66403094, 27.51033699, 0.0 ], [ 67.6640902, 27.50901531, 0.0 ], [ 67.66504194, 27.50719197, 0.0 ], [ 67.66505173, 27.50660241, 0.0 ], [ 67.66479625, 27.50560325, 0.0 ], [ 67.66376723, 27.50552708, 0.0 ], [ 67.66279826, 27.47749154, 0.0 ] ] } },
{ "type": "Feature", "properties": { "Name": "RBOD - I ( Wash out )", "descriptio": "During Flood 2010" }, "geometry": { "type": "LineString", "coordinates": [ [ 67.66279612, 27.47750592, 0.0 ], [ 67.6614033, 27.4607306, 0.0 ], [ 67.66029168, 27.43476018, 0.0 ], [ 67.66104846, 27.43161331, 0.0 ], [ 67.67363933, 27.40236648, 0.0 ], [ 67.67436286, 27.39919715, 0.0 ], [ 67.67440739, 27.39659851, 0.0 ], [ 67.67374904, 27.39395517, 0.0 ], [ 67.67201829, 27.38969086, 0.0 ], [ 67.65988574, 27.36719596, 0.0 ], [ 67.64606032, 27.34749804, 0.0 ], [ 67.64534904, 27.34540995, 0.0 ], [ 67.64524212, 27.34407202, 0.0 ], [ 67.64572483, 27.34106389, 0.0 ], [ 67.65262219, 27.32896717, 0.0 ], [ 67.65304397, 27.32718046, 0.0 ], [ 67.65308469, 27.32316072, 0.0 ], [ 67.652802, 27.3219629, 0.0 ], [ 67.64939186, 27.31534722, 0.0 ], [ 67.64832772, 27.3103318, 0.0 ], [ 67.64928813, 27.30552817, 0.0 ], [ 67.65087051, 27.30013412, 0.0 ], [ 67.65744819, 27.27845782, 0.0 ], [ 67.65934417, 27.27328396, 0.0 ], [ 67.65945924, 27.27006053, 0.0 ], [ 67.65869447, 27.26819053, 0.0 ], [ 67.65730098, 27.26638986, 0.0 ], [ 67.65350515, 27.25871542, 0.0 ], [ 67.65289624, 27.2553641, 0.0 ], [ 67.6537002, 27.25315902, 0.0 ], [ 67.65588326, 27.2502676, 0.0 ], [ 67.65760963, 27.2472039, 0.0 ], [ 67.65865657, 27.23091109, 0.0 ], [ 67.65778678, 27.22784306, 0.0 ], [ 67.65545271, 27.22426271, 0.0 ], [ 67.64753538, 27.21794959, 0.0 ], [ 67.63825225, 27.21134621, 0.0 ], [ 67.63614932, 27.20950066, 0.0 ], [ 67.63435684, 27.20682378, 0.0 ], [ 67.63267674, 27.20390019, 0.0 ], [ 67.63209463, 27.20204504, 0.0 ], [ 67.63032525, 27.1923404, 0.0 ], [ 67.62958317, 27.18986161, 0.0 ], [ 67.62880032, 27.18437745, 0.0 ], [ 67.62733742, 27.17910066, 0.0 ], [ 67.62697168, 27.17652418, 0.0 ], [ 67.62699429, 27.17440926, 0.0 ], [ 67.62798322, 27.17183657, 0.0 ], [ 67.63227376, 27.16533956, 0.0 ], [ 67.6363504, 27.15758686, 0.0 ], [ 67.63742226, 27.15263146, 0.0 ], [ 67.63703673, 27.1448959, 0.0 ], [ 67.63505236, 27.12655372, 0.0 ], [ 67.63527657, 27.12334142, 0.0 ], [ 67.63559328, 27.12173862, 0.0 ], [ 67.64026147, 27.11399986, 0.0 ], [ 67.64086412, 27.11238154, 0.0 ], [ 67.64273399, 27.10282447, 0.0 ], [ 67.64436105, 27.09648313, 0.0 ] ] } },
{ "type": "Feature", "properties": { "Name": "RBOD DRAIN III", "descriptio": "RBOD III" }, "geometry": { "type": "LineString", "coordinates": [ [ 67.73049494, 28.07382065, 0.0 ], [ 67.73049759, 28.07382327, 0.0 ] ] } },
{ "type": "Feature", "properties": { "Name": "RBOD-I ( POST  FLOOD )", "descriptio": null }, "geometry": { "type": "LineString", "coordinates": [ [ 67.66534748, 27.03262673, 0.0 ], [ 67.67774244, 27.01882984, 0.0 ], [ 67.67878566, 27.0165493, 0.0 ], [ 67.67928295, 27.01305291, 0.0 ] ] } },
{ "type": "Feature", "properties": { "Name": "RBOD-I ( PRE FLOOD )", "descriptio": null }, "geometry": { "type": "LineString", "coordinates": [ [ 67.64440784, 27.09651254, 0.0 ], [ 67.64471194, 27.09367206, 0.0 ], [ 67.64740449, 27.08169649, 0.0 ], [ 67.64949073, 27.07873222, 0.0 ], [ 67.65501492, 27.07212356, 0.0 ], [ 67.65619706, 27.0693901, 0.0 ], [ 67.65677338, 27.06404625, 0.0 ], [ 67.65622385, 27.04725604, 0.0 ], [ 67.65709059, 27.04402952, 0.0 ], [ 67.65912323, 27.04066207, 0.0 ], [ 67.66534884, 27.03262475, 0.0 ] ] } },
{ "type": "Feature", "properties": { "Name": "RBOD-I ( PRE FLOOD )", "descriptio": null }, "geometry": { "type": "LineString", "coordinates": [ [ 67.67924407, 27.0130734, 0.0 ], [ 67.6800585, 27.01039107, 0.0 ], [ 67.68260078, 27.00572576, 0.0 ], [ 67.68294374, 27.00446847, 0.0 ], [ 67.68252549, 27.00185777, 0.0 ], [ 67.67572198, 26.99184034, 0.0 ], [ 67.67395585, 26.98872828, 0.0 ], [ 67.6703824, 26.98458609, 0.0 ], [ 67.66753761, 26.98202625, 0.0 ], [ 67.66629865, 26.98030204, 0.0 ], [ 67.66563686, 26.9782556, 0.0 ], [ 67.66574498, 26.97663608, 0.0 ], [ 67.67064661, 26.95894791, 0.0 ], [ 67.67102814, 26.95777986, 0.0 ], [ 67.67246715, 26.95568512, 0.0 ], [ 67.68332877, 26.94659872, 0.0 ], [ 67.68499533, 26.94628793, 0.0 ], [ 67.69252732, 26.94660511, 0.0 ], [ 67.69417597, 26.94594625, 0.0 ], [ 67.69524189, 26.94443361, 0.0 ], [ 67.69521887, 26.94334798, 0.0 ], [ 67.69315838, 26.93509676, 0.0 ], [ 67.6925124, 26.93384617, 0.0 ], [ 67.69045635, 26.93203621, 0.0 ], [ 67.68689586, 26.93055381, 0.0 ], [ 67.68624722, 26.93006135, 0.0 ], [ 67.6859123, 26.92925973, 0.0 ], [ 67.68581614, 26.92750216, 0.0 ], [ 67.68728277, 26.90920579, 0.0 ], [ 67.68438585, 26.89350175, 0.0 ], [ 67.68410953, 26.89272613, 0.0 ], [ 67.68188128, 26.88982973, 0.0 ], [ 67.68144777, 26.88740223, 0.0 ], [ 67.68167925, 26.88623393, 0.0 ], [ 67.68231772, 26.88522487, 0.0 ], [ 67.68671915, 26.8813409, 0.0 ], [ 67.69499983, 26.88088761, 0.0 ], [ 67.6965359, 26.88038614, 0.0 ], [ 67.69993527, 26.87857177, 0.0 ], [ 67.70058718, 26.87791892, 0.0 ], [ 67.70083971, 26.87606122, 0.0 ], [ 67.69799847, 26.87054907, 0.0 ], [ 67.69557051, 26.86738575, 0.0 ], [ 67.69207939, 26.86436822, 0.0 ], [ 67.69047907, 26.8614638, 0.0 ], [ 67.6902507, 26.8573011, 0.0 ], [ 67.69062432, 26.85576804, 0.0 ], [ 67.69201747, 26.85429873, 0.0 ], [ 67.69705658, 26.85076195, 0.0 ], [ 67.69842283, 26.84763578, 0.0 ], [ 67.69942157, 26.84681164, 0.0 ], [ 67.7019153, 26.84583436, 0.0 ], [ 67.70307241, 26.84492121, 0.0 ], [ 67.70529383, 26.84157729, 0.0 ], [ 67.70733625, 26.83602076, 0.0 ], [ 67.70706333, 26.83533471, 0.0 ], [ 67.70533138, 26.83352354, 0.0 ], [ 67.70048351, 26.82936222, 0.0 ], [ 67.69672202, 26.82659243, 0.0 ], [ 67.69034472, 26.82309481, 0.0 ], [ 67.68909417, 26.82206638, 0.0 ], [ 67.68539964, 26.81634642, 0.0 ], [ 67.68312988, 26.80928803, 0.0 ], [ 67.6829935, 26.80726657, 0.0 ], [ 67.68350187, 26.79886574, 0.0 ], [ 67.6869717, 26.79163446, 0.0 ], [ 67.68721668, 26.79012651, 0.0 ], [ 67.68709985, 26.78496808, 0.0 ], [ 67.68789229, 26.78349725, 0.0 ], [ 67.69780445, 26.77500547, 0.0 ], [ 67.69875977, 26.77385562, 0.0 ], [ 67.69988844, 26.77137305, 0.0 ], [ 67.69982755, 26.76837217, 0.0 ], [ 67.69898561, 26.76659693, 0.0 ], [ 67.68930176, 26.75495662, 0.0 ], [ 67.68880966, 26.75248679, 0.0 ], [ 67.68952774, 26.74615541, 0.0 ], [ 67.68928061, 26.74507103, 0.0 ], [ 67.6888974, 26.74398627, 0.0 ], [ 67.68283236, 26.73413118, 0.0 ], [ 67.6808879, 26.72801086, 0.0 ], [ 67.67978266, 26.72717157, 0.0 ], [ 67.67637777, 26.72557569, 0.0 ], [ 67.67425876, 26.72198084, 0.0 ], [ 67.6706741, 26.7194196, 0.0 ], [ 67.6664865, 26.71498456, 0.0 ], [ 67.66588014, 26.71340918, 0.0 ], [ 67.66538697, 26.71055097, 0.0 ], [ 67.665741, 26.70833243, 0.0 ], [ 67.66511103, 26.70693837, 0.0 ], [ 67.65809683, 26.70256584, 0.0 ], [ 67.65707549, 26.70164283, 0.0 ], [ 67.65590422, 26.6999161, 0.0 ], [ 67.65202011, 26.69084335, 0.0 ], [ 67.65135522, 26.69015673, 0.0 ], [ 67.64635742, 26.68813665, 0.0 ], [ 67.64312963, 26.68641695, 0.0 ], [ 67.63959524, 26.68207093, 0.0 ], [ 67.63871199, 26.67880608, 0.0 ], [ 67.6373755, 26.67694749, 0.0 ], [ 67.63683483, 26.67474242, 0.0 ], [ 67.63684237, 26.67330147, 0.0 ], [ 67.63825229, 26.66942921, 0.0 ], [ 67.63894723, 26.66594786, 0.0 ], [ 67.63768256, 26.6597651, 0.0 ], [ 67.63958313, 26.65429525, 0.0 ], [ 67.64110774, 26.64365189, 0.0 ], [ 67.64223932, 26.64037269, 0.0 ], [ 67.63763885, 26.62184554, 0.0 ], [ 67.62886648, 26.57930344, 0.0 ], [ 67.62686343, 26.56780809, 0.0 ], [ 67.62650199, 26.56726819, 0.0 ], [ 67.62414537, 26.56604221, 0.0 ], [ 67.62342106, 26.56413072, 0.0 ], [ 67.62378647, 26.56208829, 0.0 ], [ 67.62528172, 26.56066331, 0.0 ], [ 67.62544354, 26.55999587, 0.0 ], [ 67.62468644, 26.55457809, 0.0 ], [ 67.62476773, 26.55287536, 0.0 ], [ 67.62633557, 26.54393727, 0.0 ], [ 67.62481684, 26.50950573, 0.0 ], [ 67.62359723, 26.50435099, 0.0 ], [ 67.62216198, 26.50002398, 0.0 ], [ 67.62177258, 26.49675185, 0.0 ], [ 67.61891146, 26.48809534, 0.0 ], [ 67.61740462, 26.48237812, 0.0 ] ] } },
{ "type": "Feature", "properties": { "Name": "RBOD DRAIN III", "descriptio": "RBOD III" }, "geometry": { "type": "LineString", "coordinates": [ [ 67.73049759, 28.07382327, 0.0 ], [ 67.76854944, 28.11127535, 0.0 ], [ 67.78931281, 28.13454057, 0.0 ], [ 67.82808354, 28.16062113, 0.0 ], [ 67.86985067, 28.18937892, 0.0 ], [ 67.88946497, 28.20618407, 0.0 ], [ 67.90185442, 28.21520734, 0.0 ], [ 67.9082213, 28.21736663, 0.0 ], [ 67.91597311, 28.21887081, 0.0 ], [ 68.04417653, 28.22792731, 0.0 ], [ 68.04679069, 28.22983199, 0.0 ], [ 68.04829508, 28.2297315, 0.0 ], [ 68.04980831, 28.22863236, 0.0 ], [ 68.05306762, 28.22843303, 0.0 ], [ 68.10190046, 28.23207759, 0.0 ], [ 68.15369453, 28.23010535, 0.0 ], [ 68.18558867, 28.22509039, 0.0 ], [ 68.18876909, 28.22492897, 0.0 ] ] } },
{ "type": "Feature", "properties": { "Name": "RBOD DRAIN III", "descriptio": "RBOD III" }, "geometry": { "type": "LineString", "coordinates": [ [ 67.75554634, 27.6410514, 0.0 ], [ 67.75399885, 27.64358512, 0.0 ], [ 67.75062029, 27.64801197, 0.0 ], [ 67.74932729, 27.65107814, 0.0 ], [ 67.74930395, 27.65429043, 0.0 ], [ 67.75044494, 27.66081237, 0.0 ], [ 67.75042642, 27.66205921, 0.0 ], [ 67.75001486, 27.66302719, 0.0 ], [ 67.74867164, 27.66359556, 0.0 ], [ 67.74074375, 27.66366295, 0.0 ], [ 67.73848099, 27.66477325, 0.0 ], [ 67.73704717, 27.66595465, 0.0 ], [ 67.66811684, 27.72919078, 0.0 ], [ 67.63884757, 27.75561252, 0.0 ], [ 67.63485206, 27.75952523, 0.0 ], [ 67.63257793, 27.76226283, 0.0 ], [ 67.63038709, 27.76586128, 0.0 ], [ 67.62159743, 27.78838882, 0.0 ], [ 67.61629988, 27.80482254, 0.0 ], [ 67.60415205, 27.83799774, 0.0 ], [ 67.60353839, 27.84047159, 0.0 ], [ 67.60380351, 27.84544014, 0.0 ], [ 67.61144953, 27.90084301, 0.0 ], [ 67.62518503, 27.9300333, 0.0 ], [ 67.6395003, 27.95926051, 0.0 ], [ 67.64182238, 27.96417006, 0.0 ], [ 67.64397677, 27.9700078, 0.0 ], [ 67.64847284, 27.97902093, 0.0 ], [ 67.6579956, 27.99487117, 0.0 ], [ 67.67018015, 28.01384581, 0.0 ], [ 67.69929873, 28.04356915, 0.0 ], [ 67.73049494, 28.07382065, 0.0 ] ] } },
{ "type": "Feature", "properties": { "Name": "RBOD Extension Drain", "descriptio": null }, "geometry": { "type": "LineString", "coordinates": [ [ 68.19045011, 28.22294261, 0.0 ], [ 68.18932675, 28.22218338, 0.0 ], [ 68.18792824, 28.22204744, 0.0 ], [ 68.18614584, 28.22135293, 0.0 ], [ 68.17057655, 28.2115083, 0.0 ], [ 68.16025584, 28.2040433, 0.0 ], [ 68.15492449, 28.19852325, 0.0 ], [ 68.1504926, 28.19635818, 0.0 ], [ 68.14368779, 28.19106812, 0.0 ], [ 68.12394007, 28.17334872, 0.0 ], [ 68.10631597, 28.15841793, 0.0 ], [ 68.08632129, 28.1430073, 0.0 ], [ 68.0432561, 28.10885063, 0.0 ], [ 68.02103877, 28.08931379, 0.0 ], [ 67.97939923, 28.08146753, 0.0 ], [ 67.97619991, 28.07961771, 0.0 ], [ 67.97477129, 28.07801367, 0.0 ], [ 67.94089882, 28.02977432, 0.0 ], [ 67.91955367, 28.00008326, 0.0 ], [ 67.9144083, 27.9618888, 0.0 ], [ 67.9126968, 27.95960669, 0.0 ], [ 67.90892895, 27.95036144, 0.0 ], [ 67.90710065, 27.94805888, 0.0 ], [ 67.90339309, 27.94127609, 0.0 ], [ 67.9001856, 27.92876177, 0.0 ], [ 67.89823182, 27.9238752, 0.0 ], [ 67.89391597, 27.91471784, 0.0 ], [ 67.88787333, 27.9045178, 0.0 ], [ 67.87547808, 27.88507946, 0.0 ], [ 67.8734956, 27.88324208, 0.0 ], [ 67.85811771, 27.8806055, 0.0 ], [ 67.85392336, 27.87933445, 0.0 ], [ 67.85050493, 27.87397272, 0.0 ], [ 67.84464098, 27.85970844, 0.0 ], [ 67.84304733, 27.85157147, 0.0 ], [ 67.8419492, 27.84933415, 0.0 ], [ 67.83962896, 27.84621512, 0.0 ], [ 67.83731768, 27.84535981, 0.0 ], [ 67.82397128, 27.8437697, 0.0 ], [ 67.82265964, 27.84242946, 0.0 ], [ 67.8229369, 27.83973626, 0.0 ], [ 67.82392755, 27.83667069, 0.0 ], [ 67.82409418, 27.83440361, 0.0 ], [ 67.80228305, 27.80189534, 0.0 ], [ 67.80135393, 27.800273, 0.0 ], [ 67.79959004, 27.79168919, 0.0 ], [ 67.78639844, 27.77629197, 0.0 ], [ 67.78419019, 27.76523915, 0.0 ], [ 67.76906879, 27.76135404, 0.0 ], [ 67.76757005, 27.76064841, 0.0 ], [ 67.76684944, 27.75995281, 0.0 ], [ 67.7663883, 27.75819289, 0.0 ], [ 67.76597051, 27.74052229, 0.0 ], [ 67.76548822, 27.73952087, 0.0 ], [ 67.76458327, 27.7389299, 0.0 ], [ 67.73383417, 27.72756786, 0.0 ], [ 67.73208938, 27.72668826, 0.0 ], [ 67.7311317, 27.72533738, 0.0 ], [ 67.73583724, 27.71020951, 0.0 ], [ 67.75975182, 27.64091932, 0.0 ] ] } },
{ "type": "Feature", "properties": { "Name": "RBOD-I", "descriptio": null }, "geometry": { "type": "LineString", "coordinates": [ [ 67.75968019, 27.64123424, 0.0 ], [ 67.76099575, 27.63710426, 0.0 ], [ 67.76097956, 27.63524172, 0.0 ], [ 67.76048388, 27.63339839, 0.0 ], [ 67.75546189, 27.62316993, 0.0 ], [ 67.74892072, 27.61381562, 0.0 ], [ 67.74751415, 27.6110583, 0.0 ], [ 67.74268256, 27.59550376, 0.0 ], [ 67.74260571, 27.59352605, 0.0 ], [ 67.74393508, 27.58227705, 0.0 ], [ 67.74275623, 27.57585337, 0.0 ], [ 67.74138929, 27.57269464, 0.0 ], [ 67.73968173, 27.55661268, 0.0 ], [ 67.73866048, 27.55342874, 0.0 ], [ 67.73646341, 27.55085895, 0.0 ], [ 67.73376646, 27.54937899, 0.0 ], [ 67.73072563, 27.54896426, 0.0 ], [ 67.72525937, 27.54959088, 0.0 ], [ 67.72255425, 27.54945724, 0.0 ], [ 67.67554602, 27.53501286, 0.0 ], [ 67.6729638, 27.53375893, 0.0 ], [ 67.66996356, 27.53153321, 0.0 ], [ 67.667782, 27.52881326, 0.0 ], [ 67.66479881, 27.52237278, 0.0 ], [ 67.6645342, 27.52069785, 0.0 ], [ 67.66403094, 27.51033699, 0.0 ], [ 67.6640902, 27.50901531, 0.0 ], [ 67.66504194, 27.50719197, 0.0 ], [ 67.66505173, 27.50660241, 0.0 ], [ 67.66479625, 27.50560325, 0.0 ], [ 67.66376723, 27.50552708, 0.0 ], [ 67.66279617, 27.47750594, 0.0 ] ] } },
{ "type": "Feature", "properties": { "Name": "RBOD-I", "descriptio": "During Flood 2010" }, "geometry": { "type": "LineString", "coordinates": [ [ 67.66279617, 27.47750594, 0.0 ], [ 67.6614033, 27.4607306, 0.0 ], [ 67.66029168, 27.43476018, 0.0 ], [ 67.66104846, 27.43161331, 0.0 ], [ 67.67363933, 27.40236648, 0.0 ], [ 67.67436286, 27.39919715, 0.0 ], [ 67.67440739, 27.39659851, 0.0 ], [ 67.67374904, 27.39395517, 0.0 ], [ 67.67201829, 27.38969086, 0.0 ], [ 67.65988574, 27.36719596, 0.0 ], [ 67.64606032, 27.34749804, 0.0 ], [ 67.64534904, 27.34540995, 0.0 ], [ 67.64524212, 27.34407202, 0.0 ], [ 67.64572483, 27.34106389, 0.0 ], [ 67.65262219, 27.32896717, 0.0 ], [ 67.65304397, 27.32718046, 0.0 ], [ 67.65308469, 27.32316072, 0.0 ], [ 67.652802, 27.3219629, 0.0 ], [ 67.64939186, 27.31534722, 0.0 ], [ 67.64832772, 27.3103318, 0.0 ], [ 67.64928813, 27.30552817, 0.0 ], [ 67.65087051, 27.30013412, 0.0 ], [ 67.65744819, 27.27845782, 0.0 ], [ 67.65934417, 27.27328396, 0.0 ], [ 67.65945924, 27.27006053, 0.0 ], [ 67.65869447, 27.26819053, 0.0 ], [ 67.65730098, 27.26638986, 0.0 ], [ 67.65350515, 27.25871542, 0.0 ], [ 67.65289624, 27.2553641, 0.0 ], [ 67.6537002, 27.25315902, 0.0 ], [ 67.65588326, 27.2502676, 0.0 ], [ 67.65760963, 27.2472039, 0.0 ], [ 67.65865657, 27.23091109, 0.0 ], [ 67.65778678, 27.22784306, 0.0 ], [ 67.65545271, 27.22426271, 0.0 ], [ 67.64753538, 27.21794959, 0.0 ], [ 67.63825225, 27.21134621, 0.0 ], [ 67.63614932, 27.20950066, 0.0 ], [ 67.63435684, 27.20682378, 0.0 ], [ 67.63267674, 27.20390019, 0.0 ], [ 67.63209463, 27.20204504, 0.0 ], [ 67.63032525, 27.1923404, 0.0 ], [ 67.62958317, 27.18986161, 0.0 ], [ 67.62880032, 27.18437745, 0.0 ], [ 67.62733742, 27.17910066, 0.0 ], [ 67.62697168, 27.17652418, 0.0 ], [ 67.62699429, 27.17440926, 0.0 ], [ 67.62798322, 27.17183657, 0.0 ], [ 67.63227376, 27.16533956, 0.0 ], [ 67.6363504, 27.15758686, 0.0 ], [ 67.63742226, 27.15263146, 0.0 ], [ 67.63703673, 27.1448959, 0.0 ], [ 67.63505236, 27.12655372, 0.0 ], [ 67.63527657, 27.12334142, 0.0 ], [ 67.63559328, 27.12173862, 0.0 ], [ 67.64026147, 27.11399986, 0.0 ], [ 67.64086412, 27.11238154, 0.0 ], [ 67.64273399, 27.10282447, 0.0 ], [ 67.64436105, 27.09648313, 0.0 ] ] } },
{ "type": "Feature", "properties": { "Name": "RBOD-I", "descriptio": null }, "geometry": { "type": "LineString", "coordinates": [ [ 67.66534748, 27.03262673, 0.0 ], [ 67.67774244, 27.01882984, 0.0 ], [ 67.67878566, 27.0165493, 0.0 ], [ 67.67928295, 27.01305291, 0.0 ] ] } },
{ "type": "Feature", "properties": { "Name": "RBOD-I", "descriptio": null }, "geometry": { "type": "LineString", "coordinates": [ [ 67.64440784, 27.09651254, 0.0 ], [ 67.64471194, 27.09367206, 0.0 ], [ 67.64740449, 27.08169649, 0.0 ], [ 67.64949073, 27.07873222, 0.0 ], [ 67.65501492, 27.07212356, 0.0 ], [ 67.65619706, 27.0693901, 0.0 ], [ 67.65677338, 27.06404625, 0.0 ], [ 67.65622385, 27.04725604, 0.0 ], [ 67.65709059, 27.04402952, 0.0 ], [ 67.65912323, 27.04066207, 0.0 ], [ 67.66534884, 27.03262475, 0.0 ] ] } },
{ "type": "Feature", "properties": { "Name": "RBOD-I", "descriptio": null }, "geometry": { "type": "LineString", "coordinates": [ [ 67.67924407, 27.0130734, 0.0 ], [ 67.6800585, 27.01039107, 0.0 ], [ 67.68260078, 27.00572576, 0.0 ], [ 67.68294374, 27.00446847, 0.0 ], [ 67.68252549, 27.00185777, 0.0 ], [ 67.67572198, 26.99184034, 0.0 ], [ 67.67395585, 26.98872828, 0.0 ], [ 67.6703824, 26.98458609, 0.0 ], [ 67.66753761, 26.98202625, 0.0 ], [ 67.66629865, 26.98030204, 0.0 ], [ 67.66563686, 26.9782556, 0.0 ], [ 67.66574498, 26.97663608, 0.0 ], [ 67.67064661, 26.95894791, 0.0 ], [ 67.67102814, 26.95777986, 0.0 ], [ 67.67246715, 26.95568512, 0.0 ], [ 67.68332877, 26.94659872, 0.0 ], [ 67.68499533, 26.94628793, 0.0 ], [ 67.69252732, 26.94660511, 0.0 ], [ 67.69417597, 26.94594625, 0.0 ], [ 67.69524189, 26.94443361, 0.0 ], [ 67.69521887, 26.94334798, 0.0 ], [ 67.69315838, 26.93509676, 0.0 ], [ 67.6925124, 26.93384617, 0.0 ], [ 67.69045635, 26.93203621, 0.0 ], [ 67.68689586, 26.93055381, 0.0 ], [ 67.68624722, 26.93006135, 0.0 ], [ 67.6859123, 26.92925973, 0.0 ], [ 67.68581614, 26.92750216, 0.0 ], [ 67.68728277, 26.90920579, 0.0 ], [ 67.68438585, 26.89350175, 0.0 ], [ 67.68410953, 26.89272613, 0.0 ], [ 67.68188128, 26.88982973, 0.0 ], [ 67.68144777, 26.88740223, 0.0 ], [ 67.68167925, 26.88623393, 0.0 ], [ 67.68231772, 26.88522487, 0.0 ], [ 67.68671915, 26.8813409, 0.0 ], [ 67.69499983, 26.88088761, 0.0 ], [ 67.6965359, 26.88038614, 0.0 ], [ 67.69993527, 26.87857177, 0.0 ], [ 67.70058718, 26.87791892, 0.0 ], [ 67.70083971, 26.87606122, 0.0 ], [ 67.69799847, 26.87054907, 0.0 ], [ 67.69557051, 26.86738575, 0.0 ], [ 67.69207939, 26.86436822, 0.0 ], [ 67.69047907, 26.8614638, 0.0 ], [ 67.6902507, 26.8573011, 0.0 ], [ 67.69062432, 26.85576804, 0.0 ], [ 67.69201747, 26.85429873, 0.0 ], [ 67.69705658, 26.85076195, 0.0 ], [ 67.69842283, 26.84763578, 0.0 ], [ 67.69942157, 26.84681164, 0.0 ], [ 67.7019153, 26.84583436, 0.0 ], [ 67.70307241, 26.84492121, 0.0 ], [ 67.70529383, 26.84157729, 0.0 ], [ 67.70733625, 26.83602076, 0.0 ], [ 67.70706333, 26.83533471, 0.0 ], [ 67.70533138, 26.83352354, 0.0 ], [ 67.70048351, 26.82936222, 0.0 ], [ 67.69672202, 26.82659243, 0.0 ], [ 67.69034472, 26.82309481, 0.0 ], [ 67.68909417, 26.82206638, 0.0 ], [ 67.68539964, 26.81634642, 0.0 ], [ 67.68312988, 26.80928803, 0.0 ], [ 67.6829935, 26.80726657, 0.0 ], [ 67.68350187, 26.79886574, 0.0 ], [ 67.6869717, 26.79163446, 0.0 ], [ 67.68721668, 26.79012651, 0.0 ], [ 67.68709985, 26.78496808, 0.0 ], [ 67.68789229, 26.78349725, 0.0 ], [ 67.69780445, 26.77500547, 0.0 ], [ 67.69875977, 26.77385562, 0.0 ], [ 67.69988844, 26.77137305, 0.0 ], [ 67.69982755, 26.76837217, 0.0 ], [ 67.69898561, 26.76659693, 0.0 ], [ 67.68930176, 26.75495662, 0.0 ], [ 67.68880966, 26.75248679, 0.0 ], [ 67.68952774, 26.74615541, 0.0 ], [ 67.68928061, 26.74507103, 0.0 ], [ 67.6888974, 26.74398627, 0.0 ], [ 67.68283236, 26.73413118, 0.0 ], [ 67.6808879, 26.72801086, 0.0 ], [ 67.67978266, 26.72717157, 0.0 ], [ 67.67637777, 26.72557569, 0.0 ], [ 67.67425876, 26.72198084, 0.0 ], [ 67.6706741, 26.7194196, 0.0 ], [ 67.6664865, 26.71498456, 0.0 ], [ 67.66588014, 26.71340918, 0.0 ], [ 67.66538697, 26.71055097, 0.0 ], [ 67.665741, 26.70833243, 0.0 ], [ 67.66511103, 26.70693837, 0.0 ], [ 67.65809683, 26.70256584, 0.0 ], [ 67.65707549, 26.70164283, 0.0 ], [ 67.65590422, 26.6999161, 0.0 ], [ 67.65202011, 26.69084335, 0.0 ], [ 67.65135522, 26.69015673, 0.0 ], [ 67.64635742, 26.68813665, 0.0 ], [ 67.64312963, 26.68641695, 0.0 ], [ 67.63959524, 26.68207093, 0.0 ], [ 67.63871199, 26.67880608, 0.0 ], [ 67.6373755, 26.67694749, 0.0 ], [ 67.63683483, 26.67474242, 0.0 ], [ 67.63684237, 26.67330147, 0.0 ], [ 67.63825229, 26.66942921, 0.0 ], [ 67.63894723, 26.66594786, 0.0 ], [ 67.63768256, 26.6597651, 0.0 ], [ 67.63958313, 26.65429525, 0.0 ], [ 67.64110774, 26.64365189, 0.0 ], [ 67.64223932, 26.64037269, 0.0 ], [ 67.63763885, 26.62184554, 0.0 ], [ 67.62886648, 26.57930344, 0.0 ], [ 67.62686343, 26.56780809, 0.0 ], [ 67.62650199, 26.56726819, 0.0 ], [ 67.62414537, 26.56604221, 0.0 ], [ 67.62342106, 26.56413072, 0.0 ], [ 67.62378647, 26.56208829, 0.0 ], [ 67.62528172, 26.56066331, 0.0 ], [ 67.62544354, 26.55999587, 0.0 ], [ 67.62468644, 26.55457809, 0.0 ], [ 67.62476773, 26.55287536, 0.0 ], [ 67.62633557, 26.54393727, 0.0 ], [ 67.62481684, 26.50950573, 0.0 ], [ 67.62359723, 26.50435099, 0.0 ], [ 67.62216198, 26.50002398, 0.0 ], [ 67.62177258, 26.49675185, 0.0 ], [ 67.61891146, 26.48809534, 0.0 ], [ 67.61740462, 26.48237812, 0.0 ] ] } },
{ "type": "Feature", "properties": { "Name": "RBOD-III", "descriptio": "RBOD III" }, "geometry": { "type": "LineString", "coordinates": [ [ 67.75554634, 27.6410514, 0.0 ], [ 67.75399885, 27.64358512, 0.0 ], [ 67.75062029, 27.64801197, 0.0 ], [ 67.74932729, 27.65107814, 0.0 ], [ 67.74930395, 27.65429043, 0.0 ], [ 67.75044494, 27.66081237, 0.0 ], [ 67.75042642, 27.66205921, 0.0 ], [ 67.75001486, 27.66302719, 0.0 ], [ 67.74867164, 27.66359556, 0.0 ], [ 67.74074375, 27.66366295, 0.0 ], [ 67.73848099, 27.66477325, 0.0 ], [ 67.73704717, 27.66595465, 0.0 ], [ 67.66811684, 27.72919078, 0.0 ], [ 67.63884757, 27.75561252, 0.0 ], [ 67.63485206, 27.75952523, 0.0 ], [ 67.63257793, 27.76226283, 0.0 ], [ 67.63038709, 27.76586128, 0.0 ], [ 67.62159743, 27.78838882, 0.0 ], [ 67.61629988, 27.80482254, 0.0 ], [ 67.60415205, 27.83799774, 0.0 ], [ 67.60353839, 27.84047159, 0.0 ], [ 67.60380351, 27.84544014, 0.0 ], [ 67.61144953, 27.90084301, 0.0 ], [ 67.62518503, 27.9300333, 0.0 ], [ 67.6395003, 27.95926051, 0.0 ], [ 67.64182238, 27.96417006, 0.0 ], [ 67.64397677, 27.9700078, 0.0 ], [ 67.64847284, 27.97902093, 0.0 ], [ 67.6579956, 27.99487117, 0.0 ], [ 67.67018015, 28.01384581, 0.0 ], [ 67.69929873, 28.04356915, 0.0 ], [ 67.73049494, 28.07382065, 0.0 ] ] } },
{ "type": "Feature", "properties": { "Name": "RBOD-III", "descriptio": "RBOD III" }, "geometry": { "type": "LineString", "coordinates": [ [ 67.73049759, 28.07382327, 0.0 ], [ 67.76854944, 28.11127535, 0.0 ], [ 67.78931281, 28.13454057, 0.0 ], [ 67.82808354, 28.16062113, 0.0 ], [ 67.86985067, 28.18937892, 0.0 ], [ 67.88946497, 28.20618407, 0.0 ], [ 67.90185442, 28.21520734, 0.0 ], [ 67.9082213, 28.21736663, 0.0 ], [ 67.91597311, 28.21887081, 0.0 ], [ 68.04417653, 28.22792731, 0.0 ], [ 68.04679069, 28.22983199, 0.0 ], [ 68.04829508, 28.2297315, 0.0 ], [ 68.04980831, 28.22863236, 0.0 ], [ 68.05306762, 28.22843303, 0.0 ], [ 68.10190046, 28.23207759, 0.0 ], [ 68.15369453, 28.23010535, 0.0 ], [ 68.18558867, 28.22509039, 0.0 ], [ 68.18876909, 28.22492897, 0.0 ] ] } },
{ "type": "Feature", "properties": { "Name": "Shahdadkot Branch Drain", "descriptio": null }, "geometry": { "type": "LineString", "coordinates": [ [ 67.78580207, 27.77002555, 0.0 ], [ 67.80178316, 27.76968324, 0.0 ], [ 67.8317752, 27.77596194, 0.0 ], [ 67.83988628, 27.77723465, 0.0 ], [ 67.89157766, 27.78079034, 0.0 ], [ 67.91950958, 27.77715743, 0.0 ], [ 67.94527809, 27.77302057, 0.0 ], [ 67.95605944, 27.77840187, 0.0 ], [ 67.96254294, 27.78013688, 0.0 ], [ 67.98339594, 27.78029185, 0.0 ], [ 68.01102618, 27.77976968, 0.0 ], [ 68.01617827, 27.77908379, 0.0 ], [ 68.02536036, 27.78203949, 0.0 ], [ 68.04975863, 27.78726806, 0.0 ], [ 68.067072, 27.78979492, 0.0 ], [ 68.08223961, 27.7898965, 0.0 ], [ 68.11875086, 27.78001678, 0.0 ], [ 68.12989705, 27.77478779, 0.0 ], [ 68.13302051, 27.77366318, 0.0 ], [ 68.14250542, 27.7793833, 0.0 ], [ 68.15845936, 27.78273341, 0.0 ], [ 68.16958024, 27.78954567, 0.0 ], [ 68.189417, 27.80839287, 0.0 ], [ 68.19477824, 27.81613279, 0.0 ], [ 68.19664546, 27.82011839, 0.0 ], [ 68.21759024, 27.82758589, 0.0 ], [ 68.23493387, 27.82732176, 0.0 ], [ 68.24249301, 27.83133818, 0.0 ], [ 68.24826314, 27.83943965, 0.0 ], [ 68.24980121, 27.85221535, 0.0 ], [ 68.2556067, 27.8553784, 0.0 ], [ 68.25934867, 27.86310712, 0.0 ], [ 68.26841978, 27.86448044, 0.0 ], [ 68.28416646, 27.87094673, 0.0 ], [ 68.28465954, 27.87841698, 0.0 ], [ 68.29547254, 27.88317007, 0.0 ], [ 68.31965522, 27.88533912, 0.0 ], [ 68.33927666, 27.89097512, 0.0 ], [ 68.35282403, 27.89248475, 0.0 ], [ 68.36307879, 27.90072293, 0.0 ], [ 68.37819955, 27.91187314, 0.0 ], [ 68.38825736, 27.90758205, 0.0 ], [ 68.39702641, 27.90328459, 0.0 ], [ 68.40488457, 27.90428233, 0.0 ], [ 68.42869949, 27.91329627, 0.0 ] ] } }
]
}
