{
"type": "FeatureCollection",
"name": "lakes",
"crs": { "type": "name", "properties": { "name": "urn:ogc:def:crs:OGC:1.3:CRS84" } },
"features": [
{ "type": "Feature", "properties": { "name": "Manchar Lake", "area_km2": 120.4, "osm_name": "منچھر جھیل" }, "geometry": { "type": "MultiPolygon", "coordinates": [ [ [ [ 67.7085954, 26.3602692 ], [ 67.70895660587999, 26.360332359614791 ], [ 67.708446231736175, 26.360176865066475 ], [ 67.7085954, 26.3602692 ] ] ], [ [ [ 67.7094403, 26.3605036 ], [ 67.709547274801494, 26.360512317393347 ], [ 67.709331497400868, 26.360446576975548 ], [ 67.7094403, 26.3605036 ] ] ], [ [ [ 67.7096924, 26.360556532362821 ], [ 67.7100378, 26.3607553 ], [ 67.710352592072965, 26.360757671604365 ], [ 67.7096924, 26.360556532362821 ] ] ], [ [ [ 67.7101497, 26.3610575 ], [ 67.7094275, 26.3618656 ], [ 67.7101122, 26.3616403 ], [ 67.7096166, 26.362112 ], [ 67.7100921, 26.3617863 ], [ 67.7102121, 26.3643013 ], [ 67.7138257, 26.3637972 ], [ 67.7193068, 26.3666943 ], [ 67.7226663, 26.3665814 ], [ 67.7236097, 26.3679698 ], [ 67.7267539, 26.3691768 ], [ 67.7307732, 26.3722864 ], [ 67.7338028, 26.3722527 ], [ 67.7357233, 26.370734 ], [ 67.7369222, 26.373077 ], [ 67.7383143, 26.3715606 ], [ 67.74101884771548, 26.370100691088176 ], [ 67.7101497, 26.3610575 ] ] ], [ [ [ 67.7437055, 26.3712615 ], [ 67.7436586, 26.3732067 ], [ 67.7459505, 26.3726348 ], [ 67.751665, 26.3736561 ], [ 67.7514792, 26.3748468 ], [ 67.7527405, 26.3752637 ], [ 67.757717912107964, 26.375188357668645 ], [ 67.74313202994972, 26.370744509590754 ], [ 67.7437055, 26.3712615 ] ] ], [ [ [ 67.760157296455972, 26.375931559439273 ], [ 67.7610862, 26.3785294 ], [ 67.7605766, 26.3822346 ], [ 67.7595895, 26.383191 ], [ 67.7584201, 26.3861344 ], [ 67.7546597, 26.3891522 ], [ 67.7449822, 26.3868024 ], [ 67.7382606, 26.3869682 ], [ 67.7374104, 26.3864732 ], [ 67.7374077, 26.3854148 ], [ 67.736603, 26.3868624 ], [ 67.7316812, 26.3855073 ], [ 67.7284545, 26.386454 ], [ 67.7259842, 26.3856094 ], [ 67.724918, 26.384378 ], [ 67.7249609, 26.3858797 ], [ 67.726998, 26.3869441 ], [ 67.7259546, 26.3878091 ], [ 67.7264334, 26.388393 ], [ 67.7323968, 26.3866206 ], [ 67.7397479, 26.3880278 ], [ 67.7412057, 26.3888459 ], [ 67.7429062, 26.3883401 ], [ 67.7463756, 26.3885347 ], [ 67.7553067, 26.3904923 ], [ 67.7558143, 26.3910648 ], [ 67.7553101, 26.3915645 ], [ 67.7567665, 26.3910071 ], [ 67.7584174, 26.3889384 ], [ 67.7608113, 26.3884591 ], [ 67.7640715, 26.3887149 ], [ 67.7642593, 26.390022 ], [ 67.7651913, 26.3890814 ], [ 67.7668127, 26.3908077 ], [ 67.7682732, 26.3889768 ], [ 67.7697927, 26.3886765 ], [ 67.7706563, 26.3894598 ], [ 67.7715817, 26.3892123 ], [ 67.7752081, 26.3908569 ], [ 67.7789631, 26.3905038 ], [ 67.7796444, 26.3917231 ], [ 67.7810767, 26.3910576 ], [ 67.7809332, 26.3902046 ], [ 67.7840996, 26.3891727 ], [ 67.7846776, 26.3904245 ], [ 67.7860241, 26.3909338 ], [ 67.7871868, 26.3944537 ], [ 67.7877232, 26.3925953 ], [ 67.7888525, 26.3922145 ], [ 67.7881175, 26.3918192 ], [ 67.7888162, 26.3910516 ], [ 67.7928852, 26.3906365 ], [ 67.7960797, 26.3888074 ], [ 67.7985788, 26.3895589 ], [ 67.7985165, 26.3888861 ], [ 67.7997543, 26.3887702 ], [ 67.799954071761761, 26.388056353917261 ], [ 67.760157296455972, 26.375931559439273 ] ] ], [ [ [ 67.729220911229987, 26.420221470444417 ], [ 67.7542332, 26.4158241 ], [ 67.8056377, 26.4092864 ], [ 67.8101398, 26.4077249 ], [ 67.809142, 26.406173 ], [ 67.8104094, 26.4040841 ], [ 67.8126973, 26.4017322 ], [ 67.8152467, 26.4008084 ], [ 67.8147532, 26.4003171 ], [ 67.8157523, 26.3994582 ], [ 67.8191641, 26.3977512 ], [ 67.8198548, 26.3960142 ], [ 67.8186572, 26.3949907 ], [ 67.815067, 26.3958436 ], [ 67.8138399, 26.3946327 ], [ 67.8099413, 26.393298 ], [ 67.8073423, 26.3940717 ], [ 67.8067052, 26.3934266 ], [ 67.8080839, 26.3925292 ], [ 67.8078921, 26.3905182 ], [ 67.8042832, 26.3886957 ], [ 67.8034859, 26.3889096 ], [ 67.8032727, 26.389828 ], [ 67.8019738, 26.3886717 ], [ 67.729220911229987, 26.420221470444417 ] ] ], [ [ [ 67.7082051, 26.3601034 ], [ 67.7050616, 26.3593235 ], [ 67.7019784, 26.3597705 ], [ 67.700353, 26.3593307 ], [ 67.6982582, 26.3561871 ], [ 67.6936501, 26.3554709 ], [ 67.6919992, 26.3562989 ], [ 67.6903376, 26.3534713 ], [ 67.6855874, 26.3514836 ], [ 67.6820844, 26.3511375 ], [ 67.6810384, 26.3494887 ], [ 67.6787773, 26.349693 ], [ 67.6776749, 26.3504405 ], [ 67.6770499, 26.3526709 ], [ 67.6781094, 26.3545528 ], [ 67.6778385, 26.3558242 ], [ 67.6784447, 26.3574081 ], [ 67.6765376, 26.3613063 ], [ 67.6781979, 26.3641229 ], [ 67.6794076, 26.3635966 ], [ 67.6796933, 26.3642262 ], [ 67.6793231, 26.3651527 ], [ 67.6779699, 26.3653966 ], [ 67.6780142, 26.3671641 ], [ 67.6770338, 26.3679031 ], [ 67.6781657, 26.3730914 ], [ 67.6754031, 26.3746197 ], [ 67.6710713, 26.3749393 ], [ 67.6696765, 26.3783564 ], [ 67.6677024, 26.3797645 ], [ 67.6670507, 26.3816483 ], [ 67.665554, 26.3830035 ], [ 67.6590496, 26.3827993 ], [ 67.6596934, 26.3850676 ], [ 67.6571506, 26.3862089 ], [ 67.657223, 26.3883245 ], [ 67.6560462, 26.388441 ], [ 67.6552865, 26.3871027 ], [ 67.6522583, 26.3861056 ], [ 67.6510486, 26.3866534 ], [ 67.650083, 26.3857884 ], [ 67.6489484, 26.3861488 ], [ 67.6482839, 26.3854956 ], [ 67.6487204, 26.3845702 ], [ 67.6471567, 26.3847035 ], [ 67.6443484, 26.3837508 ], [ 67.6418969, 26.3849402 ], [ 67.6414517, 26.3845894 ], [ 67.6419103, 26.3841329 ], [ 67.6404458, 26.3833159 ], [ 67.6356018, 26.3867567 ], [ 67.6338798, 26.3868985 ], [ 67.6347005, 26.3900316 ], [ 67.6339281, 26.3894021 ], [ 67.6331502, 26.3900388 ], [ 67.631447, 26.3891066 ], [ 67.6304492, 26.3894189 ], [ 67.6303983, 26.3899836 ], [ 67.6311024, 26.3901422 ], [ 67.6303406, 26.390344 ], [ 67.6275645, 26.3907741 ], [ 67.6267397, 26.3897373 ], [ 67.6261617, 26.3902166 ], [ 67.6241407, 26.3899175 ], [ 67.6209113, 26.3910936 ], [ 67.617474, 26.3899163 ], [ 67.6181084, 26.3895126 ], [ 67.6154771, 26.3893 ], [ 67.6141682, 26.3902323 ], [ 67.612571, 26.3953427 ], [ 67.6095106, 26.3962556 ], [ 67.6083867, 26.3974845 ], [ 67.6054081, 26.3975434 ], [ 67.6052083, 26.398457 ], [ 67.6028238, 26.4001886 ], [ 67.6020755, 26.4062102 ], [ 67.6006995, 26.407624 ], [ 67.5971979, 26.4082907 ], [ 67.5908115, 26.4060997 ], [ 67.5890292, 26.4067363 ], [ 67.5873086, 26.4103542 ], [ 67.5858924, 26.4113608 ], [ 67.584326, 26.4140248 ], [ 67.5832719, 26.4168954 ], [ 67.583288, 26.4190934 ], [ 67.5810403, 26.4211735 ], [ 67.5807533, 26.4223085 ], [ 67.5812622, 26.4229709 ], [ 67.580127, 26.4229462 ], [ 67.579843, 26.4243901 ], [ 67.5775199, 26.4263835 ], [ 67.5778672, 26.4294711 ], [ 67.5763732, 26.4295083 ], [ 67.576459, 26.4307861 ], [ 67.5753432, 26.4307621 ], [ 67.5755766, 26.4318597 ], [ 67.5749584, 26.4319174 ], [ 67.5750026, 26.4327796 ], [ 67.5733799, 26.4329238 ], [ 67.573691, 26.4343984 ], [ 67.5729024, 26.435412 ], [ 67.5733557, 26.4358179 ], [ 67.5719744, 26.4372277 ], [ 67.5717276, 26.4387984 ], [ 67.5695658, 26.440518 ], [ 67.5679243, 26.4408302 ], [ 67.5672296, 26.4421751 ], [ 67.5678813, 26.4422568 ], [ 67.5678384, 26.4452707 ], [ 67.5664759, 26.446325 ], [ 67.5649792, 26.4460705 ], [ 67.5639975, 26.4472136 ], [ 67.5581074, 26.4580294 ], [ 67.5568896, 26.4623565 ], [ 67.554827, 26.4624453 ], [ 67.5534202, 26.4638104 ], [ 67.5525445, 26.4638716 ], [ 67.5506508, 26.4661839 ], [ 67.5486124, 26.466083 ], [ 67.5475073, 26.4667698 ], [ 67.5445998, 26.4744434 ], [ 67.5335703, 26.4838599 ], [ 67.5328517, 26.4850358 ], [ 67.5331521, 26.4861882 ], [ 67.5353193, 26.4865147 ], [ 67.5402546, 26.4847286 ], [ 67.5560689, 26.4744722 ], [ 67.5642228, 26.4734542 ], [ 67.5665188, 26.4743186 ], [ 67.5728917, 26.4803688 ], [ 67.5817537, 26.4841716 ], [ 67.7082051, 26.3601034 ] ] ], [ [ [ 67.5867963, 26.4869372 ], [ 67.5874078, 26.4886369 ], [ 67.5882339, 26.489165 ], [ 67.5931048, 26.4887137 ], [ 67.5963664, 26.4929867 ], [ 67.6047778, 26.4985175 ], [ 67.6169014, 26.5023197 ], [ 67.6207638, 26.5024445 ], [ 67.6219654, 26.501494 ], [ 67.6199537, 26.4965203 ], [ 67.6201951, 26.4943502 ], [ 67.6185965, 26.4883296 ], [ 67.6172769, 26.4868508 ], [ 67.6175988, 26.4850454 ], [ 67.6166493, 26.4833361 ], [ 67.618221, 26.483509 ], [ 67.6214719, 26.4942734 ], [ 67.6249051, 26.4975573 ], [ 67.6262891, 26.5025549 ], [ 67.6287353, 26.5023101 ], [ 67.6299155, 26.5011723 ], [ 67.6296204, 26.5002986 ], [ 67.627185, 26.4997153 ], [ 67.6311386, 26.4994104 ], [ 67.6336652, 26.498023 ], [ 67.6329625, 26.4969188 ], [ 67.6319647, 26.4974661 ], [ 67.6323187, 26.4963042 ], [ 67.6311439, 26.4956177 ], [ 67.6292342, 26.4973172 ], [ 67.6287675, 26.4961962 ], [ 67.6302373, 26.4948687 ], [ 67.6260424, 26.4912583 ], [ 67.6264822, 26.4906006 ], [ 67.6280862, 26.4903605 ], [ 67.6274049, 26.4888241 ], [ 67.6299798, 26.4882383 ], [ 67.6331878, 26.4915176 ], [ 67.6352115, 26.4923086 ], [ 67.6350331, 26.4929387 ], [ 67.6361731, 26.4940742 ], [ 67.6389384, 26.4952528 ], [ 67.6385871, 26.4979822 ], [ 67.6407489, 26.4970508 ], [ 67.6412693, 26.496189 ], [ 67.64301, 26.4958577 ], [ 67.6436242, 26.4948567 ], [ 67.6456547, 26.4946359 ], [ 67.6470441, 26.4937525 ], [ 67.648302, 26.4938029 ], [ 67.6485568, 26.4950464 ], [ 67.646808, 26.4964723 ], [ 67.6483422, 26.4964339 ], [ 67.6492515, 26.4956993 ], [ 67.6492569, 26.4946167 ], [ 67.6505578, 26.4939901 ], [ 67.650374, 26.4934344 ], [ 67.6527518, 26.4920601 ], [ 67.6531595, 26.490046 ], [ 67.6520015, 26.4887287 ], [ 67.6531327, 26.4871076 ], [ 67.6522797, 26.4852207 ], [ 67.6524568, 26.4834321 ], [ 67.6570822, 26.4848414 ], [ 67.6557854, 26.4868364 ], [ 67.6568824, 26.4858281 ], [ 67.67166, 26.4789199 ], [ 67.6800889, 26.4806184 ], [ 67.6809123, 26.4803231 ], [ 67.6985948, 26.4423865 ], [ 67.712858900328996, 26.42731696447445 ], [ 67.5817537, 26.4841716 ], [ 67.5867963, 26.4869372 ] ] ] ] } },
{ "type": "Feature", "properties": { "name": "Hamal Lake", "area_km2": 123.6, "osm_name": "حمل جھیل" }, "geometry": { "type": "Polygon", "coordinates": [ [ [ 67.6701341, 27.5358636 ], [ 67.6739107, 27.5366246 ], [ 67.6740823, 27.5352547 ], [ 67.6687608, 27.5317537 ], [ 67.6642976, 27.5233812 ], [ 67.6632677, 27.5165305 ], [ 67.6601778, 27.4330699 ], [ 67.6740823, 27.3990888 ], [ 67.673739, 27.3943642 ], [ 67.6560579, 27.3625056 ], [ 67.6396251, 27.3402072 ], [ 67.6306843, 27.3271028 ], [ 67.629433, 27.3241725 ], [ 67.6292078, 27.3205389 ], [ 67.6346683, 27.2792199 ], [ 67.6344833, 27.2780088 ], [ 67.634148, 27.2770028 ], [ 67.6326339, 27.2739823 ], [ 67.6319647, 27.2730549 ], [ 67.6345476, 27.2789648 ], [ 67.632603, 27.2925832 ], [ 67.630137, 27.3036422 ], [ 67.6255022, 27.3167596 ], [ 67.6232706, 27.3320103 ], [ 67.6206956, 27.3342978 ], [ 67.6213823, 27.3371951 ], [ 67.6249872, 27.33872 ], [ 67.6218973, 27.3407023 ], [ 67.6215539, 27.3468016 ], [ 67.620524, 27.3474115 ], [ 67.6208673, 27.3495461 ], [ 67.6260171, 27.352748 ], [ 67.6196657, 27.3585417 ], [ 67.6234422, 27.3623531 ], [ 67.6217256, 27.3647924 ], [ 67.6236139, 27.3655547 ], [ 67.6230989, 27.3682987 ], [ 67.6251588, 27.3702805 ], [ 67.6237855, 27.3733294 ], [ 67.6263605, 27.3750062 ], [ 67.6279054, 27.3769879 ], [ 67.630137, 27.3760733 ], [ 67.6325403, 27.3789695 ], [ 67.6308237, 27.3814084 ], [ 67.6330553, 27.3859812 ], [ 67.631167, 27.3862861 ], [ 67.6304803, 27.3893345 ], [ 67.6268755, 27.3934497 ], [ 67.6268755, 27.3969551 ], [ 67.6232706, 27.3955834 ], [ 67.6225839, 27.3977172 ], [ 67.6177774, 27.4039657 ], [ 67.6107393, 27.4170711 ], [ 67.6064477, 27.4207282 ], [ 67.6057611, 27.4242328 ], [ 67.6061044, 27.428499 ], [ 67.596663, 27.4437344 ], [ 67.5906549, 27.4486093 ], [ 67.5887666, 27.45257 ], [ 67.5844751, 27.4589677 ], [ 67.5846468, 27.4623187 ], [ 67.5793253, 27.4652127 ], [ 67.576922, 27.462471 ], [ 67.5741754, 27.4642988 ], [ 67.576407, 27.4661266 ], [ 67.5740037, 27.4676497 ], [ 67.5748621, 27.4706959 ], [ 67.5810419, 27.4787678 ], [ 67.5903116, 27.4981076 ], [ 67.5887666, 27.5011529 ], [ 67.5911699, 27.5051117 ], [ 67.598723, 27.5057207 ], [ 67.607821, 27.5140945 ], [ 67.6158891, 27.5192708 ], [ 67.6253305, 27.5290136 ], [ 67.6352869, 27.5372335 ], [ 67.6383768, 27.5442351 ], [ 67.64284, 27.5468226 ], [ 67.6701341, 27.5358636 ] ] ] } }
]
}
