{
"type": "FeatureCollection",
"name": "nai_subcatchments",
"crs": { "type": "name", "properties": { "name": "urn:ogc:def:crs:OGC:1.3:CRS84" } },
"features": [
{ "type": "Feature", "properties": { "id": 1, "name": "Nai Bhan", "area_km2": 1264.6, "drains_to": "manchar" }, "geometry": { "type": "Polygon", "coordinates": [ [ [ 67.43133544921875, 26.645521653945661 ], [ 67.43133544921875, 26.63354120759697 ], [ 67.43408203125, 26.63354120759697 ], [ 67.43408203125, 26.626352939787758 ], [ 67.44232177734375, 26.626352939787758 ], [ 67.44232177734375, 26.616768582708804 ], [ 67.44781494140625, 26.616768582708804 ], [ 67.44781494140625, 26.611976404169329 ], [ 67.4505615234375, 26.611976404169329 ], [ 67.4505615234375, 26.609580314899588 ], [ 67.44781494140625, 26.609580314899588 ], [ 67.44781494140625, 26.607184225629851 ], [ 67.4505615234375, 26.607184225629851 ], [ 67.4505615234375, 26.597599868550898 ], [ 67.44781494140625, 26.597599868550898 ], [ 67.44781494140625, 26.59520377928116 ], [ 67.44232177734375, 26.59520377928116 ], [ 67.44232177734375, 26.599995957820635 ], [ 67.43682861328125, 26.599995957820635 ], [ 67.43408203125, 26.604788136360114 ], [ 67.42584228515625, 26.599995957820635 ], [ 67.42584228515625, 26.592807690011423 ], [ 67.423095703125, 26.592807690011423 ], [ 67.423095703125, 26.590411600741685 ], [ 67.41485595703125, 26.590411600741685 ], [ 67.41485595703125, 26.59520377928116 ], [ 67.412109375, 26.59520377928116 ], [ 67.412109375, 26.597599868550898 ], [ 67.39837646484375, 26.597599868550898 ], [ 67.3956298828125, 26.602392047090376 ], [ 67.39288330078125, 26.602392047090376 ], [ 67.39288330078125, 26.599995957820635 ], [ 67.3736572265625, 26.602392047090376 ], [ 67.3736572265625, 26.599995957820635 ], [ 67.3681640625, 26.597599868550898 ], [ 67.3681640625, 26.590411600741685 ], [ 67.36541748046875, 26.590411600741685 ], [ 67.36541748046875, 26.588015511471944 ], [ 67.34344482421875, 26.588015511471944 ], [ 67.34344482421875, 26.590411600741685 ], [ 67.33795166015625, 26.590411600741685 ], [ 67.33795166015625, 26.592807690011423 ], [ 67.32696533203125, 26.592807690011423 ], [ 67.32696533203125, 26.59520377928116 ], [ 67.3187255859375, 26.59520377928116 ], [ 67.3187255859375, 26.592807690011423 ], [ 67.31597900390625, 26.592807690011423 ], [ 67.31597900390625, 26.59520377928116 ], [ 67.313232421875, 26.59520377928116 ], [ 67.313232421875, 26.602392047090376 ], [ 67.31048583984375, 26.602392047090376 ], [ 67.3077392578125, 26.611976404169329 ], [ 67.30499267578125, 26.611976404169329 ], [ 67.30499267578125, 26.619164671978542 ], [ 67.29949951171875, 26.619164671978542 ], [ 67.29949951171875, 26.614372493439067 ], [ 67.27752685546875, 26.616768582708804 ], [ 67.27752685546875, 26.611976404169329 ], [ 67.2747802734375, 26.611976404169329 ], [ 67.2747802734375, 26.607184225629851 ], [ 67.27752685546875, 26.607184225629851 ], [ 67.27752685546875, 26.590411600741685 ], [ 67.27203369140625, 26.590411600741685 ], [ 67.27203369140625, 26.588015511471944 ], [ 67.26654052734375, 26.585619422202207 ], [ 67.26654052734375, 26.576035065123254 ], [ 67.2637939453125, 26.576035065123254 ], [ 67.2637939453125, 26.573638975853516 ], [ 67.26654052734375, 26.573638975853516 ], [ 67.26654052734375, 26.571242886583779 ], [ 67.27203369140625, 26.571242886583779 ], [ 67.27203369140625, 26.568846797314041 ], [ 67.2802734375, 26.568846797314041 ], [ 67.2802734375, 26.564054618774563 ], [ 67.28851318359375, 26.559262440235088 ], [ 67.28851318359375, 26.554470261695609 ], [ 67.28302001953125, 26.552074172425872 ], [ 67.28302001953125, 26.537697636807444 ], [ 67.2802734375, 26.537697636807444 ], [ 67.28302001953125, 26.532905458267969 ], [ 67.2802734375, 26.532905458267969 ], [ 67.2802734375, 26.52811327972849 ], [ 67.27752685546875, 26.52811327972849 ], [ 67.27752685546875, 26.525717190458753 ], [ 67.2747802734375, 26.525717190458753 ], [ 67.2747802734375, 26.520925011919278 ], [ 67.27203369140625, 26.520925011919278 ], [ 67.27203369140625, 26.511340654840325 ], [ 67.26654052734375, 26.508944565570584 ], [ 67.26654052734375, 26.504152387031109 ], [ 67.2747802734375, 26.504152387031109 ], [ 67.2802734375, 26.496964119221893 ], [ 67.29400634765625, 26.494568029952156 ], [ 67.29400634765625, 26.47779540506399 ], [ 67.291259765625, 26.47779540506399 ], [ 67.28851318359375, 26.468211047985037 ], [ 67.28302001953125, 26.468211047985037 ], [ 67.28302001953125, 26.465814958715299 ], [ 67.2802734375, 26.465814958715299 ], [ 67.2747802734375, 26.458626690906083 ], [ 67.26104736328125, 26.456230601636346 ], [ 67.26104736328125, 26.461022780175821 ], [ 67.25830078125, 26.461022780175821 ], [ 67.25830078125, 26.465814958715299 ], [ 67.25555419921875, 26.465814958715299 ], [ 67.25555419921875, 26.468211047985037 ], [ 67.2418212890625, 26.470607137254774 ], [ 67.2418212890625, 26.473003226524511 ], [ 67.23907470703125, 26.473003226524511 ], [ 67.23358154296875, 26.480191494333727 ], [ 67.22259521484375, 26.480191494333727 ], [ 67.2198486328125, 26.484983672873202 ], [ 67.21435546875, 26.484983672873202 ], [ 67.21435546875, 26.487379762142943 ], [ 67.21160888671875, 26.487379762142943 ], [ 67.20611572265625, 26.494568029952156 ], [ 67.20062255859375, 26.494568029952156 ], [ 67.20062255859375, 26.465814958715299 ], [ 67.203369140625, 26.465814958715299 ], [ 67.203369140625, 26.463418869445558 ], [ 67.20611572265625, 26.463418869445558 ], [ 67.20611572265625, 26.461022780175821 ], [ 67.2088623046875, 26.461022780175821 ], [ 67.21435546875, 26.453834512366608 ], [ 67.2198486328125, 26.453834512366608 ], [ 67.2198486328125, 26.44904233382713 ], [ 67.22259521484375, 26.44904233382713 ], [ 67.22259521484375, 26.446646244557392 ], [ 67.22808837890625, 26.446646244557392 ], [ 67.2308349609375, 26.437061887478439 ], [ 67.23358154296875, 26.437061887478439 ], [ 67.23358154296875, 26.434665798208702 ], [ 67.23907470703125, 26.434665798208702 ], [ 67.24456787109375, 26.427477530399486 ], [ 67.247314453125, 26.427477530399486 ], [ 67.247314453125, 26.422685351860011 ], [ 67.2528076171875, 26.420289262590273 ], [ 67.2528076171875, 26.415497084050795 ], [ 67.25555419921875, 26.415497084050795 ], [ 67.25555419921875, 26.41070490551132 ], [ 67.25830078125, 26.41070490551132 ], [ 67.25830078125, 26.405912726971842 ], [ 67.26104736328125, 26.405912726971842 ], [ 67.26104736328125, 26.403516637702104 ], [ 67.2637939453125, 26.403516637702104 ], [ 67.2637939453125, 26.401120548432367 ], [ 67.27203369140625, 26.396328369892892 ], [ 67.27203369140625, 26.38195183427446 ], [ 67.2747802734375, 26.38195183427446 ], [ 67.2747802734375, 26.374763566465248 ], [ 67.27752685546875, 26.374763566465248 ], [ 67.27752685546875, 26.362783120116557 ], [ 67.2802734375, 26.362783120116557 ], [ 67.2802734375, 26.355594852307341 ], [ 67.28302001953125, 26.355594852307341 ], [ 67.28302001953125, 26.350802673767866 ], [ 67.2857666015625, 26.350802673767866 ], [ 67.28851318359375, 26.341218316688913 ], [ 67.2967529296875, 26.336426138149434 ], [ 67.2967529296875, 26.33163395960996 ], [ 67.29400634765625, 26.33163395960996 ], [ 67.29400634765625, 26.324445691800744 ], [ 67.2967529296875, 26.324445691800744 ], [ 67.29949951171875, 26.31486133472179 ], [ 67.30224609375, 26.31486133472179 ], [ 67.30224609375, 26.310069156182315 ], [ 67.30499267578125, 26.310069156182315 ], [ 67.30499267578125, 26.305276977642841 ], [ 67.3077392578125, 26.305276977642841 ], [ 67.3077392578125, 26.300484799103362 ], [ 67.31048583984375, 26.300484799103362 ], [ 67.31048583984375, 26.295692620563887 ], [ 67.313232421875, 26.295692620563887 ], [ 67.313232421875, 26.290900442024409 ], [ 67.3187255859375, 26.288504352754671 ], [ 67.3187255859375, 26.283712174215196 ], [ 67.32147216796875, 26.283712174215196 ], [ 67.32147216796875, 26.278919995675718 ], [ 67.32421875, 26.278919995675718 ], [ 67.32421875, 26.274127817136243 ], [ 67.32696533203125, 26.274127817136243 ], [ 67.32696533203125, 26.269335638596765 ], [ 67.3297119140625, 26.269335638596765 ], [ 67.33245849609375, 26.259751281517815 ], [ 67.33795166015625, 26.259751281517815 ], [ 67.34344482421875, 26.266939549327027 ], [ 67.36541748046875, 26.266939549327027 ], [ 67.3681640625, 26.271731727866506 ], [ 67.3736572265625, 26.271731727866506 ], [ 67.37640380859375, 26.276523906405981 ], [ 67.38189697265625, 26.276523906405981 ], [ 67.38189697265625, 26.278919995675718 ], [ 67.39288330078125, 26.278919995675718 ], [ 67.3956298828125, 26.283712174215196 ], [ 67.40936279296875, 26.283712174215196 ], [ 67.40936279296875, 26.281316084945455 ], [ 67.41485595703125, 26.278919995675718 ], [ 67.41485595703125, 26.269335638596765 ], [ 67.4176025390625, 26.269335638596765 ], [ 67.4176025390625, 26.262147370787552 ], [ 67.42034912109375, 26.262147370787552 ], [ 67.42034912109375, 26.257355192248074 ], [ 67.423095703125, 26.257355192248074 ], [ 67.42034912109375, 26.247770835169124 ], [ 67.4176025390625, 26.247770835169124 ], [ 67.4176025390625, 26.245374745899383 ], [ 67.412109375, 26.242978656629646 ], [ 67.412109375, 26.238186478090171 ], [ 67.4066162109375, 26.23579038882043 ], [ 67.4066162109375, 26.233394299550692 ], [ 67.40936279296875, 26.233394299550692 ], [ 67.40936279296875, 26.228602121011217 ], [ 67.412109375, 26.228602121011217 ], [ 67.412109375, 26.223809942471739 ], [ 67.41485595703125, 26.223809942471739 ], [ 67.41485595703125, 26.204641228313836 ], [ 67.412109375, 26.204641228313836 ], [ 67.412109375, 26.199849049774357 ], [ 67.40936279296875, 26.199849049774357 ], [ 67.40936279296875, 26.195056871234883 ], [ 67.4066162109375, 26.195056871234883 ], [ 67.4066162109375, 26.187868603425667 ], [ 67.40386962890625, 26.187868603425667 ], [ 67.40386962890625, 26.183076424886192 ], [ 67.3956298828125, 26.178284246346713 ], [ 67.3956298828125, 26.173492067807238 ], [ 67.39837646484375, 26.173492067807238 ], [ 67.39837646484375, 26.15911553218881 ], [ 67.40386962890625, 26.15911553218881 ], [ 67.40386962890625, 26.154323353649332 ], [ 67.412109375, 26.149531175109857 ], [ 67.412109375, 26.142342907300641 ], [ 67.41485595703125, 26.142342907300641 ], [ 67.41485595703125, 26.135154639491429 ], [ 67.42034912109375, 26.132758550221688 ], [ 67.42034912109375, 26.125570282412475 ], [ 67.423095703125, 26.125570282412475 ], [ 67.423095703125, 26.120778103872997 ], [ 67.4285888671875, 26.120778103872997 ], [ 67.4285888671875, 26.123174193142738 ], [ 67.4395751953125, 26.123174193142738 ], [ 67.4395751953125, 26.120778103872997 ], [ 67.44232177734375, 26.120778103872997 ], [ 67.44232177734375, 26.115985925333522 ], [ 67.65106201171875, 26.115985925333522 ], [ 67.65106201171875, 26.125570282412475 ], [ 67.6483154296875, 26.125570282412475 ], [ 67.6483154296875, 26.135154639491429 ], [ 67.64556884765625, 26.135154639491429 ], [ 67.64556884765625, 26.147135085840119 ], [ 67.6373291015625, 26.147135085840119 ], [ 67.64007568359375, 26.156719442919073 ], [ 67.63458251953125, 26.15911553218881 ], [ 67.6318359375, 26.178284246346713 ], [ 67.62908935546875, 26.178284246346713 ], [ 67.62908935546875, 26.185472514155929 ], [ 67.6263427734375, 26.185472514155929 ], [ 67.6263427734375, 26.190264692695404 ], [ 67.62359619140625, 26.190264692695404 ], [ 67.62359619140625, 26.195056871234883 ], [ 67.620849609375, 26.195056871234883 ], [ 67.620849609375, 26.19745296050462 ], [ 67.6153564453125, 26.19745296050462 ], [ 67.6153564453125, 26.202245139044098 ], [ 67.61260986328125, 26.202245139044098 ], [ 67.61260986328125, 26.204641228313836 ], [ 67.6043701171875, 26.209433406853311 ], [ 67.6043701171875, 26.219017763932264 ], [ 67.59613037109375, 26.219017763932264 ], [ 67.59613037109375, 26.221413853202002 ], [ 67.59063720703125, 26.223809942471739 ], [ 67.59063720703125, 26.228602121011217 ], [ 67.58514404296875, 26.230998210280955 ], [ 67.58514404296875, 26.238186478090171 ], [ 67.5823974609375, 26.238186478090171 ], [ 67.5823974609375, 26.247770835169124 ], [ 67.57965087890625, 26.247770835169124 ], [ 67.576904296875, 26.252563013708599 ], [ 67.5714111328125, 26.252563013708599 ], [ 67.56866455078125, 26.257355192248074 ], [ 67.5604248046875, 26.257355192248074 ], [ 67.55767822265625, 26.266939549327027 ], [ 67.55218505859375, 26.269335638596765 ], [ 67.55218505859375, 26.274127817136243 ], [ 67.5494384765625, 26.274127817136243 ], [ 67.5494384765625, 26.276523906405981 ], [ 67.54669189453125, 26.276523906405981 ], [ 67.54669189453125, 26.281316084945455 ], [ 67.5439453125, 26.281316084945455 ], [ 67.5439453125, 26.29329653129415 ], [ 67.5494384765625, 26.295692620563887 ], [ 67.5494384765625, 26.3028808883731 ], [ 67.54669189453125, 26.3028808883731 ], [ 67.54669189453125, 26.310069156182315 ], [ 67.5439453125, 26.310069156182315 ], [ 67.5439453125, 26.31486133472179 ], [ 67.54119873046875, 26.31486133472179 ], [ 67.54119873046875, 26.317257423991531 ], [ 67.5439453125, 26.317257423991531 ], [ 67.5439453125, 26.324445691800744 ], [ 67.54669189453125, 26.324445691800744 ], [ 67.54669189453125, 26.336426138149434 ], [ 67.5494384765625, 26.336426138149434 ], [ 67.5494384765625, 26.341218316688913 ], [ 67.5604248046875, 26.346010495228388 ], [ 67.5604248046875, 26.348406584498125 ], [ 67.5439453125, 26.348406584498125 ], [ 67.5439453125, 26.355594852307341 ], [ 67.5494384765625, 26.357990941577079 ], [ 67.5494384765625, 26.369971387925769 ], [ 67.55218505859375, 26.369971387925769 ], [ 67.554931640625, 26.379555745004723 ], [ 67.5494384765625, 26.38195183427446 ], [ 67.5494384765625, 26.384347923544201 ], [ 67.5439453125, 26.384347923544201 ], [ 67.5439453125, 26.398724459162629 ], [ 67.54119873046875, 26.398724459162629 ], [ 67.5384521484375, 26.403516637702104 ], [ 67.53021240234375, 26.403516637702104 ], [ 67.53021240234375, 26.41070490551132 ], [ 67.5274658203125, 26.41070490551132 ], [ 67.5274658203125, 26.415497084050795 ], [ 67.52471923828125, 26.415497084050795 ], [ 67.52471923828125, 26.417893173320532 ], [ 67.5164794921875, 26.417893173320532 ], [ 67.5164794921875, 26.420289262590273 ], [ 67.51373291015625, 26.420289262590273 ], [ 67.51373291015625, 26.425081441129748 ], [ 67.510986328125, 26.425081441129748 ], [ 67.510986328125, 26.432269708938964 ], [ 67.50823974609375, 26.432269708938964 ], [ 67.50823974609375, 26.437061887478439 ], [ 67.51373291015625, 26.439457976748177 ], [ 67.51373291015625, 26.444250155287655 ], [ 67.5164794921875, 26.444250155287655 ], [ 67.5164794921875, 26.446646244557392 ], [ 67.52197265625, 26.446646244557392 ], [ 67.52197265625, 26.44904233382713 ], [ 67.53570556640625, 26.451438423096867 ], [ 67.53570556640625, 26.456230601636346 ], [ 67.54119873046875, 26.458626690906083 ], [ 67.54119873046875, 26.463418869445558 ], [ 67.56317138671875, 26.463418869445558 ], [ 67.5604248046875, 26.473003226524511 ], [ 67.554931640625, 26.473003226524511 ], [ 67.554931640625, 26.480191494333727 ], [ 67.55218505859375, 26.480191494333727 ], [ 67.55218505859375, 26.489775851412681 ], [ 67.554931640625, 26.489775851412681 ], [ 67.554931640625, 26.492171940682418 ], [ 67.5604248046875, 26.492171940682418 ], [ 67.5604248046875, 26.496964119221893 ], [ 67.56317138671875, 26.496964119221893 ], [ 67.56317138671875, 26.499360208491634 ], [ 67.55767822265625, 26.501756297761371 ], [ 67.55767822265625, 26.508944565570584 ], [ 67.55218505859375, 26.511340654840325 ], [ 67.55218505859375, 26.5161328333798 ], [ 67.5494384765625, 26.5161328333798 ], [ 67.5494384765625, 26.518528922649537 ], [ 67.5439453125, 26.518528922649537 ], [ 67.5439453125, 26.535301547537706 ], [ 67.53570556640625, 26.535301547537706 ], [ 67.53570556640625, 26.537697636807444 ], [ 67.532958984375, 26.537697636807444 ], [ 67.532958984375, 26.547281993886397 ], [ 67.52197265625, 26.549678083156135 ], [ 67.5164794921875, 26.55686635096535 ], [ 67.510986328125, 26.559262440235088 ], [ 67.510986328125, 26.566450708044304 ], [ 67.5054931640625, 26.568846797314041 ], [ 67.5054931640625, 26.576035065123254 ], [ 67.50274658203125, 26.576035065123254 ], [ 67.50274658203125, 26.578431154392995 ], [ 67.49725341796875, 26.578431154392995 ], [ 67.49176025390625, 26.585619422202207 ], [ 67.48626708984375, 26.585619422202207 ], [ 67.48626708984375, 26.588015511471944 ], [ 67.4835205078125, 26.588015511471944 ], [ 67.4835205078125, 26.592807690011423 ], [ 67.48626708984375, 26.592807690011423 ], [ 67.48626708984375, 26.59520377928116 ], [ 67.4835205078125, 26.59520377928116 ], [ 67.4835205078125, 26.607184225629851 ], [ 67.47802734375, 26.607184225629851 ], [ 67.47802734375, 26.609580314899588 ], [ 67.467041015625, 26.609580314899588 ], [ 67.467041015625, 26.616768582708804 ], [ 67.45330810546875, 26.619164671978542 ], [ 67.45330810546875, 26.62395685051802 ], [ 67.445068359375, 26.628749029057495 ], [ 67.445068359375, 26.63354120759697 ], [ 67.4395751953125, 26.635937296866711 ], [ 67.4395751953125, 26.640729475406186 ], [ 67.43408203125, 26.640729475406186 ], [ 67.43408203125, 26.645521653945661 ], [ 67.43133544921875, 26.645521653945661 ] ] ] } },
{ "type": "Feature", "properties": { "id": 2, "name": "Nai Chandio", "area_km2": 123.2, "drains_to": "manchar" }, "geometry": { "type": "MultiPolygon", "coordinates": [ [ [ [ 67.7801513671875, 26.125570282412475 ], [ 67.7801513671875, 26.123174193142738 ], [ 67.77740478515625, 26.123174193142738 ], [ 67.77740478515625, 26.125570282412475 ], [ 67.7801513671875, 26.125570282412475 ] ] ], [ [ [ 67.77191162109375, 26.125570282412475 ], [ 67.77191162109375, 26.127966371682213 ], [ 67.7581787109375, 26.125570282412475 ], [ 67.7581787109375, 26.123174193142738 ], [ 67.76092529296875, 26.123174193142738 ], [ 67.76092529296875, 26.115985925333522 ], [ 67.65106201171875, 26.115985925333522 ], [ 67.65106201171875, 26.125570282412475 ], [ 67.6483154296875, 26.125570282412475 ], [ 67.6483154296875, 26.135154639491429 ], [ 67.64556884765625, 26.135154639491429 ], [ 67.64556884765625, 26.147135085840119 ], [ 67.6373291015625, 26.147135085840119 ], [ 67.64007568359375, 26.156719442919073 ], [ 67.63458251953125, 26.15911553218881 ], [ 67.6318359375, 26.178284246346713 ], [ 67.62908935546875, 26.178284246346713 ], [ 67.62908935546875, 26.185472514155929 ], [ 67.6263427734375, 26.185472514155929 ], [ 67.6263427734375, 26.192660781965145 ], [ 67.63458251953125, 26.19745296050462 ], [ 67.63458251953125, 26.207037317583573 ], [ 67.6373291015625, 26.207037317583573 ], [ 67.6373291015625, 26.211829496123048 ], [ 67.64007568359375, 26.211829496123048 ], [ 67.64007568359375, 26.219017763932264 ], [ 67.642822265625, 26.219017763932264 ], [ 67.64556884765625, 26.223809942471739 ], [ 67.6702880859375, 26.223809942471739 ], [ 67.6702880859375, 26.22620603174148 ], [ 67.67578125, 26.22620603174148 ], [ 67.67852783203125, 26.230998210280955 ], [ 67.68402099609375, 26.230998210280955 ], [ 67.68402099609375, 26.233394299550692 ], [ 67.69500732421875, 26.233394299550692 ], [ 67.69500732421875, 26.23579038882043 ], [ 67.69775390625, 26.23579038882043 ], [ 67.70050048828125, 26.221413853202002 ], [ 67.708740234375, 26.221413853202002 ], [ 67.71148681640625, 26.216621674662527 ], [ 67.72247314453125, 26.214225585392789 ], [ 67.72247314453125, 26.19745296050462 ], [ 67.72796630859375, 26.19745296050462 ], [ 67.72796630859375, 26.192660781965145 ], [ 67.730712890625, 26.192660781965145 ], [ 67.730712890625, 26.185472514155929 ], [ 67.7362060546875, 26.183076424886192 ], [ 67.7362060546875, 26.178284246346713 ], [ 67.73895263671875, 26.178284246346713 ], [ 67.73895263671875, 26.173492067807238 ], [ 67.74169921875, 26.173492067807238 ], [ 67.74169921875, 26.163907710728285 ], [ 67.74444580078125, 26.163907710728285 ], [ 67.74444580078125, 26.15911553218881 ], [ 67.7471923828125, 26.15911553218881 ], [ 67.7471923828125, 26.154323353649332 ], [ 67.74993896484375, 26.154323353649332 ], [ 67.74993896484375, 26.156719442919073 ], [ 67.76092529296875, 26.156719442919073 ], [ 67.76092529296875, 26.154323353649332 ], [ 67.763671875, 26.154323353649332 ], [ 67.763671875, 26.135154639491429 ], [ 67.7691650390625, 26.135154639491429 ], [ 67.7691650390625, 26.132758550221688 ], [ 67.77740478515625, 26.127966371682213 ], [ 67.77740478515625, 26.125570282412475 ], [ 67.77191162109375, 26.125570282412475 ] ] ] ] } },
{ "type": "Feature", "properties": { "id": 3, "name": "Nai Dugdu", "area_km2": 199.9, "drains_to": "hamal" }, "geometry": { "type": "Polygon", "coordinates": [ [ [ 67.16766357421875, 26.842000974064195 ], [ 67.1649169921875, 26.837208795524717 ], [ 67.16217041015625, 26.837208795524717 ], [ 67.16217041015625, 26.839604884794458 ], [ 67.15118408203125, 26.839604884794458 ], [ 67.15118408203125, 26.837208795524717 ], [ 67.1484375, 26.837208795524717 ], [ 67.1484375, 26.834812706254979 ], [ 67.15118408203125, 26.834812706254979 ], [ 67.15118408203125, 26.822832259906288 ], [ 67.1539306640625, 26.822832259906288 ], [ 67.1539306640625, 26.813247902827335 ], [ 67.15667724609375, 26.813247902827335 ], [ 67.15667724609375, 26.794079188669432 ], [ 67.159423828125, 26.794079188669432 ], [ 67.159423828125, 26.784494831590479 ], [ 67.16217041015625, 26.784494831590479 ], [ 67.16217041015625, 26.736573046195712 ], [ 67.18414306640625, 26.736573046195712 ], [ 67.18414306640625, 26.738969135465453 ], [ 67.19512939453125, 26.738969135465453 ], [ 67.1978759765625, 26.734176956925975 ], [ 67.20611572265625, 26.734176956925975 ], [ 67.2088623046875, 26.743761314004928 ], [ 67.21435546875, 26.743761314004928 ], [ 67.21710205078125, 26.748553492544406 ], [ 67.22808837890625, 26.748553492544406 ], [ 67.22808837890625, 26.750949581814144 ], [ 67.23358154296875, 26.750949581814144 ], [ 67.23358154296875, 26.753345671083881 ], [ 67.236328125, 26.753345671083881 ], [ 67.23358154296875, 26.762930028162835 ], [ 67.236328125, 26.762930028162835 ], [ 67.23907470703125, 26.76772220670231 ], [ 67.24456787109375, 26.76772220670231 ], [ 67.24456787109375, 26.770118295972047 ], [ 67.25006103515625, 26.770118295972047 ], [ 67.25006103515625, 26.76772220670231 ], [ 67.2637939453125, 26.76772220670231 ], [ 67.2637939453125, 26.765326117432572 ], [ 67.26654052734375, 26.765326117432572 ], [ 67.26654052734375, 26.76772220670231 ], [ 67.28302001953125, 26.76772220670231 ], [ 67.2857666015625, 26.762930028162835 ], [ 67.291259765625, 26.762930028162835 ], [ 67.291259765625, 26.760533938893097 ], [ 67.29400634765625, 26.760533938893097 ], [ 67.29400634765625, 26.758137849623356 ], [ 67.3297119140625, 26.755741760353619 ], [ 67.33245849609375, 26.760533938893097 ], [ 67.33795166015625, 26.760533938893097 ], [ 67.33795166015625, 26.755741760353619 ], [ 67.34344482421875, 26.753345671083881 ], [ 67.34344482421875, 26.746157403274665 ], [ 67.34893798828125, 26.746157403274665 ], [ 67.34893798828125, 26.741365224735191 ], [ 67.35443115234375, 26.741365224735191 ], [ 67.35443115234375, 26.738969135465453 ], [ 67.35992431640625, 26.738969135465453 ], [ 67.35992431640625, 26.736573046195712 ], [ 67.37091064453125, 26.734176956925975 ], [ 67.37091064453125, 26.7293847783865 ], [ 67.3736572265625, 26.7293847783865 ], [ 67.3736572265625, 26.726988689116762 ], [ 67.3846435546875, 26.726988689116762 ], [ 67.3846435546875, 26.7293847783865 ], [ 67.39013671875, 26.7293847783865 ], [ 67.39013671875, 26.719800421307546 ], [ 67.401123046875, 26.715008242768072 ], [ 67.401123046875, 26.710216064228593 ], [ 67.40386962890625, 26.710216064228593 ], [ 67.40386962890625, 26.705423885689118 ], [ 67.4066162109375, 26.705423885689118 ], [ 67.4066162109375, 26.703027796419381 ], [ 67.412109375, 26.703027796419381 ], [ 67.412109375, 26.707819974958856 ], [ 67.41485595703125, 26.707819974958856 ], [ 67.41485595703125, 26.710216064228593 ], [ 67.42034912109375, 26.710216064228593 ], [ 67.41485595703125, 26.726988689116762 ], [ 67.412109375, 26.726988689116762 ], [ 67.412109375, 26.731780867656237 ], [ 67.4066162109375, 26.734176956925975 ], [ 67.4066162109375, 26.741365224735191 ], [ 67.40936279296875, 26.741365224735191 ], [ 67.412109375, 26.746157403274665 ], [ 67.4176025390625, 26.746157403274665 ], [ 67.4176025390625, 26.750949581814144 ], [ 67.41485595703125, 26.750949581814144 ], [ 67.40936279296875, 26.758137849623356 ], [ 67.40386962890625, 26.758137849623356 ], [ 67.40386962890625, 26.760533938893097 ], [ 67.39837646484375, 26.762930028162835 ], [ 67.3956298828125, 26.777306563781263 ], [ 67.39288330078125, 26.777306563781263 ], [ 67.39288330078125, 26.782098742320738 ], [ 67.39013671875, 26.782098742320738 ], [ 67.39013671875, 26.786890920860216 ], [ 67.38739013671875, 26.786890920860216 ], [ 67.38189697265625, 26.794079188669432 ], [ 67.379150390625, 26.794079188669432 ], [ 67.379150390625, 26.801267456478644 ], [ 67.37640380859375, 26.801267456478644 ], [ 67.37640380859375, 26.806059635018123 ], [ 67.3736572265625, 26.806059635018123 ], [ 67.3736572265625, 26.801267456478644 ], [ 67.37091064453125, 26.801267456478644 ], [ 67.37091064453125, 26.806059635018123 ], [ 67.3626708984375, 26.810851813557598 ], [ 67.3626708984375, 26.815643992097073 ], [ 67.35992431640625, 26.815643992097073 ], [ 67.35992431640625, 26.818040081366814 ], [ 67.357177734375, 26.818040081366814 ], [ 67.3516845703125, 26.825228349176026 ], [ 67.32696533203125, 26.825228349176026 ], [ 67.32696533203125, 26.822832259906288 ], [ 67.3297119140625, 26.822832259906288 ], [ 67.3297119140625, 26.813247902827335 ], [ 67.32421875, 26.813247902827335 ], [ 67.32421875, 26.810851813557598 ], [ 67.32147216796875, 26.810851813557598 ], [ 67.32147216796875, 26.813247902827335 ], [ 67.31597900390625, 26.813247902827335 ], [ 67.31597900390625, 26.815643992097073 ], [ 67.3077392578125, 26.815643992097073 ], [ 67.3077392578125, 26.818040081366814 ], [ 67.29400634765625, 26.818040081366814 ], [ 67.29400634765625, 26.815643992097073 ], [ 67.2857666015625, 26.810851813557598 ], [ 67.2857666015625, 26.813247902827335 ], [ 67.2802734375, 26.813247902827335 ], [ 67.2802734375, 26.815643992097073 ], [ 67.27752685546875, 26.815643992097073 ], [ 67.27203369140625, 26.822832259906288 ], [ 67.25830078125, 26.825228349176026 ], [ 67.25555419921875, 26.830020527715504 ], [ 67.2418212890625, 26.830020527715504 ], [ 67.236328125, 26.837208795524717 ], [ 67.22259521484375, 26.834812706254979 ], [ 67.22259521484375, 26.837208795524717 ], [ 67.203369140625, 26.837208795524717 ], [ 67.203369140625, 26.839604884794458 ], [ 67.17864990234375, 26.839604884794458 ], [ 67.17864990234375, 26.842000974064195 ], [ 67.16766357421875, 26.842000974064195 ] ] ] } },
{ "type": "Feature", "properties": { "id": 4, "name": "Nai Gaj", "area_km2": 6579.6, "drains_to": "manchar" }, "geometry": { "type": "MultiPolygon", "coordinates": [ [ [ [ 66.38763427734375, 27.546451219367224 ], [ 66.39312744140625, 27.546451219367224 ], [ 66.39312744140625, 27.551243397906699 ], [ 66.3958740234375, 27.551243397906699 ], [ 66.3958740234375, 27.565619933525127 ], [ 66.39312744140625, 27.565619933525127 ], [ 66.39312744140625, 27.575204290604081 ], [ 66.3958740234375, 27.575204290604081 ], [ 66.3958740234375, 27.579996469143559 ], [ 66.39862060546875, 27.579996469143559 ], [ 66.39862060546875, 27.596769094031725 ], [ 66.4013671875, 27.596769094031725 ], [ 66.4013671875, 27.603957361840941 ], [ 66.4068603515625, 27.603957361840941 ], [ 66.4068603515625, 27.606353451110678 ], [ 66.40960693359375, 27.606353451110678 ], [ 66.40960693359375, 27.611145629650153 ], [ 66.4068603515625, 27.611145629650153 ], [ 66.4068603515625, 27.625522165268585 ], [ 66.3958740234375, 27.625522165268585 ], [ 66.39312744140625, 27.63031434380806 ], [ 66.38763427734375, 27.63031434380806 ], [ 66.38763427734375, 27.637502611617276 ], [ 66.390380859375, 27.637502611617276 ], [ 66.390380859375, 27.64229479015675 ], [ 66.39862060546875, 27.647086968696225 ], [ 66.39862060546875, 27.649483057965966 ], [ 66.40411376953125, 27.649483057965966 ], [ 66.40411376953125, 27.651879147235704 ], [ 66.40960693359375, 27.651879147235704 ], [ 66.40960693359375, 27.654275236505441 ], [ 66.42059326171875, 27.656671325775179 ], [ 66.42059326171875, 27.663859593584395 ], [ 66.42333984375, 27.663859593584395 ], [ 66.42333984375, 27.666255682854132 ], [ 66.42059326171875, 27.666255682854132 ], [ 66.42059326171875, 27.675840039933085 ], [ 66.42333984375, 27.675840039933085 ], [ 66.42333984375, 27.683028307742301 ], [ 66.42608642578125, 27.683028307742301 ], [ 66.42608642578125, 27.687820486281776 ], [ 66.42333984375, 27.687820486281776 ], [ 66.42333984375, 27.695008754090992 ], [ 66.4178466796875, 27.695008754090992 ], [ 66.41510009765625, 27.699800932630467 ], [ 66.40960693359375, 27.699800932630467 ], [ 66.40960693359375, 27.704593111169945 ], [ 66.4068603515625, 27.704593111169945 ], [ 66.4068603515625, 27.706989200439683 ], [ 66.39862060546875, 27.711781378979158 ], [ 66.39862060546875, 27.716573557518636 ], [ 66.3958740234375, 27.716573557518636 ], [ 66.3958740234375, 27.718969646788373 ], [ 66.390380859375, 27.718969646788373 ], [ 66.390380859375, 27.723761825327848 ], [ 66.38763427734375, 27.723761825327848 ], [ 66.38763427734375, 27.726157914597586 ], [ 66.37939453125, 27.726157914597586 ], [ 66.37939453125, 27.733346182406802 ], [ 66.37664794921875, 27.733346182406802 ], [ 66.37664794921875, 27.738138360946277 ], [ 66.37115478515625, 27.738138360946277 ], [ 66.37115478515625, 27.733346182406802 ], [ 66.368408203125, 27.733346182406802 ], [ 66.368408203125, 27.730950093137064 ], [ 66.3629150390625, 27.730950093137064 ], [ 66.3629150390625, 27.733346182406802 ], [ 66.3519287109375, 27.733346182406802 ], [ 66.357421875, 27.740534450216018 ], [ 66.36016845703125, 27.740534450216018 ], [ 66.36016845703125, 27.754910985834446 ], [ 66.368408203125, 27.754910985834446 ], [ 66.368408203125, 27.766891432183137 ], [ 66.37115478515625, 27.766891432183137 ], [ 66.37115478515625, 27.769287521452874 ], [ 66.36566162109375, 27.771683610722611 ], [ 66.36566162109375, 27.77647578926209 ], [ 66.3629150390625, 27.77647578926209 ], [ 66.36016845703125, 27.781267967801565 ], [ 66.3519287109375, 27.781267967801565 ], [ 66.3519287109375, 27.783664057071302 ], [ 66.346435546875, 27.783664057071302 ], [ 66.346435546875, 27.786060146341043 ], [ 66.3409423828125, 27.788456235610781 ], [ 66.3409423828125, 27.798040592689734 ], [ 66.33819580078125, 27.798040592689734 ], [ 66.33819580078125, 27.8148132175779 ], [ 66.3299560546875, 27.8148132175779 ], [ 66.3299560546875, 27.812417128308162 ], [ 66.32720947265625, 27.812417128308162 ], [ 66.324462890625, 27.822001485387116 ], [ 66.3189697265625, 27.824397574656853 ], [ 66.3189697265625, 27.838774110275281 ], [ 66.324462890625, 27.838774110275281 ], [ 66.324462890625, 27.841170199545022 ], [ 66.32171630859375, 27.841170199545022 ], [ 66.32171630859375, 27.848358467354235 ], [ 66.31072998046875, 27.848358467354235 ], [ 66.3134765625, 27.853150645893713 ], [ 66.31622314453125, 27.853150645893713 ], [ 66.31622314453125, 27.860338913702925 ], [ 66.32171630859375, 27.862735002972663 ], [ 66.32171630859375, 27.865131092242404 ], [ 66.3189697265625, 27.865131092242404 ], [ 66.3189697265625, 27.869923270781879 ], [ 66.32171630859375, 27.869923270781879 ], [ 66.3189697265625, 27.89388416347926 ], [ 66.3134765625, 27.896280252748998 ], [ 66.3134765625, 27.901072431288476 ], [ 66.31072998046875, 27.901072431288476 ], [ 66.31072998046875, 27.903468520558214 ], [ 66.30523681640625, 27.903468520558214 ], [ 66.30523681640625, 27.901072431288476 ], [ 66.29974365234375, 27.903468520558214 ], [ 66.29974365234375, 27.910656788367429 ], [ 66.29150390625, 27.910656788367429 ], [ 66.28875732421875, 27.915448966906904 ], [ 66.27227783203125, 27.915448966906904 ], [ 66.27227783203125, 27.920241145446379 ], [ 66.26953125, 27.920241145446379 ], [ 66.26953125, 27.929825502525333 ], [ 66.23931884765625, 27.927429413255595 ], [ 66.23931884765625, 27.929825502525333 ], [ 66.23382568359375, 27.929825502525333 ], [ 66.23382568359375, 27.932221591795074 ], [ 66.2200927734375, 27.932221591795074 ], [ 66.2200927734375, 27.934617681064811 ], [ 66.21734619140625, 27.934617681064811 ], [ 66.21734619140625, 27.937013770334548 ], [ 66.2091064453125, 27.941805948874023 ], [ 66.20635986328125, 27.946598127413502 ], [ 66.20361328125, 27.946598127413502 ], [ 66.20361328125, 27.944202038143764 ], [ 66.1981201171875, 27.944202038143764 ], [ 66.1981201171875, 27.939409859604286 ], [ 66.192626953125, 27.939409859604286 ], [ 66.18988037109375, 27.929825502525333 ], [ 66.18438720703125, 27.929825502525333 ], [ 66.18438720703125, 27.920241145446379 ], [ 66.181640625, 27.920241145446379 ], [ 66.181640625, 27.917845056176642 ], [ 66.1761474609375, 27.920241145446379 ], [ 66.17340087890625, 27.925033323985858 ], [ 66.16790771484375, 27.925033323985858 ], [ 66.16790771484375, 27.92263723471612 ], [ 66.16241455078125, 27.92263723471612 ], [ 66.16241455078125, 27.925033323985858 ], [ 66.15966796875, 27.925033323985858 ], [ 66.15966796875, 27.934617681064811 ], [ 66.16241455078125, 27.934617681064811 ], [ 66.16241455078125, 27.939409859604286 ], [ 66.16790771484375, 27.941805948874023 ], [ 66.16790771484375, 27.965766841571405 ], [ 66.181640625, 27.965766841571405 ], [ 66.181640625, 27.968162930841146 ], [ 66.18438720703125, 27.968162930841146 ], [ 66.18438720703125, 27.980143377189837 ], [ 66.1871337890625, 27.980143377189837 ], [ 66.1871337890625, 27.982539466459574 ], [ 66.19537353515625, 27.987331644999049 ], [ 66.19537353515625, 27.996916002078002 ], [ 66.18988037109375, 27.996916002078002 ], [ 66.18988037109375, 27.99931209134774 ], [ 66.1871337890625, 27.99931209134774 ], [ 66.1871337890625, 28.001708180617481 ], [ 66.19537353515625, 28.001708180617481 ], [ 66.19537353515625, 28.006500359156956 ], [ 66.1871337890625, 28.011292537696431 ], [ 66.1871337890625, 28.025669073314862 ], [ 66.18438720703125, 28.025669073314862 ], [ 66.18438720703125, 28.030461251854337 ], [ 66.18988037109375, 28.032857341124075 ], [ 66.18988037109375, 28.040045608933291 ], [ 66.19537353515625, 28.042441698203028 ], [ 66.19537353515625, 28.047233876742506 ], [ 66.1981201171875, 28.047233876742506 ], [ 66.1981201171875, 28.05681823382146 ], [ 66.19537353515625, 28.05681823382146 ], [ 66.19537353515625, 28.059214323091197 ], [ 66.20086669921875, 28.059214323091197 ], [ 66.20086669921875, 28.06640259090041 ], [ 66.20361328125, 28.06640259090041 ], [ 66.20361328125, 28.080779126518841 ], [ 66.20635986328125, 28.080779126518841 ], [ 66.20635986328125, 28.085571305058316 ], [ 66.2091064453125, 28.085571305058316 ], [ 66.2091064453125, 28.09515566213727 ], [ 66.21734619140625, 28.099947840676744 ], [ 66.21734619140625, 28.102343929946485 ], [ 66.22283935546875, 28.102343929946485 ], [ 66.22283935546875, 28.119116554834651 ], [ 66.22833251953125, 28.119116554834651 ], [ 66.22833251953125, 28.121512644104389 ], [ 66.2310791015625, 28.121512644104389 ], [ 66.2310791015625, 28.126304822643867 ], [ 66.23382568359375, 28.126304822643867 ], [ 66.23382568359375, 28.128700911913604 ], [ 66.23931884765625, 28.128700911913604 ], [ 66.23931884765625, 28.138285268992558 ], [ 66.24481201171875, 28.140681358262295 ], [ 66.24481201171875, 28.14547353680177 ], [ 66.2420654296875, 28.14547353680177 ], [ 66.2420654296875, 28.147869626071511 ], [ 66.24481201171875, 28.147869626071511 ], [ 66.24755859375, 28.152661804610986 ], [ 66.258544921875, 28.155057893880723 ], [ 66.258544921875, 28.157453983150461 ], [ 66.26129150390625, 28.157453983150461 ], [ 66.26129150390625, 28.162246161689939 ], [ 66.2640380859375, 28.162246161689939 ], [ 66.2640380859375, 28.167038340229414 ], [ 66.26953125, 28.169434429499152 ], [ 66.26953125, 28.186207054387321 ], [ 66.2750244140625, 28.186207054387321 ], [ 66.2750244140625, 28.188603143657058 ], [ 66.280517578125, 28.188603143657058 ], [ 66.280517578125, 28.190999232926796 ], [ 66.28326416015625, 28.190999232926796 ], [ 66.28326416015625, 28.195791411466274 ], [ 66.27777099609375, 28.195791411466274 ], [ 66.27227783203125, 28.202979679275487 ], [ 66.26678466796875, 28.202979679275487 ], [ 66.26678466796875, 28.207771857814965 ], [ 66.26953125, 28.207771857814965 ], [ 66.26953125, 28.222148393433393 ], [ 66.27227783203125, 28.222148393433393 ], [ 66.27227783203125, 28.224544482703131 ], [ 66.280517578125, 28.224544482703131 ], [ 66.280517578125, 28.222148393433393 ], [ 66.2860107421875, 28.222148393433393 ], [ 66.2860107421875, 28.224544482703131 ], [ 66.28875732421875, 28.224544482703131 ], [ 66.28875732421875, 28.222148393433393 ], [ 66.29974365234375, 28.219752304163656 ], [ 66.30523681640625, 28.21256403635444 ], [ 66.3134765625, 28.21256403635444 ], [ 66.3134765625, 28.214960125624177 ], [ 66.33270263671875, 28.21256403635444 ], [ 66.33544921875, 28.222148393433393 ], [ 66.346435546875, 28.222148393433393 ], [ 66.346435546875, 28.219752304163656 ], [ 66.3519287109375, 28.217356214893918 ], [ 66.3519287109375, 28.21256403635444 ], [ 66.357421875, 28.210167947084702 ], [ 66.357421875, 28.202979679275487 ], [ 66.3519287109375, 28.202979679275487 ], [ 66.3519287109375, 28.200583590005749 ], [ 66.357421875, 28.200583590005749 ], [ 66.36016845703125, 28.195791411466274 ], [ 66.36566162109375, 28.198187500736012 ], [ 66.36566162109375, 28.195791411466274 ], [ 66.368408203125, 28.195791411466274 ], [ 66.368408203125, 28.188603143657058 ], [ 66.3739013671875, 28.186207054387321 ], [ 66.3739013671875, 28.181414875847842 ], [ 66.37664794921875, 28.181414875847842 ], [ 66.37664794921875, 28.176622697308368 ], [ 66.38214111328125, 28.176622697308368 ], [ 66.37939453125, 28.171830518768893 ], [ 66.3848876953125, 28.169434429499152 ], [ 66.38214111328125, 28.164642250959677 ], [ 66.3848876953125, 28.164642250959677 ], [ 66.3848876953125, 28.152661804610986 ], [ 66.390380859375, 28.152661804610986 ], [ 66.390380859375, 28.143077447532033 ], [ 66.4013671875, 28.143077447532033 ], [ 66.4013671875, 28.140681358262295 ], [ 66.4068603515625, 28.138285268992558 ], [ 66.4068603515625, 28.135889179722817 ], [ 66.4013671875, 28.135889179722817 ], [ 66.4013671875, 28.133493090453079 ], [ 66.39862060546875, 28.133493090453079 ], [ 66.39862060546875, 28.126304822643867 ], [ 66.390380859375, 28.126304822643867 ], [ 66.390380859375, 28.123908733374126 ], [ 66.3848876953125, 28.123908733374126 ], [ 66.3848876953125, 28.121512644104389 ], [ 66.38214111328125, 28.121512644104389 ], [ 66.38214111328125, 28.116720465564914 ], [ 66.37939453125, 28.116720465564914 ], [ 66.37939453125, 28.10713610848596 ], [ 66.38214111328125, 28.10713610848596 ], [ 66.3848876953125, 28.102343929946485 ], [ 66.390380859375, 28.102343929946485 ], [ 66.39312744140625, 28.097551751407007 ], [ 66.40411376953125, 28.097551751407007 ], [ 66.40411376953125, 28.099947840676744 ], [ 66.42608642578125, 28.097551751407007 ], [ 66.42608642578125, 28.102343929946485 ], [ 66.4288330078125, 28.102343929946485 ], [ 66.43157958984375, 28.10713610848596 ], [ 66.45355224609375, 28.104740019216223 ], [ 66.45355224609375, 28.099947840676744 ], [ 66.45904541015625, 28.097551751407007 ], [ 66.45904541015625, 28.09515566213727 ], [ 66.456298828125, 28.09515566213727 ], [ 66.456298828125, 28.085571305058316 ], [ 66.45904541015625, 28.085571305058316 ], [ 66.45904541015625, 28.083175215788579 ], [ 66.46453857421875, 28.083175215788579 ], [ 66.46728515625, 28.0783830372491 ], [ 66.47003173828125, 28.0783830372491 ], [ 66.4727783203125, 28.064006501630672 ], [ 66.478271484375, 28.064006501630672 ], [ 66.478271484375, 28.061610412360935 ], [ 66.4837646484375, 28.059214323091197 ], [ 66.4837646484375, 28.037649519663553 ], [ 66.48651123046875, 28.037649519663553 ], [ 66.48651123046875, 28.0280651625846 ], [ 66.4892578125, 28.0280651625846 ], [ 66.4892578125, 28.025669073314862 ], [ 66.49200439453125, 28.025669073314862 ], [ 66.49200439453125, 28.0280651625846 ], [ 66.49749755859375, 28.0280651625846 ], [ 66.49749755859375, 28.032857341124075 ], [ 66.500244140625, 28.032857341124075 ], [ 66.500244140625, 28.035253430393816 ], [ 66.5057373046875, 28.035253430393816 ], [ 66.5057373046875, 28.040045608933291 ], [ 66.51397705078125, 28.040045608933291 ], [ 66.51397705078125, 28.037649519663553 ], [ 66.5277099609375, 28.040045608933291 ], [ 66.5277099609375, 28.042441698203028 ], [ 66.533203125, 28.044837787472765 ], [ 66.533203125, 28.049629966012244 ], [ 66.53594970703125, 28.049629966012244 ], [ 66.53594970703125, 28.052026055281981 ], [ 66.54144287109375, 28.052026055281981 ], [ 66.544189453125, 28.05681823382146 ], [ 66.55242919921875, 28.05681823382146 ], [ 66.55242919921875, 28.061610412360935 ], [ 66.55792236328125, 28.061610412360935 ], [ 66.55792236328125, 28.05681823382146 ], [ 66.5606689453125, 28.05681823382146 ], [ 66.56341552734375, 28.052026055281981 ], [ 66.5716552734375, 28.052026055281981 ], [ 66.5716552734375, 28.044837787472765 ], [ 66.57440185546875, 28.044837787472765 ], [ 66.57440185546875, 28.042441698203028 ], [ 66.5936279296875, 28.042441698203028 ], [ 66.5936279296875, 28.044837787472765 ], [ 66.60186767578125, 28.044837787472765 ], [ 66.60186767578125, 28.047233876742506 ], [ 66.59912109375, 28.047233876742506 ], [ 66.59912109375, 28.052026055281981 ], [ 66.59637451171875, 28.052026055281981 ], [ 66.59637451171875, 28.05681823382146 ], [ 66.59912109375, 28.05681823382146 ], [ 66.59912109375, 28.059214323091197 ], [ 66.6046142578125, 28.059214323091197 ], [ 66.6046142578125, 28.05681823382146 ], [ 66.60736083984375, 28.05681823382146 ], [ 66.60736083984375, 28.064006501630672 ], [ 66.610107421875, 28.064006501630672 ], [ 66.610107421875, 28.06640259090041 ], [ 66.6265869140625, 28.06640259090041 ], [ 66.6265869140625, 28.064006501630672 ], [ 66.632080078125, 28.061610412360935 ], [ 66.632080078125, 28.054422144551719 ], [ 66.63482666015625, 28.054422144551719 ], [ 66.63482666015625, 28.052026055281981 ], [ 66.654052734375, 28.049629966012244 ], [ 66.654052734375, 28.052026055281981 ], [ 66.6595458984375, 28.052026055281981 ], [ 66.6595458984375, 28.054422144551719 ], [ 66.67327880859375, 28.054422144551719 ], [ 66.67327880859375, 28.052026055281981 ], [ 66.68426513671875, 28.049629966012244 ], [ 66.68426513671875, 28.042441698203028 ], [ 66.68701171875, 28.042441698203028 ], [ 66.68975830078125, 28.037649519663553 ], [ 66.70074462890625, 28.037649519663553 ], [ 66.70074462890625, 28.035253430393816 ], [ 66.71173095703125, 28.035253430393816 ], [ 66.71173095703125, 28.037649519663553 ], [ 66.7144775390625, 28.037649519663553 ], [ 66.71722412109375, 28.032857341124075 ], [ 66.72271728515625, 28.032857341124075 ], [ 66.72271728515625, 28.030461251854337 ], [ 66.73095703125, 28.030461251854337 ], [ 66.73095703125, 28.035253430393816 ], [ 66.7364501953125, 28.032857341124075 ], [ 66.7364501953125, 28.025669073314862 ], [ 66.73095703125, 28.023272984045125 ], [ 66.73095703125, 28.013688626966172 ], [ 66.7254638671875, 28.013688626966172 ], [ 66.7254638671875, 28.011292537696431 ], [ 66.72271728515625, 28.011292537696431 ], [ 66.72271728515625, 27.99931209134774 ], [ 66.719970703125, 27.99931209134774 ], [ 66.719970703125, 27.98972773426879 ], [ 66.72271728515625, 27.98972773426879 ], [ 66.72271728515625, 27.984935555729312 ], [ 66.7254638671875, 27.984935555729312 ], [ 66.7254638671875, 27.977747287920099 ], [ 66.75018310546875, 27.977747287920099 ], [ 66.75018310546875, 27.982539466459574 ], [ 66.7529296875, 27.982539466459574 ], [ 66.7529296875, 27.980143377189837 ], [ 66.75567626953125, 27.980143377189837 ], [ 66.75567626953125, 27.975351198650358 ], [ 66.7584228515625, 27.975351198650358 ], [ 66.7584228515625, 27.965766841571405 ], [ 66.76116943359375, 27.965766841571405 ], [ 66.76116943359375, 27.96097466303193 ], [ 66.763916015625, 27.96097466303193 ], [ 66.763916015625, 27.956182484492455 ], [ 66.76666259765625, 27.956182484492455 ], [ 66.76666259765625, 27.951390305952977 ], [ 66.7694091796875, 27.951390305952977 ], [ 66.7694091796875, 27.946598127413502 ], [ 66.77215576171875, 27.946598127413502 ], [ 66.77215576171875, 27.937013770334548 ], [ 66.7803955078125, 27.932221591795074 ], [ 66.785888671875, 27.939409859604286 ], [ 66.8023681640625, 27.939409859604286 ], [ 66.8023681640625, 27.937013770334548 ], [ 66.80511474609375, 27.937013770334548 ], [ 66.80511474609375, 27.929825502525333 ], [ 66.807861328125, 27.929825502525333 ], [ 66.81060791015625, 27.925033323985858 ], [ 66.81610107421875, 27.925033323985858 ], [ 66.81610107421875, 27.917845056176642 ], [ 66.81884765625, 27.917845056176642 ], [ 66.81884765625, 27.915448966906904 ], [ 66.8243408203125, 27.915448966906904 ], [ 66.8243408203125, 27.910656788367429 ], [ 66.829833984375, 27.908260699097688 ], [ 66.829833984375, 27.901072431288476 ], [ 66.83258056640625, 27.901072431288476 ], [ 66.83258056640625, 27.89388416347926 ], [ 66.81884765625, 27.89388416347926 ], [ 66.81884765625, 27.891488074209523 ], [ 66.8133544921875, 27.889091984939785 ], [ 66.8133544921875, 27.884299806400307 ], [ 66.807861328125, 27.881903717130569 ], [ 66.807861328125, 27.877111538591095 ], [ 66.8023681640625, 27.877111538591095 ], [ 66.8023681640625, 27.865131092242404 ], [ 66.79962158203125, 27.865131092242404 ], [ 66.79962158203125, 27.857942824433188 ], [ 66.8023681640625, 27.857942824433188 ], [ 66.8023681640625, 27.853150645893713 ], [ 66.80511474609375, 27.853150645893713 ], [ 66.81060791015625, 27.845962378084497 ], [ 66.80511474609375, 27.845962378084497 ], [ 66.80511474609375, 27.848358467354235 ], [ 66.7913818359375, 27.848358467354235 ], [ 66.78863525390625, 27.853150645893713 ], [ 66.78314208984375, 27.853150645893713 ], [ 66.77764892578125, 27.84356628881476 ], [ 66.77215576171875, 27.84356628881476 ], [ 66.77215576171875, 27.841170199545022 ], [ 66.7694091796875, 27.841170199545022 ], [ 66.763916015625, 27.833981931735806 ], [ 66.7584228515625, 27.833981931735806 ], [ 66.75567626953125, 27.829189753196328 ], [ 66.75018310546875, 27.82679366392659 ], [ 66.75018310546875, 27.817209306847637 ], [ 66.74468994140625, 27.817209306847637 ], [ 66.741943359375, 27.812417128308162 ], [ 66.7364501953125, 27.812417128308162 ], [ 66.7364501953125, 27.805228860498946 ], [ 66.74468994140625, 27.800436681959471 ], [ 66.74468994140625, 27.798040592689734 ], [ 66.741943359375, 27.798040592689734 ], [ 66.741943359375, 27.788456235610781 ], [ 66.7474365234375, 27.786060146341043 ], [ 66.7474365234375, 27.783664057071302 ], [ 66.7529296875, 27.783664057071302 ], [ 66.7529296875, 27.781267967801565 ], [ 66.76116943359375, 27.781267967801565 ], [ 66.763916015625, 27.790852324880518 ], [ 66.76666259765625, 27.790852324880518 ], [ 66.76666259765625, 27.793248414150256 ], [ 66.77215576171875, 27.793248414150256 ], [ 66.77215576171875, 27.790852324880518 ], [ 66.77490234375, 27.790852324880518 ], [ 66.77490234375, 27.795644503419997 ], [ 66.78314208984375, 27.795644503419997 ], [ 66.78314208984375, 27.793248414150256 ], [ 66.785888671875, 27.793248414150256 ], [ 66.785888671875, 27.795644503419997 ], [ 66.7913818359375, 27.795644503419997 ], [ 66.79412841796875, 27.790852324880518 ], [ 66.80511474609375, 27.788456235610781 ], [ 66.81060791015625, 27.781267967801565 ], [ 66.81610107421875, 27.781267967801565 ], [ 66.81610107421875, 27.77647578926209 ], [ 66.82159423828125, 27.774079699992352 ], [ 66.82159423828125, 27.771683610722611 ], [ 66.8243408203125, 27.771683610722611 ], [ 66.8243408203125, 27.766891432183137 ], [ 66.829833984375, 27.764495342913399 ], [ 66.829833984375, 27.752514896564708 ], [ 66.83258056640625, 27.752514896564708 ], [ 66.83258056640625, 27.74772271802523 ], [ 66.8408203125, 27.742930539485755 ], [ 66.83807373046875, 27.738138360946277 ], [ 66.8408203125, 27.738138360946277 ], [ 66.8408203125, 27.735742271676539 ], [ 66.84356689453125, 27.735742271676539 ], [ 66.84906005859375, 27.728554003867327 ], [ 66.86004638671875, 27.726157914597586 ], [ 66.86004638671875, 27.723761825327848 ], [ 66.8682861328125, 27.718969646788373 ], [ 66.8682861328125, 27.714177468248895 ], [ 66.87103271484375, 27.714177468248895 ], [ 66.87103271484375, 27.711781378979158 ], [ 66.8792724609375, 27.711781378979158 ], [ 66.8792724609375, 27.706989200439683 ], [ 66.884765625, 27.706989200439683 ], [ 66.884765625, 27.702197021900204 ], [ 66.8902587890625, 27.702197021900204 ], [ 66.8902587890625, 27.699800932630467 ], [ 66.895751953125, 27.697404843360729 ], [ 66.895751953125, 27.692612664821251 ], [ 66.9012451171875, 27.690216575551514 ], [ 66.9012451171875, 27.685424397012039 ], [ 66.90399169921875, 27.685424397012039 ], [ 66.90399169921875, 27.678236129202823 ], [ 66.9012451171875, 27.678236129202823 ], [ 66.9012451171875, 27.666255682854132 ], [ 66.90673828125, 27.666255682854132 ], [ 66.90673828125, 27.656671325775179 ], [ 66.90948486328125, 27.656671325775179 ], [ 66.90948486328125, 27.654275236505441 ], [ 66.90673828125, 27.654275236505441 ], [ 66.90673828125, 27.649483057965966 ], [ 66.90399169921875, 27.649483057965966 ], [ 66.90399169921875, 27.644690879426488 ], [ 66.9012451171875, 27.644690879426488 ], [ 66.895751953125, 27.637502611617276 ], [ 66.8902587890625, 27.637502611617276 ], [ 66.8902587890625, 27.635106522347535 ], [ 66.88751220703125, 27.635106522347535 ], [ 66.88751220703125, 27.63031434380806 ], [ 66.884765625, 27.63031434380806 ], [ 66.8792724609375, 27.623126075998844 ], [ 66.87652587890625, 27.623126075998844 ], [ 66.87652587890625, 27.615937808189631 ], [ 66.873779296875, 27.615937808189631 ], [ 66.87652587890625, 27.611145629650153 ], [ 66.89300537109375, 27.611145629650153 ], [ 66.89300537109375, 27.613541718919894 ], [ 66.895751953125, 27.613541718919894 ], [ 66.9012451171875, 27.6015612725712 ], [ 66.917724609375, 27.6015612725712 ], [ 66.917724609375, 27.606353451110678 ], [ 66.92596435546875, 27.611145629650153 ], [ 66.92596435546875, 27.613541718919894 ], [ 66.93145751953125, 27.613541718919894 ], [ 66.9342041015625, 27.618333897459369 ], [ 66.939697265625, 27.618333897459369 ], [ 66.939697265625, 27.615937808189631 ], [ 66.95343017578125, 27.615937808189631 ], [ 66.95343017578125, 27.611145629650153 ], [ 66.95892333984375, 27.608749540380416 ], [ 66.95892333984375, 27.603957361840941 ], [ 66.961669921875, 27.603957361840941 ], [ 66.961669921875, 27.596769094031725 ], [ 66.96441650390625, 27.596769094031725 ], [ 66.96441650390625, 27.587184736952771 ], [ 66.9671630859375, 27.587184736952771 ], [ 66.9671630859375, 27.575204290604081 ], [ 66.98638916015625, 27.577600379873818 ], [ 66.98638916015625, 27.59197691549225 ], [ 66.99737548828125, 27.59197691549225 ], [ 67.0001220703125, 27.596769094031725 ], [ 67.0111083984375, 27.596769094031725 ], [ 67.0111083984375, 27.594373004761987 ], [ 67.0166015625, 27.59197691549225 ], [ 67.0166015625, 27.587184736952771 ], [ 67.0220947265625, 27.587184736952771 ], [ 67.0220947265625, 27.589580826222509 ], [ 67.0330810546875, 27.589580826222509 ], [ 67.03582763671875, 27.584788647683034 ], [ 67.0440673828125, 27.584788647683034 ], [ 67.0440673828125, 27.589580826222509 ], [ 67.05780029296875, 27.589580826222509 ], [ 67.05780029296875, 27.587184736952771 ], [ 67.06329345703125, 27.587184736952771 ], [ 67.06329345703125, 27.584788647683034 ], [ 67.0660400390625, 27.584788647683034 ], [ 67.0660400390625, 27.579996469143559 ], [ 67.071533203125, 27.577600379873818 ], [ 67.071533203125, 27.572808201334343 ], [ 67.07427978515625, 27.572808201334343 ], [ 67.07427978515625, 27.568016022794868 ], [ 67.0770263671875, 27.568016022794868 ], [ 67.0770263671875, 27.565619933525127 ], [ 67.07977294921875, 27.565619933525127 ], [ 67.07977294921875, 27.568016022794868 ], [ 67.093505859375, 27.568016022794868 ], [ 67.093505859375, 27.56322384425539 ], [ 67.10174560546875, 27.56322384425539 ], [ 67.10723876953125, 27.556035576446174 ], [ 67.1099853515625, 27.556035576446174 ], [ 67.1099853515625, 27.544055130097483 ], [ 67.11273193359375, 27.544055130097483 ], [ 67.11273193359375, 27.536866862288271 ], [ 67.11822509765625, 27.536866862288271 ], [ 67.11822509765625, 27.534470773018533 ], [ 67.1209716796875, 27.534470773018533 ], [ 67.12371826171875, 27.558431665715915 ], [ 67.1429443359375, 27.560827754985652 ], [ 67.1429443359375, 27.572808201334343 ], [ 67.14019775390625, 27.572808201334343 ], [ 67.14019775390625, 27.575204290604081 ], [ 67.1484375, 27.575204290604081 ], [ 67.15118408203125, 27.570412112064606 ], [ 67.15667724609375, 27.570412112064606 ], [ 67.15667724609375, 27.568016022794868 ], [ 67.159423828125, 27.568016022794868 ], [ 67.16217041015625, 27.572808201334343 ], [ 67.17041015625, 27.572808201334343 ], [ 67.17041015625, 27.577600379873818 ], [ 67.18414306640625, 27.577600379873818 ], [ 67.18414306640625, 27.579996469143559 ], [ 67.1978759765625, 27.579996469143559 ], [ 67.1978759765625, 27.577600379873818 ], [ 67.20062255859375, 27.577600379873818 ], [ 67.20062255859375, 27.560827754985652 ], [ 67.1978759765625, 27.560827754985652 ], [ 67.1978759765625, 27.558431665715915 ], [ 67.20062255859375, 27.558431665715915 ], [ 67.20062255859375, 27.541659040827746 ], [ 67.1978759765625, 27.541659040827746 ], [ 67.1978759765625, 27.539262951558008 ], [ 67.20062255859375, 27.539262951558008 ], [ 67.20062255859375, 27.510509880321148 ], [ 67.1978759765625, 27.510509880321148 ], [ 67.1978759765625, 27.486548987623767 ], [ 67.20062255859375, 27.486548987623767 ], [ 67.20062255859375, 27.469776362735601 ], [ 67.1978759765625, 27.469776362735601 ], [ 67.1978759765625, 27.464984184196123 ], [ 67.19512939453125, 27.464984184196123 ], [ 67.19512939453125, 27.45779591638691 ], [ 67.1923828125, 27.45779591638691 ], [ 67.18963623046875, 27.407478041722406 ], [ 67.1868896484375, 27.407478041722406 ], [ 67.1868896484375, 27.395497595373715 ], [ 67.18414306640625, 27.395497595373715 ], [ 67.18414306640625, 27.385913238294766 ], [ 67.181396484375, 27.385913238294766 ], [ 67.181396484375, 27.361952345597381 ], [ 67.18414306640625, 27.361952345597381 ], [ 67.18414306640625, 27.359556256327643 ], [ 67.181396484375, 27.359556256327643 ], [ 67.181396484375, 27.34997189924869 ], [ 67.17864990234375, 27.34997189924869 ], [ 67.17864990234375, 27.345179720709215 ], [ 67.17315673828125, 27.342783631439477 ], [ 67.17041015625, 27.333199274360524 ], [ 67.1649169921875, 27.330803185090787 ], [ 67.1649169921875, 27.326011006551308 ], [ 67.16217041015625, 27.326011006551308 ], [ 67.16217041015625, 27.321218828011833 ], [ 67.159423828125, 27.321218828011833 ], [ 67.159423828125, 27.316426649472355 ], [ 67.15118408203125, 27.31163447093288 ], [ 67.15118408203125, 27.306842292393405 ], [ 67.14569091796875, 27.304446203123664 ], [ 67.14569091796875, 27.294861846044714 ], [ 67.1429443359375, 27.294861846044714 ], [ 67.1429443359375, 27.287673578235498 ], [ 67.14019775390625, 27.287673578235498 ], [ 67.14019775390625, 27.280485310426283 ], [ 67.1429443359375, 27.280485310426283 ], [ 67.1429443359375, 27.249336149919689 ], [ 67.14569091796875, 27.249336149919689 ], [ 67.14569091796875, 27.242147882110473 ], [ 67.1484375, 27.242147882110473 ], [ 67.1484375, 27.227771346492045 ], [ 67.15118408203125, 27.227771346492045 ], [ 67.15118408203125, 27.218186989413091 ], [ 67.1539306640625, 27.218186989413091 ], [ 67.1539306640625, 27.213394810873613 ], [ 67.15667724609375, 27.213394810873613 ], [ 67.15667724609375, 27.208602632334138 ], [ 67.159423828125, 27.208602632334138 ], [ 67.159423828125, 27.201414364524922 ], [ 67.15667724609375, 27.201414364524922 ], [ 67.15667724609375, 27.196622185985447 ], [ 67.159423828125, 27.196622185985447 ], [ 67.159423828125, 27.184641739636756 ], [ 67.1649169921875, 27.182245650367019 ], [ 67.1649169921875, 27.17745347182754 ], [ 67.16766357421875, 27.17745347182754 ], [ 67.16766357421875, 27.153492579130159 ], [ 67.1649169921875, 27.153492579130159 ], [ 67.1649169921875, 27.151096489860421 ], [ 67.16766357421875, 27.151096489860421 ], [ 67.16766357421875, 27.146304311320943 ], [ 67.17041015625, 27.146304311320943 ], [ 67.17041015625, 27.131927775702515 ], [ 67.17315673828125, 27.131927775702515 ], [ 67.17315673828125, 27.105570793735396 ], [ 67.1759033203125, 27.105570793735396 ], [ 67.1759033203125, 27.064837276149845 ], [ 67.17315673828125, 27.064837276149845 ], [ 67.17315673828125, 27.06004509761037 ], [ 67.1759033203125, 27.06004509761037 ], [ 67.1759033203125, 27.052856829801154 ], [ 67.17315673828125, 27.052856829801154 ], [ 67.17315673828125, 27.040876383452463 ], [ 67.17041015625, 27.040876383452463 ], [ 67.17041015625, 27.026499847834035 ], [ 67.16766357421875, 27.026499847834035 ], [ 67.16766357421875, 27.014519401485344 ], [ 67.1649169921875, 27.014519401485344 ], [ 67.1649169921875, 27.000142865866916 ], [ 67.16217041015625, 27.000142865866916 ], [ 67.16217041015625, 26.990558508787963 ], [ 67.159423828125, 26.990558508787963 ], [ 67.159423828125, 26.983370240978747 ], [ 67.15667724609375, 26.983370240978747 ], [ 67.15667724609375, 26.961805437551103 ], [ 67.159423828125, 26.961805437551103 ], [ 67.159423828125, 26.957013259011628 ], [ 67.16217041015625, 26.957013259011628 ], [ 67.16217041015625, 26.947428901932675 ], [ 67.16766357421875, 26.947428901932675 ], [ 67.16766357421875, 26.949824991202412 ], [ 67.17315673828125, 26.95222108047215 ], [ 67.17315673828125, 26.957013259011628 ], [ 67.17864990234375, 26.959409348281365 ], [ 67.17864990234375, 26.968993705360319 ], [ 67.181396484375, 26.968993705360319 ], [ 67.181396484375, 26.976181973169535 ], [ 67.1868896484375, 26.978578062439272 ], [ 67.1868896484375, 26.976181973169535 ], [ 67.1923828125, 26.976181973169535 ], [ 67.19512939453125, 26.971389794630056 ], [ 67.20062255859375, 26.971389794630056 ], [ 67.20062255859375, 26.973785883899794 ], [ 67.21160888671875, 26.973785883899794 ], [ 67.21160888671875, 26.971389794630056 ], [ 67.21710205078125, 26.971389794630056 ], [ 67.21710205078125, 26.96420152682084 ], [ 67.2198486328125, 26.96420152682084 ], [ 67.2198486328125, 26.961805437551103 ], [ 67.225341796875, 26.961805437551103 ], [ 67.225341796875, 26.959409348281365 ], [ 67.25555419921875, 26.961805437551103 ], [ 67.25830078125, 26.966597616090581 ], [ 67.26654052734375, 26.966597616090581 ], [ 67.26654052734375, 26.96420152682084 ], [ 67.269287109375, 26.96420152682084 ], [ 67.2747802734375, 26.957013259011628 ], [ 67.2857666015625, 26.957013259011628 ], [ 67.2857666015625, 26.961805437551103 ], [ 67.28851318359375, 26.961805437551103 ], [ 67.28851318359375, 26.957013259011628 ], [ 67.29400634765625, 26.954617169741891 ], [ 67.29400634765625, 26.95222108047215 ], [ 67.29949951171875, 26.95222108047215 ], [ 67.29949951171875, 26.949824991202412 ], [ 67.31048583984375, 26.947428901932675 ], [ 67.313232421875, 26.9426367233932 ], [ 67.3187255859375, 26.9426367233932 ], [ 67.3187255859375, 26.935448455583984 ], [ 67.31597900390625, 26.935448455583984 ], [ 67.31597900390625, 26.933052366314246 ], [ 67.3187255859375, 26.933052366314246 ], [ 67.3187255859375, 26.930656277044509 ], [ 67.31597900390625, 26.930656277044509 ], [ 67.31597900390625, 26.901903205807649 ], [ 67.3187255859375, 26.901903205807649 ], [ 67.3187255859375, 26.873150134570789 ], [ 67.32421875, 26.870754045301052 ], [ 67.32421875, 26.861169688222098 ], [ 67.3187255859375, 26.861169688222098 ], [ 67.3187255859375, 26.853981420412886 ], [ 67.31597900390625, 26.853981420412886 ], [ 67.31597900390625, 26.849189241873407 ], [ 67.313232421875, 26.849189241873407 ], [ 67.313232421875, 26.84679315260367 ], [ 67.3077392578125, 26.84679315260367 ], [ 67.3077392578125, 26.842000974064195 ], [ 67.30499267578125, 26.842000974064195 ], [ 67.30499267578125, 26.832416616985242 ], [ 67.30224609375, 26.832416616985242 ], [ 67.30224609375, 26.822832259906288 ], [ 67.29949951171875, 26.822832259906288 ], [ 67.30224609375, 26.818040081366814 ], [ 67.29400634765625, 26.818040081366814 ], [ 67.29400634765625, 26.815643992097073 ], [ 67.2857666015625, 26.810851813557598 ], [ 67.2857666015625, 26.813247902827335 ], [ 67.2802734375, 26.813247902827335 ], [ 67.2802734375, 26.815643992097073 ], [ 67.27752685546875, 26.815643992097073 ], [ 67.27203369140625, 26.822832259906288 ], [ 67.25830078125, 26.825228349176026 ], [ 67.25555419921875, 26.830020527715504 ], [ 67.2418212890625, 26.830020527715504 ], [ 67.236328125, 26.837208795524717 ], [ 67.22259521484375, 26.834812706254979 ], [ 67.22259521484375, 26.837208795524717 ], [ 67.17864990234375, 26.839604884794458 ], [ 67.17864990234375, 26.842000974064195 ], [ 67.16766357421875, 26.842000974064195 ], [ 67.1649169921875, 26.837208795524717 ], [ 67.16217041015625, 26.837208795524717 ], [ 67.16217041015625, 26.839604884794458 ], [ 67.15118408203125, 26.839604884794458 ], [ 67.15118408203125, 26.837208795524717 ], [ 67.12921142578125, 26.834812706254979 ], [ 67.12371826171875, 26.827624438445763 ], [ 67.11822509765625, 26.827624438445763 ], [ 67.11273193359375, 26.820436170636551 ], [ 67.10723876953125, 26.820436170636551 ], [ 67.10723876953125, 26.830020527715504 ], [ 67.10174560546875, 26.830020527715504 ], [ 67.10174560546875, 26.832416616985242 ], [ 67.0770263671875, 26.832416616985242 ], [ 67.0770263671875, 26.837208795524717 ], [ 67.07427978515625, 26.837208795524717 ], [ 67.07427978515625, 26.839604884794458 ], [ 67.06878662109375, 26.839604884794458 ], [ 67.06878662109375, 26.849189241873407 ], [ 67.06329345703125, 26.849189241873407 ], [ 67.05780029296875, 26.856377509682623 ], [ 67.03857421875, 26.858773598952361 ], [ 67.03857421875, 26.861169688222098 ], [ 67.03582763671875, 26.861169688222098 ], [ 67.0330810546875, 26.856377509682623 ], [ 67.005615234375, 26.858773598952361 ], [ 67.005615234375, 26.853981420412886 ], [ 67.0001220703125, 26.851585331143148 ], [ 66.99737548828125, 26.842000974064195 ], [ 66.99462890625, 26.842000974064195 ], [ 66.99462890625, 26.849189241873407 ], [ 66.98638916015625, 26.849189241873407 ], [ 66.98638916015625, 26.851585331143148 ], [ 66.983642578125, 26.851585331143148 ], [ 66.983642578125, 26.849189241873407 ], [ 66.9781494140625, 26.849189241873407 ], [ 66.9781494140625, 26.851585331143148 ], [ 66.97265625, 26.853981420412886 ], [ 66.97265625, 26.858773598952361 ], [ 66.96990966796875, 26.858773598952361 ], [ 66.96990966796875, 26.861169688222098 ], [ 66.96441650390625, 26.861169688222098 ], [ 66.961669921875, 26.870754045301052 ], [ 66.95892333984375, 26.870754045301052 ], [ 66.95892333984375, 26.873150134570789 ], [ 66.95343017578125, 26.873150134570789 ], [ 66.95343017578125, 26.87554622384053 ], [ 66.9451904296875, 26.880338402380005 ], [ 66.9451904296875, 26.885130580919483 ], [ 66.94244384765625, 26.885130580919483 ], [ 66.94244384765625, 26.894714937998433 ], [ 66.939697265625, 26.894714937998433 ], [ 66.939697265625, 26.906695384347124 ], [ 66.9342041015625, 26.906695384347124 ], [ 66.9342041015625, 26.909091473616865 ], [ 66.9287109375, 26.911487562886602 ], [ 66.9287109375, 26.91388365215634 ], [ 66.93145751953125, 26.91388365215634 ], [ 66.93145751953125, 26.921071919965556 ], [ 66.9342041015625, 26.921071919965556 ], [ 66.9342041015625, 26.930656277044509 ], [ 66.93145751953125, 26.930656277044509 ], [ 66.9287109375, 26.945032812662937 ], [ 66.92596435546875, 26.945032812662937 ], [ 66.92596435546875, 26.954617169741891 ], [ 66.917724609375, 26.959409348281365 ], [ 66.917724609375, 26.971389794630056 ], [ 66.91497802734375, 26.971389794630056 ], [ 66.91497802734375, 26.973785883899794 ], [ 66.89849853515625, 26.971389794630056 ], [ 66.895751953125, 26.976181973169535 ], [ 66.89300537109375, 26.976181973169535 ], [ 66.89300537109375, 26.983370240978747 ], [ 66.895751953125, 26.983370240978747 ], [ 66.895751953125, 26.9929545980577 ], [ 66.89300537109375, 26.9929545980577 ], [ 66.8902587890625, 27.007331133676129 ], [ 66.884765625, 27.007331133676129 ], [ 66.884765625, 27.009727222945866 ], [ 66.8792724609375, 27.009727222945866 ], [ 66.8792724609375, 27.012123312215607 ], [ 66.873779296875, 27.012123312215607 ], [ 66.873779296875, 27.014519401485344 ], [ 66.87103271484375, 27.014519401485344 ], [ 66.87103271484375, 27.03129202637351 ], [ 66.873779296875, 27.03129202637351 ], [ 66.873779296875, 27.038480294182726 ], [ 66.87103271484375, 27.038480294182726 ], [ 66.87103271484375, 27.040876383452463 ], [ 66.86553955078125, 27.040876383452463 ], [ 66.86553955078125, 27.045668561991942 ], [ 66.86004638671875, 27.045668561991942 ], [ 66.86004638671875, 27.052856829801154 ], [ 66.85455322265625, 27.052856829801154 ], [ 66.85455322265625, 27.050460740531417 ], [ 66.851806640625, 27.050460740531417 ], [ 66.851806640625, 27.052856829801154 ], [ 66.8463134765625, 27.052856829801154 ], [ 66.8463134765625, 27.062441186880108 ], [ 66.84356689453125, 27.062441186880108 ], [ 66.84356689453125, 27.069629454689323 ], [ 66.8408203125, 27.069629454689323 ], [ 66.8408203125, 27.074421633228798 ], [ 66.84356689453125, 27.074421633228798 ], [ 66.84356689453125, 27.076817722498536 ], [ 66.83807373046875, 27.076817722498536 ], [ 66.83807373046875, 27.079213811768277 ], [ 66.8353271484375, 27.079213811768277 ], [ 66.8353271484375, 27.091194258116968 ], [ 66.83258056640625, 27.091194258116968 ], [ 66.83258056640625, 27.09838252592618 ], [ 66.8353271484375, 27.09838252592618 ], [ 66.8353271484375, 27.115155150814349 ], [ 66.83807373046875, 27.115155150814349 ], [ 66.83807373046875, 27.119947329353824 ], [ 66.8408203125, 27.119947329353824 ], [ 66.8408203125, 27.134323864972252 ], [ 66.83807373046875, 27.134323864972252 ], [ 66.83807373046875, 27.136719954241993 ], [ 66.83258056640625, 27.136719954241993 ], [ 66.83258056640625, 27.139116043511731 ], [ 66.8243408203125, 27.143908222051206 ], [ 66.8243408203125, 27.148700400590684 ], [ 66.81884765625, 27.151096489860421 ], [ 66.81884765625, 27.155888668399896 ], [ 66.81610107421875, 27.155888668399896 ], [ 66.81610107421875, 27.158284757669637 ], [ 66.80511474609375, 27.160680846939375 ], [ 66.79962158203125, 27.167869114748587 ], [ 66.79412841796875, 27.167869114748587 ], [ 66.79412841796875, 27.170265204018328 ], [ 66.785888671875, 27.16547302547885 ], [ 66.785888671875, 27.160680846939375 ], [ 66.77490234375, 27.160680846939375 ], [ 66.77215576171875, 27.155888668399896 ], [ 66.7694091796875, 27.155888668399896 ], [ 66.7694091796875, 27.158284757669637 ], [ 66.75018310546875, 27.158284757669637 ], [ 66.75018310546875, 27.155888668399896 ], [ 66.741943359375, 27.155888668399896 ], [ 66.73919677734375, 27.151096489860421 ], [ 66.7254638671875, 27.151096489860421 ], [ 66.7254638671875, 27.153492579130159 ], [ 66.71722412109375, 27.153492579130159 ], [ 66.71722412109375, 27.155888668399896 ], [ 66.70623779296875, 27.155888668399896 ], [ 66.70623779296875, 27.158284757669637 ], [ 66.708984375, 27.158284757669637 ], [ 66.708984375, 27.184641739636756 ], [ 66.70623779296875, 27.184641739636756 ], [ 66.70623779296875, 27.187037828906494 ], [ 66.708984375, 27.187037828906494 ], [ 66.708984375, 27.191830007445969 ], [ 66.70623779296875, 27.191830007445969 ], [ 66.70623779296875, 27.19422609671571 ], [ 66.68701171875, 27.19422609671571 ], [ 66.68701171875, 27.225375257222304 ], [ 66.68975830078125, 27.225375257222304 ], [ 66.68975830078125, 27.234959614301257 ], [ 66.6925048828125, 27.234959614301257 ], [ 66.6925048828125, 27.239751792840735 ], [ 66.68975830078125, 27.239751792840735 ], [ 66.68975830078125, 27.237355703570994 ], [ 66.67877197265625, 27.237355703570994 ], [ 66.67877197265625, 27.239751792840735 ], [ 66.67327880859375, 27.242147882110473 ], [ 66.67327880859375, 27.275693131886808 ], [ 66.67877197265625, 27.275693131886808 ], [ 66.6815185546875, 27.280485310426283 ], [ 66.6595458984375, 27.280485310426283 ], [ 66.6595458984375, 27.290069667505236 ], [ 66.65679931640625, 27.290069667505236 ], [ 66.65679931640625, 27.297257935314452 ], [ 66.654052734375, 27.297257935314452 ], [ 66.654052734375, 27.292465756774973 ], [ 66.6485595703125, 27.292465756774973 ], [ 66.6485595703125, 27.290069667505236 ], [ 66.6375732421875, 27.290069667505236 ], [ 66.6375732421875, 27.287673578235498 ], [ 66.63482666015625, 27.287673578235498 ], [ 66.63482666015625, 27.292465756774973 ], [ 66.632080078125, 27.292465756774973 ], [ 66.632080078125, 27.306842292393405 ], [ 66.6375732421875, 27.309238381663143 ], [ 66.64031982421875, 27.318822738742096 ], [ 66.632080078125, 27.318822738742096 ], [ 66.632080078125, 27.335595363630262 ], [ 66.62933349609375, 27.335595363630262 ], [ 66.62933349609375, 27.345179720709215 ], [ 66.62109375, 27.345179720709215 ], [ 66.62109375, 27.352367988518431 ], [ 66.62384033203125, 27.352367988518431 ], [ 66.62384033203125, 27.354764077788168 ], [ 66.62109375, 27.354764077788168 ], [ 66.62109375, 27.366744524136859 ], [ 66.6156005859375, 27.366744524136859 ], [ 66.6156005859375, 27.369140613406596 ], [ 66.60736083984375, 27.373932791946071 ], [ 66.60736083984375, 27.376328881215812 ], [ 66.6046142578125, 27.376328881215812 ], [ 66.6046142578125, 27.383517149025025 ], [ 66.60186767578125, 27.383517149025025 ], [ 66.60186767578125, 27.395497595373715 ], [ 66.6046142578125, 27.395497595373715 ], [ 66.6046142578125, 27.397893684643456 ], [ 66.59912109375, 27.400289773913194 ], [ 66.59912109375, 27.409874130992147 ], [ 66.610107421875, 27.414666309531622 ], [ 66.610107421875, 27.42904284515005 ], [ 66.61285400390625, 27.42904284515005 ], [ 66.61285400390625, 27.436231112959266 ], [ 66.610107421875, 27.436231112959266 ], [ 66.610107421875, 27.438627202229004 ], [ 66.59637451171875, 27.438627202229004 ], [ 66.5936279296875, 27.433835023689529 ], [ 66.588134765625, 27.433835023689529 ], [ 66.588134765625, 27.438627202229004 ], [ 66.58538818359375, 27.438627202229004 ], [ 66.58538818359375, 27.450607648577694 ], [ 66.588134765625, 27.450607648577694 ], [ 66.588134765625, 27.453003737847432 ], [ 66.58538818359375, 27.453003737847432 ], [ 66.58538818359375, 27.455399827117173 ], [ 66.5771484375, 27.455399827117173 ], [ 66.5771484375, 27.45779591638691 ], [ 66.56890869140625, 27.45779591638691 ], [ 66.56890869140625, 27.472172452005339 ], [ 66.57440185546875, 27.474568541275076 ], [ 66.57440185546875, 27.484152898354029 ], [ 66.57989501953125, 27.486548987623767 ], [ 66.57989501953125, 27.491341166163245 ], [ 66.5826416015625, 27.491341166163245 ], [ 66.5826416015625, 27.505717701781673 ], [ 66.57989501953125, 27.505717701781673 ], [ 66.57989501953125, 27.510509880321148 ], [ 66.5771484375, 27.510509880321148 ], [ 66.5771484375, 27.522490326669843 ], [ 66.5716552734375, 27.52488641593958 ], [ 66.5716552734375, 27.529678594479055 ], [ 66.56890869140625, 27.529678594479055 ], [ 66.56890869140625, 27.532074683748792 ], [ 66.5496826171875, 27.532074683748792 ], [ 66.5496826171875, 27.536866862288271 ], [ 66.544189453125, 27.534470773018533 ], [ 66.544189453125, 27.532074683748792 ], [ 66.53045654296875, 27.532074683748792 ], [ 66.53045654296875, 27.534470773018533 ], [ 66.533203125, 27.534470773018533 ], [ 66.533203125, 27.546451219367224 ], [ 66.53045654296875, 27.546451219367224 ], [ 66.53045654296875, 27.544055130097483 ], [ 66.52496337890625, 27.544055130097483 ], [ 66.52496337890625, 27.539262951558008 ], [ 66.5167236328125, 27.539262951558008 ], [ 66.5167236328125, 27.534470773018533 ], [ 66.51397705078125, 27.534470773018533 ], [ 66.51397705078125, 27.532074683748792 ], [ 66.500244140625, 27.529678594479055 ], [ 66.500244140625, 27.52488641593958 ], [ 66.49749755859375, 27.52488641593958 ], [ 66.49749755859375, 27.517698148130364 ], [ 66.4947509765625, 27.517698148130364 ], [ 66.4947509765625, 27.515302058860627 ], [ 66.49749755859375, 27.515302058860627 ], [ 66.49749755859375, 27.503321612511936 ], [ 66.49200439453125, 27.503321612511936 ], [ 66.49200439453125, 27.498529433972458 ], [ 66.48101806640625, 27.500925523242199 ], [ 66.48101806640625, 27.49613334470272 ], [ 66.47552490234375, 27.493737255432983 ], [ 66.47552490234375, 27.486548987623767 ], [ 66.4617919921875, 27.486548987623767 ], [ 66.4617919921875, 27.488945076893508 ], [ 66.45355224609375, 27.493737255432983 ], [ 66.45355224609375, 27.498529433972458 ], [ 66.4508056640625, 27.498529433972458 ], [ 66.4508056640625, 27.510509880321148 ], [ 66.44805908203125, 27.510509880321148 ], [ 66.44805908203125, 27.512905969590889 ], [ 66.4453125, 27.512905969590889 ], [ 66.4453125, 27.515302058860627 ], [ 66.43707275390625, 27.520094237400102 ], [ 66.43707275390625, 27.522490326669843 ], [ 66.43157958984375, 27.522490326669843 ], [ 66.43157958984375, 27.527282505209318 ], [ 66.4288330078125, 27.527282505209318 ], [ 66.4288330078125, 27.529678594479055 ], [ 66.42333984375, 27.529678594479055 ], [ 66.42059326171875, 27.534470773018533 ], [ 66.41510009765625, 27.534470773018533 ], [ 66.41510009765625, 27.532074683748792 ], [ 66.3958740234375, 27.532074683748792 ], [ 66.3958740234375, 27.529678594479055 ], [ 66.38763427734375, 27.52488641593958 ], [ 66.38763427734375, 27.546451219367224 ] ] ], [ [ [ 66.38763427734375, 27.515302058860627 ], [ 66.3848876953125, 27.515302058860627 ], [ 66.3848876953125, 27.512905969590889 ], [ 66.37939453125, 27.512905969590889 ], [ 66.37939453125, 27.522490326669843 ], [ 66.3848876953125, 27.522490326669843 ], [ 66.3848876953125, 27.52488641593958 ], [ 66.38763427734375, 27.52488641593958 ], [ 66.38763427734375, 27.515302058860627 ] ] ] ] } },
{ "type": "Feature", "properties": { "id": 5, "name": "Nai Khedro", "area_km2": 15.3, "drains_to": "hamal" }, "geometry": { "type": "MultiPolygon", "coordinates": [ [ [ [ 67.3681640625, 26.815643992097073 ], [ 67.3681640625, 26.813247902827335 ], [ 67.37091064453125, 26.813247902827335 ], [ 67.37091064453125, 26.80845572428786 ], [ 67.3736572265625, 26.80845572428786 ], [ 67.3736572265625, 26.801267456478644 ], [ 67.37091064453125, 26.801267456478644 ], [ 67.37091064453125, 26.806059635018123 ], [ 67.3626708984375, 26.810851813557598 ], [ 67.3626708984375, 26.815643992097073 ], [ 67.3681640625, 26.815643992097073 ] ] ], [ [ [ 67.35992431640625, 26.815643992097073 ], [ 67.35992431640625, 26.818040081366814 ], [ 67.357177734375, 26.818040081366814 ], [ 67.3516845703125, 26.825228349176026 ], [ 67.32696533203125, 26.825228349176026 ], [ 67.32696533203125, 26.822832259906288 ], [ 67.3297119140625, 26.822832259906288 ], [ 67.3297119140625, 26.813247902827335 ], [ 67.32421875, 26.813247902827335 ], [ 67.32421875, 26.810851813557598 ], [ 67.29949951171875, 26.820436170636551 ], [ 67.29949951171875, 26.822832259906288 ], [ 67.30224609375, 26.822832259906288 ], [ 67.30224609375, 26.832416616985242 ], [ 67.30499267578125, 26.832416616985242 ], [ 67.30499267578125, 26.842000974064195 ], [ 67.3077392578125, 26.842000974064195 ], [ 67.3077392578125, 26.84679315260367 ], [ 67.313232421875, 26.84679315260367 ], [ 67.313232421875, 26.849189241873407 ], [ 67.31597900390625, 26.849189241873407 ], [ 67.31597900390625, 26.853981420412886 ], [ 67.3187255859375, 26.853981420412886 ], [ 67.3187255859375, 26.861169688222098 ], [ 67.32421875, 26.861169688222098 ], [ 67.32421875, 26.858773598952361 ], [ 67.32696533203125, 26.858773598952361 ], [ 67.32696533203125, 26.853981420412886 ], [ 67.335205078125, 26.849189241873407 ], [ 67.33245849609375, 26.839604884794458 ], [ 67.34344482421875, 26.837208795524717 ], [ 67.34619140625, 26.832416616985242 ], [ 67.3516845703125, 26.832416616985242 ], [ 67.35443115234375, 26.827624438445763 ], [ 67.357177734375, 26.827624438445763 ], [ 67.357177734375, 26.822832259906288 ], [ 67.3626708984375, 26.820436170636551 ], [ 67.3626708984375, 26.815643992097073 ], [ 67.35992431640625, 26.815643992097073 ] ] ] ] } },
{ "type": "Feature", "properties": { "id": 6, "name": "Nai Naig", "area_km2": 65.6, "drains_to": "manchar" }, "geometry": { "type": "Polygon", "coordinates": [ [ [ 67.3956298828125, 26.283712174215196 ], [ 67.39288330078125, 26.278919995675718 ], [ 67.38189697265625, 26.278919995675718 ], [ 67.38189697265625, 26.276523906405981 ], [ 67.37640380859375, 26.276523906405981 ], [ 67.3736572265625, 26.271731727866506 ], [ 67.3681640625, 26.271731727866506 ], [ 67.36541748046875, 26.266939549327027 ], [ 67.34344482421875, 26.266939549327027 ], [ 67.34344482421875, 26.26454346005729 ], [ 67.335205078125, 26.259751281517815 ], [ 67.335205078125, 26.257355192248074 ], [ 67.33795166015625, 26.257355192248074 ], [ 67.33795166015625, 26.252563013708599 ], [ 67.3406982421875, 26.252563013708599 ], [ 67.3406982421875, 26.247770835169124 ], [ 67.34344482421875, 26.247770835169124 ], [ 67.34344482421875, 26.242978656629646 ], [ 67.34619140625, 26.242978656629646 ], [ 67.34619140625, 26.230998210280955 ], [ 67.34893798828125, 26.230998210280955 ], [ 67.34893798828125, 26.22620603174148 ], [ 67.3516845703125, 26.22620603174148 ], [ 67.3516845703125, 26.221413853202002 ], [ 67.357177734375, 26.219017763932264 ], [ 67.357177734375, 26.214225585392789 ], [ 67.3626708984375, 26.211829496123048 ], [ 67.36541748046875, 26.19745296050462 ], [ 67.3681640625, 26.19745296050462 ], [ 67.3681640625, 26.192660781965145 ], [ 67.37091064453125, 26.192660781965145 ], [ 67.37091064453125, 26.185472514155929 ], [ 67.3736572265625, 26.185472514155929 ], [ 67.3736572265625, 26.180680335616454 ], [ 67.37640380859375, 26.180680335616454 ], [ 67.37640380859375, 26.173492067807238 ], [ 67.3736572265625, 26.173492067807238 ], [ 67.37091064453125, 26.168699889267764 ], [ 67.3736572265625, 26.168699889267764 ], [ 67.37640380859375, 26.163907710728285 ], [ 67.38189697265625, 26.163907710728285 ], [ 67.3846435546875, 26.15911553218881 ], [ 67.38739013671875, 26.15911553218881 ], [ 67.38739013671875, 26.161511621458548 ], [ 67.39837646484375, 26.161511621458548 ], [ 67.39837646484375, 26.173492067807238 ], [ 67.3956298828125, 26.173492067807238 ], [ 67.3956298828125, 26.178284246346713 ], [ 67.40386962890625, 26.183076424886192 ], [ 67.40386962890625, 26.187868603425667 ], [ 67.4066162109375, 26.187868603425667 ], [ 67.4066162109375, 26.195056871234883 ], [ 67.40936279296875, 26.195056871234883 ], [ 67.412109375, 26.204641228313836 ], [ 67.41485595703125, 26.204641228313836 ], [ 67.41485595703125, 26.223809942471739 ], [ 67.412109375, 26.223809942471739 ], [ 67.412109375, 26.228602121011217 ], [ 67.40936279296875, 26.228602121011217 ], [ 67.40936279296875, 26.233394299550692 ], [ 67.4066162109375, 26.233394299550692 ], [ 67.4066162109375, 26.23579038882043 ], [ 67.412109375, 26.238186478090171 ], [ 67.412109375, 26.242978656629646 ], [ 67.4176025390625, 26.245374745899383 ], [ 67.4176025390625, 26.247770835169124 ], [ 67.42034912109375, 26.247770835169124 ], [ 67.42034912109375, 26.252563013708599 ], [ 67.423095703125, 26.252563013708599 ], [ 67.42034912109375, 26.262147370787552 ], [ 67.4176025390625, 26.262147370787552 ], [ 67.4176025390625, 26.269335638596765 ], [ 67.41485595703125, 26.269335638596765 ], [ 67.41485595703125, 26.278919995675718 ], [ 67.40936279296875, 26.281316084945455 ], [ 67.40936279296875, 26.283712174215196 ], [ 67.3956298828125, 26.283712174215196 ] ] ] } },
{ "type": "Feature", "properties": { "id": 7, "name": "Nai Pakho", "area_km2": 561.2, "drains_to": "hamal" }, "geometry": { "type": "Polygon", "coordinates": [ [ [ 67.24456787109375, 26.770118295972047 ], [ 67.24456787109375, 26.76772220670231 ], [ 67.23907470703125, 26.76772220670231 ], [ 67.23907470703125, 26.765326117432572 ], [ 67.23358154296875, 26.762930028162835 ], [ 67.236328125, 26.753345671083881 ], [ 67.23358154296875, 26.753345671083881 ], [ 67.23358154296875, 26.750949581814144 ], [ 67.22808837890625, 26.750949581814144 ], [ 67.22808837890625, 26.748553492544406 ], [ 67.21710205078125, 26.748553492544406 ], [ 67.21435546875, 26.743761314004928 ], [ 67.2088623046875, 26.743761314004928 ], [ 67.20611572265625, 26.734176956925975 ], [ 67.1978759765625, 26.734176956925975 ], [ 67.19512939453125, 26.738969135465453 ], [ 67.18414306640625, 26.738969135465453 ], [ 67.18414306640625, 26.736573046195712 ], [ 67.16217041015625, 26.736573046195712 ], [ 67.16217041015625, 26.746157403274665 ], [ 67.15118408203125, 26.743761314004928 ], [ 67.15118408203125, 26.736573046195712 ], [ 67.14569091796875, 26.734176956925975 ], [ 67.14569091796875, 26.719800421307546 ], [ 67.1484375, 26.719800421307546 ], [ 67.1484375, 26.715008242768072 ], [ 67.14569091796875, 26.715008242768072 ], [ 67.1484375, 26.681462992991737 ], [ 67.14569091796875, 26.681462992991737 ], [ 67.14569091796875, 26.679066903721996 ], [ 67.1484375, 26.679066903721996 ], [ 67.1484375, 26.63354120759697 ], [ 67.15118408203125, 26.63354120759697 ], [ 67.15118408203125, 26.621560761248279 ], [ 67.1539306640625, 26.621560761248279 ], [ 67.1539306640625, 26.611976404169329 ], [ 67.15667724609375, 26.611976404169329 ], [ 67.15667724609375, 26.599995957820635 ], [ 67.159423828125, 26.599995957820635 ], [ 67.159423828125, 26.588015511471944 ], [ 67.16217041015625, 26.588015511471944 ], [ 67.16217041015625, 26.576035065123254 ], [ 67.1649169921875, 26.576035065123254 ], [ 67.1649169921875, 26.566450708044304 ], [ 67.16766357421875, 26.566450708044304 ], [ 67.16766357421875, 26.559262440235088 ], [ 67.17041015625, 26.559262440235088 ], [ 67.17041015625, 26.549678083156135 ], [ 67.17315673828125, 26.549678083156135 ], [ 67.17315673828125, 26.542489815346919 ], [ 67.1759033203125, 26.542489815346919 ], [ 67.17864990234375, 26.52811327972849 ], [ 67.181396484375, 26.52811327972849 ], [ 67.18414306640625, 26.513736744110062 ], [ 67.1868896484375, 26.513736744110062 ], [ 67.1868896484375, 26.504152387031109 ], [ 67.18963623046875, 26.504152387031109 ], [ 67.18963623046875, 26.499360208491634 ], [ 67.1923828125, 26.499360208491634 ], [ 67.1923828125, 26.496964119221893 ], [ 67.20611572265625, 26.494568029952156 ], [ 67.20611572265625, 26.492171940682418 ], [ 67.21435546875, 26.487379762142943 ], [ 67.21435546875, 26.484983672873202 ], [ 67.2198486328125, 26.484983672873202 ], [ 67.22259521484375, 26.480191494333727 ], [ 67.23358154296875, 26.480191494333727 ], [ 67.23358154296875, 26.47779540506399 ], [ 67.23907470703125, 26.475399315794252 ], [ 67.2418212890625, 26.470607137254774 ], [ 67.25555419921875, 26.468211047985037 ], [ 67.25555419921875, 26.480191494333727 ], [ 67.25830078125, 26.480191494333727 ], [ 67.25830078125, 26.489775851412681 ], [ 67.26104736328125, 26.489775851412681 ], [ 67.26104736328125, 26.496964119221893 ], [ 67.2637939453125, 26.496964119221893 ], [ 67.2637939453125, 26.504152387031109 ], [ 67.26654052734375, 26.504152387031109 ], [ 67.26654052734375, 26.508944565570584 ], [ 67.27203369140625, 26.511340654840325 ], [ 67.27203369140625, 26.520925011919278 ], [ 67.2747802734375, 26.520925011919278 ], [ 67.2747802734375, 26.525717190458753 ], [ 67.2802734375, 26.52811327972849 ], [ 67.2802734375, 26.532905458267969 ], [ 67.28302001953125, 26.532905458267969 ], [ 67.28302001953125, 26.535301547537706 ], [ 67.2802734375, 26.535301547537706 ], [ 67.2802734375, 26.537697636807444 ], [ 67.28302001953125, 26.537697636807444 ], [ 67.28302001953125, 26.552074172425872 ], [ 67.28851318359375, 26.554470261695609 ], [ 67.28851318359375, 26.559262440235088 ], [ 67.2802734375, 26.564054618774563 ], [ 67.2802734375, 26.568846797314041 ], [ 67.27203369140625, 26.568846797314041 ], [ 67.27203369140625, 26.571242886583779 ], [ 67.26654052734375, 26.571242886583779 ], [ 67.26654052734375, 26.573638975853516 ], [ 67.2637939453125, 26.573638975853516 ], [ 67.2637939453125, 26.576035065123254 ], [ 67.26654052734375, 26.576035065123254 ], [ 67.26654052734375, 26.585619422202207 ], [ 67.27203369140625, 26.588015511471944 ], [ 67.27203369140625, 26.590411600741685 ], [ 67.27752685546875, 26.590411600741685 ], [ 67.27752685546875, 26.607184225629851 ], [ 67.2747802734375, 26.607184225629851 ], [ 67.27752685546875, 26.616768582708804 ], [ 67.29949951171875, 26.614372493439067 ], [ 67.29949951171875, 26.619164671978542 ], [ 67.30499267578125, 26.619164671978542 ], [ 67.30499267578125, 26.611976404169329 ], [ 67.3077392578125, 26.611976404169329 ], [ 67.3077392578125, 26.607184225629851 ], [ 67.31048583984375, 26.607184225629851 ], [ 67.31048583984375, 26.602392047090376 ], [ 67.313232421875, 26.602392047090376 ], [ 67.313232421875, 26.59520377928116 ], [ 67.31597900390625, 26.59520377928116 ], [ 67.31597900390625, 26.592807690011423 ], [ 67.3187255859375, 26.592807690011423 ], [ 67.3187255859375, 26.59520377928116 ], [ 67.32696533203125, 26.59520377928116 ], [ 67.32696533203125, 26.592807690011423 ], [ 67.33795166015625, 26.592807690011423 ], [ 67.33795166015625, 26.590411600741685 ], [ 67.34344482421875, 26.590411600741685 ], [ 67.34344482421875, 26.588015511471944 ], [ 67.36541748046875, 26.588015511471944 ], [ 67.36541748046875, 26.590411600741685 ], [ 67.3681640625, 26.590411600741685 ], [ 67.3681640625, 26.597599868550898 ], [ 67.3736572265625, 26.599995957820635 ], [ 67.3736572265625, 26.602392047090376 ], [ 67.3846435546875, 26.602392047090376 ], [ 67.3846435546875, 26.599995957820635 ], [ 67.39288330078125, 26.599995957820635 ], [ 67.39288330078125, 26.602392047090376 ], [ 67.3956298828125, 26.602392047090376 ], [ 67.39837646484375, 26.597599868550898 ], [ 67.412109375, 26.597599868550898 ], [ 67.412109375, 26.59520377928116 ], [ 67.41485595703125, 26.59520377928116 ], [ 67.41485595703125, 26.590411600741685 ], [ 67.423095703125, 26.590411600741685 ], [ 67.423095703125, 26.592807690011423 ], [ 67.42584228515625, 26.592807690011423 ], [ 67.42584228515625, 26.599995957820635 ], [ 67.43408203125, 26.604788136360114 ], [ 67.43682861328125, 26.599995957820635 ], [ 67.44232177734375, 26.599995957820635 ], [ 67.44232177734375, 26.59520377928116 ], [ 67.44781494140625, 26.59520377928116 ], [ 67.44781494140625, 26.597599868550898 ], [ 67.4505615234375, 26.597599868550898 ], [ 67.4505615234375, 26.607184225629851 ], [ 67.44781494140625, 26.607184225629851 ], [ 67.4505615234375, 26.611976404169329 ], [ 67.44781494140625, 26.611976404169329 ], [ 67.44781494140625, 26.616768582708804 ], [ 67.44232177734375, 26.616768582708804 ], [ 67.44232177734375, 26.626352939787758 ], [ 67.43408203125, 26.626352939787758 ], [ 67.43408203125, 26.63354120759697 ], [ 67.43133544921875, 26.63354120759697 ], [ 67.43133544921875, 26.647917743215402 ], [ 67.4285888671875, 26.647917743215402 ], [ 67.4285888671875, 26.650313832485139 ], [ 67.423095703125, 26.650313832485139 ], [ 67.423095703125, 26.655106011024614 ], [ 67.4176025390625, 26.657502100294355 ], [ 67.4176025390625, 26.66229427883383 ], [ 67.423095703125, 26.66229427883383 ], [ 67.423095703125, 26.674274725182521 ], [ 67.42584228515625, 26.674274725182521 ], [ 67.42584228515625, 26.681462992991737 ], [ 67.4285888671875, 26.681462992991737 ], [ 67.4285888671875, 26.693443439340427 ], [ 67.42584228515625, 26.693443439340427 ], [ 67.42584228515625, 26.70063170714964 ], [ 67.423095703125, 26.70063170714964 ], [ 67.423095703125, 26.703027796419381 ], [ 67.42584228515625, 26.703027796419381 ], [ 67.42584228515625, 26.707819974958856 ], [ 67.423095703125, 26.707819974958856 ], [ 67.423095703125, 26.710216064228593 ], [ 67.41485595703125, 26.710216064228593 ], [ 67.41485595703125, 26.707819974958856 ], [ 67.412109375, 26.707819974958856 ], [ 67.412109375, 26.703027796419381 ], [ 67.4066162109375, 26.703027796419381 ], [ 67.4066162109375, 26.705423885689118 ], [ 67.40386962890625, 26.705423885689118 ], [ 67.40386962890625, 26.710216064228593 ], [ 67.401123046875, 26.710216064228593 ], [ 67.401123046875, 26.715008242768072 ], [ 67.39013671875, 26.719800421307546 ], [ 67.39013671875, 26.7293847783865 ], [ 67.3846435546875, 26.7293847783865 ], [ 67.3846435546875, 26.726988689116762 ], [ 67.3736572265625, 26.726988689116762 ], [ 67.3736572265625, 26.7293847783865 ], [ 67.37091064453125, 26.7293847783865 ], [ 67.37091064453125, 26.734176956925975 ], [ 67.36541748046875, 26.734176956925975 ], [ 67.36541748046875, 26.736573046195712 ], [ 67.35992431640625, 26.736573046195712 ], [ 67.35992431640625, 26.738969135465453 ], [ 67.34893798828125, 26.741365224735191 ], [ 67.34893798828125, 26.746157403274665 ], [ 67.34344482421875, 26.746157403274665 ], [ 67.34344482421875, 26.753345671083881 ], [ 67.33795166015625, 26.755741760353619 ], [ 67.33795166015625, 26.760533938893097 ], [ 67.33245849609375, 26.760533938893097 ], [ 67.3297119140625, 26.755741760353619 ], [ 67.313232421875, 26.755741760353619 ], [ 67.313232421875, 26.758137849623356 ], [ 67.29400634765625, 26.758137849623356 ], [ 67.29400634765625, 26.760533938893097 ], [ 67.291259765625, 26.760533938893097 ], [ 67.291259765625, 26.762930028162835 ], [ 67.2857666015625, 26.762930028162835 ], [ 67.28302001953125, 26.76772220670231 ], [ 67.26654052734375, 26.76772220670231 ], [ 67.26654052734375, 26.765326117432572 ], [ 67.2637939453125, 26.765326117432572 ], [ 67.2637939453125, 26.76772220670231 ], [ 67.25006103515625, 26.76772220670231 ], [ 67.25006103515625, 26.770118295972047 ], [ 67.24456787109375, 26.770118295972047 ] ] ] } },
{ "type": "Feature", "properties": { "id": 8, "name": "Nai Ranjo", "area_km2": 13.9, "drains_to": "manchar" }, "geometry": { "type": "Polygon", "coordinates": [ [ [ 67.2637939453125, 26.504152387031109 ], [ 67.2637939453125, 26.496964119221893 ], [ 67.26104736328125, 26.496964119221893 ], [ 67.26104736328125, 26.489775851412681 ], [ 67.25830078125, 26.489775851412681 ], [ 67.25830078125, 26.480191494333727 ], [ 67.25555419921875, 26.480191494333727 ], [ 67.25555419921875, 26.465814958715299 ], [ 67.25830078125, 26.465814958715299 ], [ 67.26104736328125, 26.456230601636346 ], [ 67.2747802734375, 26.458626690906083 ], [ 67.2747802734375, 26.461022780175821 ], [ 67.2802734375, 26.463418869445558 ], [ 67.28302001953125, 26.468211047985037 ], [ 67.28851318359375, 26.468211047985037 ], [ 67.291259765625, 26.47779540506399 ], [ 67.29400634765625, 26.47779540506399 ], [ 67.29400634765625, 26.494568029952156 ], [ 67.2802734375, 26.496964119221893 ], [ 67.2747802734375, 26.504152387031109 ], [ 67.2637939453125, 26.504152387031109 ] ] ] } }
]
}
