{
"type": "FeatureCollection",
"name": "permanent_water",
"crs": { "type": "name", "properties": { "name": "urn:ogc:def:crs:OGC:1.3:CRS84" } },
"features": [
{ "type": "Feature", "properties": { "NAME": "INDUS", "HYC_DESCRI": "Perennial/Permanent" }, "geometry": { "type": "Polygon", "coordinates": [ [ [ 68.073364451508496, 27.168305999781978 ], [ 68.07397445150923, 27.164138999778061 ], [ 68.078391451513198, 27.158000999772412 ], [ 68.098335451531966, 27.141387999756944 ], [ 68.101692451534973, 27.1314449997476 ], [ 68.11116845154379, 27.120610999737437 ], [ 68.115638451547966, 27.112805999730199 ], [ 68.117752451549904, 27.105332999723259 ], [ 68.115806451548224, 27.086888999706161 ], [ 68.111083451543664, 27.081332999700862 ], [ 68.110305451542899, 27.076722999696585 ], [ 68.10363745153677, 27.066722999687272 ], [ 68.10094445153436, 27.070416999690678 ], [ 68.105163451538147, 27.076360999696362 ], [ 68.103858451537008, 27.080722999700356 ], [ 68.111083451543664, 27.095332999713946 ], [ 68.112915451545405, 27.103110999721139 ], [ 68.110053451542854, 27.112222999729738 ], [ 68.105613451538602, 27.119637999736597 ], [ 68.097641451531217, 27.127166999743622 ], [ 68.084610451518984, 27.146443999761686 ], [ 68.068748451504234, 27.159833999774037 ], [ 68.066169451501992, 27.166860999780511 ], [ 68.068138451503728, 27.177998999791043 ], [ 68.071502451506831, 27.182056999794668 ], [ 68.075225451510278, 27.182555999795113 ], [ 68.077415451512479, 27.179694999792446 ], [ 68.073364451508496, 27.168305999781978 ] ] ] } },
{ "type": "Feature", "properties": { "NAME": "INDUS", "HYC_DESCRI": "Perennial/Permanent" }, "geometry": { "type": "MultiPolygon", "coordinates": [ [ [ [ 70.656997453914755, 29.230749001702634 ], [ 70.654472453912376, 29.223000001695482 ], [ 70.655723453913652, 29.218222001691174 ], [ 70.6640625, 29.212785168724871 ], [ 70.6640625, 29.207010674275175 ], [ 70.658226453915859, 29.206972001680697 ], [ 70.65466345391269, 29.20338800167724 ], [ 70.652748453910817, 29.182501001657783 ], [ 70.646636453905103, 29.17555600165133 ], [ 70.641998453900896, 29.164444001640959 ], [ 70.612358453873185, 29.135805001614244 ], [ 70.598968453860834, 29.120027001599738 ], [ 70.59244545385468, 29.109112001589438 ], [ 70.591552453853865, 29.103277001584047 ], [ 70.593971453856057, 29.098278001579274 ], [ 70.600441453862231, 29.093721001575204 ], [ 70.607612453868796, 29.091499001573084 ], [ 70.617195453877684, 29.082582001564788 ], [ 70.6215594538819, 29.074917001557651 ], [ 70.621002453881374, 29.06194500154561 ], [ 70.605392453866671, 29.031973001517599 ], [ 70.59744245385923, 29.021444001507916 ], [ 70.598335453860273, 29.019876001506418 ], [ 70.598098453859848, 29.01960600150619 ], [ 70.608970453870143, 29.008806001495941 ], [ 70.602836453864256, 29.004999001492479 ], [ 70.585083453847801, 29.000055001487908 ], [ 70.564331453828572, 28.98755600147615 ], [ 70.536697453802844, 28.975834001465273 ], [ 70.514892453782522, 28.970612001460495 ], [ 70.499000453767621, 28.970472001460394 ], [ 70.487052453756633, 28.975584001464995 ], [ 70.477974453748175, 28.981777001470846 ], [ 70.467636453738351, 28.973944001463678 ], [ 70.452942453724745, 28.970278001460201 ], [ 70.438415453711286, 28.954889001445736 ], [ 70.434753453707799, 28.946278001437804 ], [ 70.430274453703532, 28.94102900143298 ], [ 70.430335453703719, 28.937277001429493 ], [ 70.434417453707511, 28.9331400014255 ], [ 70.43399845370709, 28.929167001421774 ], [ 70.435447453708548, 28.926666001419562 ], [ 70.439002453711737, 28.926916001419841 ], [ 70.451057453723024, 28.932667001425216 ], [ 70.450363453722275, 28.929945001422539 ], [ 70.43624845370914, 28.919584001412886 ], [ 70.434585453707768, 28.901388001396072 ], [ 70.429252453702702, 28.891945001387285 ], [ 70.413475453688079, 28.881971001377906 ], [ 70.380638453657411, 28.871416001368061 ], [ 70.370918453648301, 28.872168001368891 ], [ 70.351387453630196, 28.87844500137453 ], [ 70.346885453625873, 28.877972001374246 ], [ 70.334747453614682, 28.861555001358965 ], [ 70.329246453609585, 28.848333001346646 ], [ 70.320663453601583, 28.833639001332813 ], [ 70.29753145357995, 28.810833001311721 ], [ 70.293807453576619, 28.803917001305308 ], [ 70.292503453575364, 28.796806001298592 ], [ 70.285331453568688, 28.783556001286343 ], [ 70.281585453565185, 28.781445001284283 ], [ 70.273498453557522, 28.781139001283918 ], [ 70.261718453546564, 28.777250001280436 ], [ 70.253723453539124, 28.773001001276498 ], [ 70.241691453528119, 28.769112001272788 ], [ 70.238197453524663, 28.76447300126847 ], [ 70.231414453518482, 28.759583001263991 ], [ 70.219169453506993, 28.754444001259117 ], [ 70.20258345349157, 28.75383400125861 ], [ 70.184974453475206, 28.759277001263627 ], [ 70.179557453470125, 28.757973001262371 ], [ 70.161583453453432, 28.739389001245172 ], [ 70.152694453445065, 28.732166001238511 ], [ 70.143058453436197, 28.727057001233561 ], [ 70.139053453432325, 28.72597300123266 ], [ 70.117447453412296, 28.728222001234826 ], [ 70.112274453407508, 28.725861001232488 ], [ 70.108306453403884, 28.721834001228672 ], [ 70.102836453398595, 28.709028001216893 ], [ 70.098419453394627, 28.704195001212383 ], [ 70.080780453378111, 28.695194001204072 ], [ 70.069946453368175, 28.692778001201759 ], [ 70.049636453349194, 28.673944001184282 ], [ 70.041420453341516, 28.669445001180065 ], [ 70.029274453330117, 28.659056001170256 ], [ 70.017440453319068, 28.644083001156332 ], [ 69.99578145329906, 28.623333001137098 ], [ 69.981002453285328, 28.616249001130427 ], [ 69.972358453277138, 28.609249001123999 ], [ 69.960304453265962, 28.594694001110383 ], [ 69.960113453265876, 28.590918001106957 ], [ 69.96794145327317, 28.590611001106481 ], [ 69.9821934532863, 28.586416001102634 ], [ 69.99238545329581, 28.585501001101875 ], [ 70.000640453303504, 28.586639001102867 ], [ 70.004165453306769, 28.588362001104542 ], [ 70.014808453316618, 28.603111001118123 ], [ 70.024887453326073, 28.608667001123422 ], [ 70.040969453341177, 28.608444001123189 ], [ 70.054336453353471, 28.602333001117586 ], [ 70.064025453362547, 28.602249001117343 ], [ 70.071777453369805, 28.606306001121084 ], [ 70.074081453371946, 28.609472001124232 ], [ 70.075584453373267, 28.61911200113309 ], [ 70.073997453371931, 28.630362001143567 ], [ 70.077919453375443, 28.637527001150374 ], [ 70.079025453376516, 28.6108050011253 ], [ 70.0767514533743, 28.605333001120243 ], [ 70.072303453370296, 28.601723001116852 ], [ 70.059608453358351, 28.597610001113026 ], [ 70.054862453353962, 28.59797300111336 ], [ 70.03961145333983, 28.605305001120314 ], [ 70.032501453333225, 28.605417001120259 ], [ 70.023551453324899, 28.60364000111872 ], [ 70.016525453318309, 28.598749001114129 ], [ 70.011718453313733, 28.589501001105646 ], [ 70.005195453307806, 28.583139001099653 ], [ 69.998359453301418, 28.580749001097274 ], [ 69.992248453295588, 28.579416001096206 ], [ 69.970886453275853, 28.584389001100817 ], [ 69.963279453268797, 28.587000001103206 ], [ 69.960197453265891, 28.586750001102928 ], [ 69.947860453254407, 28.57405500109121 ], [ 69.931526453239258, 28.561722001079715 ], [ 69.903831453213343, 28.54841600106738 ], [ 69.899002453208823, 28.542499001061742 ], [ 69.886917453197611, 28.528973001049053 ], [ 69.878280453189518, 28.524027001044487 ], [ 69.860168453172719, 28.51836200103935 ], [ 69.85108145316417, 28.511139001032461 ], [ 69.833969453148256, 28.501917001023912 ], [ 69.814720453130349, 28.494749001017226 ], [ 69.795524453112421, 28.484472001007816 ], [ 69.780639453098729, 28.472139000996322 ], [ 69.772445453090995, 28.467833000992186 ], [ 69.768280453087073, 28.463388000988061 ], [ 69.769081453087892, 28.458195000983324 ], [ 69.77688645309513, 28.458084000983035 ], [ 69.806503453122787, 28.466639000991108 ], [ 69.81077545312678, 28.465666000990268 ], [ 69.78563645310328, 28.456333000981431 ], [ 69.770805453089451, 28.453833000979103 ], [ 69.760307453079577, 28.434860000961407 ], [ 69.755165453074824, 28.43061100095747 ], [ 69.751663453071615, 28.429945000956877 ], [ 69.74996945306998, 28.431389000958234 ], [ 69.751113453071184, 28.43369500096037 ], [ 69.753913453073665, 28.434778000961387 ], [ 69.752136453072126, 28.441639000967825 ], [ 69.747886453068077, 28.440945000967076 ], [ 69.740501453061142, 28.432083000958983 ], [ 69.731857453053181, 28.426722000953987 ], [ 69.731475453052781, 28.423166000950687 ], [ 69.738082453058951, 28.42347100095094 ], [ 69.743858453064377, 28.429001000956077 ], [ 69.745552453066011, 28.428389000955576 ], [ 69.740249453061097, 28.420999000948541 ], [ 69.725028453046889, 28.413889000941936 ], [ 69.717803453040005, 28.408333000936864 ], [ 69.706474453029614, 28.39563900092503 ], [ 69.703971453027179, 28.39080600092052 ], [ 69.701637453025114, 28.390139000919817 ], [ 69.700164453023717, 28.392834000922448 ], [ 69.709083453032008, 28.408417000936879 ], [ 69.707862453030884, 28.410917000939207 ], [ 69.702888453026162, 28.410223000938458 ], [ 69.697586453021358, 28.403667000932501 ], [ 69.683944453008507, 28.377138000907735 ], [ 69.684448453009054, 28.363361000894884 ], [ 69.68630245301074, 28.351473000883743 ], [ 69.686553453010902, 28.339582000872724 ], [ 69.682662453007424, 28.320500000854963 ], [ 69.671363452996957, 28.308222000843671 ], [ 69.664833452990706, 28.303722000839343 ], [ 69.640945452968481, 28.293333000829762 ], [ 69.624496452953281, 28.291416000827894 ], [ 69.609085452938871, 28.284082000821172 ], [ 69.601219452931446, 28.286472000823323 ], [ 69.598663452929031, 28.28580500082262 ], [ 69.566474452899229, 28.255417000794296 ], [ 69.566001452898718, 28.232639000773133 ], [ 69.56394145289687, 28.218389000759998 ], [ 69.560333452893474, 28.210417000752386 ], [ 69.556167452889667, 28.206167000748565 ], [ 69.546607452880608, 28.200777000743528 ], [ 69.537696452872297, 28.198973000741717 ], [ 69.529525452864846, 28.194250000737384 ], [ 69.524139452859799, 28.19311100073628 ], [ 69.513053452849363, 28.193138000736326 ], [ 69.502418452839493, 28.195473000738502 ], [ 69.487915452825973, 28.200472000743275 ], [ 69.476692452815541, 28.208000000750189 ], [ 69.464775452804361, 28.213667000755549 ], [ 69.458663452798646, 28.212723000754522 ], [ 69.434806452776456, 28.204584000746991 ], [ 69.429946452772128, 28.200750000743483 ], [ 69.425720452768019, 28.188360000732018 ], [ 69.426170452768474, 28.178972000723206 ], [ 69.437446452779113, 28.181028000725064 ], [ 69.437500452778977, 28.178305000722503 ], [ 69.426834452769072, 28.170195000715012 ], [ 69.423805452766373, 28.157806000703431 ], [ 69.420585452763362, 28.153805000699776 ], [ 69.404663452748537, 28.14933400069549 ], [ 69.402694452746573, 28.142416000689082 ], [ 69.403503452747373, 28.137638000684774 ], [ 69.400085452744179, 28.131916000679439 ], [ 69.376220452722009, 28.13591600068321 ], [ 69.331443452680332, 28.136167000683372 ], [ 69.300498452651482, 28.139584000686455 ], [ 69.296943452648065, 28.141417000688307 ], [ 69.293777452645145, 28.14575000069226 ], [ 69.290001452641718, 28.156528000702338 ], [ 69.280777452633174, 28.157417000703163 ], [ 69.257637452611561, 28.139444000686353 ], [ 69.25141945260566, 28.122639000670688 ], [ 69.252944452607153, 28.108250000657335 ], [ 69.260192452613865, 28.099583000649318 ], [ 69.270248452623264, 28.092890000643138 ], [ 69.275138452627743, 28.085251000635935 ], [ 69.268997452622216, 28.075722000627138 ], [ 69.262275452615768, 28.071222000622811 ], [ 69.252693452606991, 28.068527000620406 ], [ 69.232170452587752, 28.070250000621854 ], [ 69.212890452569809, 28.069056000620776 ], [ 69.204139452561776, 28.070168000621834 ], [ 69.196998452555135, 28.074194000625539 ], [ 69.190414452549021, 28.073029000624501 ], [ 69.183693452542684, 28.069139000620908 ], [ 69.168747452528805, 28.054445000607302 ], [ 69.162193452522615, 28.042833000596374 ], [ 69.153526452514598, 28.030556000584966 ], [ 69.148696452510194, 28.027334000581959 ], [ 69.13744345249961, 28.025249000580061 ], [ 69.117668452481212, 28.025278000580101 ], [ 69.1096114524737, 28.027222000581787 ], [ 69.096778452461649, 28.041805000595559 ], [ 69.092025452457392, 28.043583000597209 ], [ 69.055557452423272, 28.042667000596339 ], [ 69.048111452416379, 28.040028000593793 ], [ 69.040496452409343, 28.024000000578781 ], [ 69.044502452413099, 28.014862000570474 ], [ 69.048835452417052, 28.010361000566263 ], [ 69.04680645241524, 27.998194000554804 ], [ 69.04905645241729, 27.992390000549449 ], [ 69.054580452422442, 27.987694000545162 ], [ 69.056335452424037, 27.983555000541173 ], [ 69.041999452410664, 27.964666000523721 ], [ 69.03277545240212, 27.947584000507732 ], [ 69.020301452390413, 27.929361000490644 ], [ 68.996025452367803, 27.903999000467138 ], [ 68.979530452352492, 27.888222000452515 ], [ 68.973419452346889, 27.878471000443369 ], [ 68.97313645234658, 27.87116600043646 ], [ 68.97497545234819, 27.863667000429587 ], [ 68.981613452354395, 27.852751000419403 ], [ 68.984641452357209, 27.843805000411066 ], [ 68.992446452364675, 27.833305000401197 ], [ 68.994499452366426, 27.826250000394793 ], [ 68.989944452362124, 27.774750000346785 ], [ 68.990501452362651, 27.752417000325977 ], [ 68.988441452360803, 27.74130600031549 ], [ 68.983474452356177, 27.734306000309061 ], [ 68.974693452347992, 27.728890000304091 ], [ 68.949447452324421, 27.724222000299733 ], [ 68.942749452318367, 27.720722000296519 ], [ 68.93746945231328, 27.715611000291574 ], [ 68.932807452308907, 27.705473000282154 ], [ 68.927749452304397, 27.701195000278176 ], [ 68.916168452293505, 27.696583000273904 ], [ 68.901390452279657, 27.695639000273104 ], [ 68.900024452278558, 27.694139000271662 ], [ 68.899276452277718, 27.695389000272826 ], [ 68.886833452266274, 27.696388000273828 ], [ 68.854194452235788, 27.679806000258395 ], [ 68.84155245222405, 27.678722000257267 ], [ 68.82313545220677, 27.665167000244764 ], [ 68.800750452186094, 27.652140000232521 ], [ 68.78094445216766, 27.646917000227631 ], [ 68.768943452156464, 27.645639000226538 ], [ 68.756530452144943, 27.648472000229049 ], [ 68.749832452138662, 27.652500000232976 ], [ 68.735862452125502, 27.665556000245033 ], [ 68.735191452125036, 27.667278000246597 ], [ 68.742668452131966, 27.665306000244755 ], [ 68.76208445215002, 27.650473000230932 ], [ 68.764274452151994, 27.650528000231134 ], [ 68.771720452158888, 27.648611000229266 ], [ 68.779136452165858, 27.652721000232987 ], [ 68.796165452181867, 27.656639000236737 ], [ 68.813530452197938, 27.665361000244957 ], [ 68.835166452218118, 27.68066600025918 ], [ 68.861137452242247, 27.691667000269263 ], [ 68.870552452251104, 27.699806000277022 ], [ 68.877250452257385, 27.703083000280003 ], [ 68.884941452264457, 27.705334000282164 ], [ 68.892913452271841, 27.705694000282392 ], [ 68.899108452277687, 27.701860000278884 ], [ 68.908027452285978, 27.701639000278647 ], [ 68.930610452307064, 27.708778000285292 ], [ 68.930252452306604, 27.731333000306222 ], [ 68.928169452304701, 27.739861000314249 ], [ 68.923835452300636, 27.74352800031761 ], [ 68.917251452294522, 27.744028000318167 ], [ 68.914802452292179, 27.747723000321457 ], [ 68.908111452285993, 27.752611000326169 ], [ 68.879303452259137, 27.758278000331302 ], [ 68.847442452229416, 27.773083000345196 ], [ 68.840721452223306, 27.778778000350485 ], [ 68.834251452217131, 27.792028000362734 ], [ 68.834503452217405, 27.817722000386766 ], [ 68.838165452220892, 27.821777000390512 ], [ 68.853225452234938, 27.829416000397714 ], [ 68.874191452254536, 27.844473000411654 ], [ 68.880752452260595, 27.845861000412924 ], [ 68.900917452279373, 27.846916000414012 ], [ 68.913749452291313, 27.850529000417282 ], [ 68.927329452303866, 27.861444000427582 ], [ 68.94047545231615, 27.87988800044468 ], [ 68.947525452322679, 27.888611000452784 ], [ 68.949974452325023, 27.894306000458073 ], [ 68.948219452323428, 27.90722300047014 ], [ 68.943611452319146, 27.912556000474979 ], [ 68.915832452293216, 27.932249000493357 ], [ 68.903579452281747, 27.94224900050267 ], [ 68.895416452274276, 27.957527000517075 ], [ 68.893806452272656, 27.964195000523205 ], [ 68.895080452273987, 27.969223000527791 ], [ 68.897857452276412, 27.97180600053025 ], [ 68.908386452286322, 27.973055000531531 ], [ 68.950447452325534, 27.975166000533363 ], [ 68.972641452346124, 27.981277000539194 ], [ 68.981445452354365, 27.986445000543881 ], [ 68.988746452361056, 27.986389000543795 ], [ 68.989051452361309, 27.983694000541391 ], [ 68.98630545235892, 27.98049900053843 ], [ 68.962364452336487, 27.970194000528863 ], [ 68.946166452321449, 27.967972000526743 ], [ 68.920997452298025, 27.96766700052649 ], [ 68.901390452279657, 27.962667000521833 ], [ 68.899139452277723, 27.958860000518143 ], [ 68.901863452280168, 27.95327800051291 ], [ 68.907913452285811, 27.946501000506714 ], [ 68.912750452290311, 27.942028000502432 ], [ 68.931358452307677, 27.93152800049279 ], [ 68.93966645231535, 27.928557000489945 ], [ 68.946640452321844, 27.922861000484772 ], [ 68.953003452327721, 27.913166000475712 ], [ 68.956054452330591, 27.904861000467918 ], [ 68.954193452329037, 27.89480600045863 ], [ 68.947113452322355, 27.878166000443116 ], [ 68.943885452319364, 27.865972000431611 ], [ 68.940307452315892, 27.859222000425461 ], [ 68.929947452306351, 27.851473000418082 ], [ 68.922195452299093, 27.842333000409781 ], [ 68.915885452293196, 27.840944000408399 ], [ 68.892135452271077, 27.8410840004085 ], [ 68.88400245226353, 27.838612000406329 ], [ 68.855079452236623, 27.820889000389798 ], [ 68.84822045223018, 27.814667000383906 ], [ 68.84510845222735, 27.807306000377139 ], [ 68.846359452228398, 27.796249000366743 ], [ 68.845336452227457, 27.790777000361686 ], [ 68.847084452229183, 27.787056000358234 ], [ 68.87905845225896, 27.768305000340661 ], [ 68.906806452284854, 27.760084000333109 ], [ 68.91258245229028, 27.760445000333448 ], [ 68.917694452294882, 27.763056000335837 ], [ 68.928970452305521, 27.753471000326954 ], [ 68.932663452308816, 27.74705500032087 ], [ 68.936607452312501, 27.730223000305159 ], [ 68.939720452315441, 27.728390000303534 ], [ 68.946525452321794, 27.728111000303215 ], [ 68.968612452342313, 27.736500000311025 ], [ 68.976249452349521, 27.741056000315439 ], [ 68.98152945235438, 27.745750000319731 ], [ 68.984001452356779, 27.750195000323856 ], [ 68.979057452351981, 27.759916000332851 ], [ 68.979057452351981, 27.769112000341465 ], [ 68.984474452357063, 27.823528000392116 ], [ 68.982086452354906, 27.833944000401971 ], [ 68.968109452341878, 27.855806000422263 ], [ 68.965057452339124, 27.86536000043111 ], [ 68.964614452338537, 27.873917000439178 ], [ 68.966278452340248, 27.881889000446563 ], [ 68.977691452350882, 27.903862000466916 ], [ 69.019195452389567, 27.945639000505935 ], [ 69.023719452393607, 27.961390000520623 ], [ 69.030891452400283, 27.966972000525857 ], [ 69.046608452415057, 27.987333000544822 ], [ 69.0420304524107, 27.991222000548305 ], [ 69.036582452405582, 27.992584000549641 ], [ 69.033691452402991, 27.994806000551762 ], [ 69.035331452404535, 28.005083000561172 ], [ 69.031166452400612, 28.021084000576138 ], [ 69.03283645240208, 28.029055000583639 ], [ 69.039306452408255, 28.04361200059725 ], [ 69.045639452414207, 28.053749000606558 ], [ 69.052086452420099, 28.060167000612637 ], [ 69.063835452431022, 28.070000000621803 ], [ 69.085502452451237, 28.079389000630499 ], [ 69.095192452460196, 28.077917000628986 ], [ 69.109024452473022, 28.070028000621733 ], [ 69.114219452477982, 28.069916000621561 ], [ 69.119781452483039, 28.072945000624486 ], [ 69.133804452496179, 28.087223000637778 ], [ 69.148139452509668, 28.098362000648194 ], [ 69.15152745251271, 28.104279000653605 ], [ 69.153251452514269, 28.111610000660448 ], [ 69.152885452514056, 28.126223000674145 ], [ 69.158363452519097, 28.133028000680497 ], [ 69.163719452523992, 28.1360550006832 ], [ 69.181083452540179, 28.138472000685397 ], [ 69.182220452541287, 28.140167000687143 ], [ 69.190940452549512, 28.139694000686632 ], [ 69.187774452546364, 28.134832000682081 ], [ 69.189697452548216, 28.133389000680836 ], [ 69.199836452557747, 28.13252800067994 ], [ 69.228775452584614, 28.143944000690681 ], [ 69.23980745259496, 28.156666000702444 ], [ 69.249275452603797, 28.165001000710163 ], [ 69.255531452609603, 28.169083000713954 ], [ 69.26280245261637, 28.171083000715953 ], [ 69.270301452623244, 28.172056000716793 ], [ 69.27600045262875, 28.170694000715457 ], [ 69.288719452640407, 28.171362000716044 ], [ 69.306503452657125, 28.175972000720321 ], [ 69.299079452650176, 28.171112000715993 ], [ 69.292999452644381, 28.169138000714156 ], [ 69.294944452646178, 28.166445000711519 ], [ 69.303443452654165, 28.165750000710887 ], [ 69.322692452672072, 28.158777000704504 ], [ 69.329971452678819, 28.159555000705041 ], [ 69.36386145271058, 28.183332000727205 ], [ 69.374832452720739, 28.18811000073174 ], [ 69.378440452724135, 28.19486000073789 ], [ 69.367332452713754, 28.207416000749618 ], [ 69.36575345271217, 28.215334000757139 ], [ 69.371750452717833, 28.230888000771529 ], [ 69.381469452726833, 28.239195000779318 ], [ 69.386192452731166, 28.238861000779025 ], [ 69.373275452719326, 28.225277000766255 ], [ 69.37149845271756, 28.22086100076217 ], [ 69.371223452717231, 28.212500000754517 ], [ 69.3727184527188, 28.20897300075103 ], [ 69.38519245273028, 28.199167000741909 ], [ 69.392250452737017, 28.199055000741964 ], [ 69.394638452739173, 28.197639000740537 ], [ 69.392417452737163, 28.192388000735718 ], [ 69.384636452729865, 28.192028000735263 ], [ 69.379974452725492, 28.189861000733345 ], [ 69.378944452724454, 28.183390000727286 ], [ 69.382026452727359, 28.178778000723014 ], [ 69.395385452739902, 28.164028000709322 ], [ 69.39653045274099, 28.155695000701598 ], [ 69.399169452743308, 28.152166000698344 ], [ 69.402252452746325, 28.152222000698202 ], [ 69.420471452763195, 28.159222000704858 ], [ 69.423332452765862, 28.168249000713104 ], [ 69.417305452760274, 28.18591700072966 ], [ 69.417640452760452, 28.191360000734676 ], [ 69.419357452762142, 28.198889000741701 ], [ 69.427108452769289, 28.211779000753722 ], [ 69.43338745277515, 28.216055000757706 ], [ 69.459053452799026, 28.217527000759219 ], [ 69.476753452815501, 28.216583000758192 ], [ 69.494720452832325, 28.214138000756066 ], [ 69.497581452834993, 28.212528000754446 ], [ 69.5100554528467, 28.202084000744662 ], [ 69.517166452853189, 28.200306000743012 ], [ 69.539001452873663, 28.204834000747269 ], [ 69.548805452882789, 28.209168000751333 ], [ 69.5524974528862, 28.213194000755038 ], [ 69.55611445288946, 28.232056000772673 ], [ 69.560363452893398, 28.242777000782553 ], [ 69.56099645289396, 28.258055000796958 ], [ 69.56475045289767, 28.270445000808422 ], [ 69.571029452903304, 28.275972000813454 ], [ 69.577140452909134, 28.27730600081486 ], [ 69.583641452915117, 28.282000000819153 ], [ 69.594055452924749, 28.291779000828228 ], [ 69.600364452930762, 28.295444000831594 ], [ 69.610221452939868, 28.297251000833285 ], [ 69.618164452947212, 28.301556000837309 ], [ 69.624137452952937, 28.309166000844471 ], [ 69.63197345296021, 28.331028000864762 ], [ 69.641502452969007, 28.350584000882918 ], [ 69.64180745296926, 28.358528000890374 ], [ 69.645225452972454, 28.352945000885256 ], [ 69.641441452969048, 28.341194000874339 ], [ 69.637527452965287, 28.335695000869237 ], [ 69.626975452955548, 28.309639000844982 ], [ 69.628219452956728, 28.305056000840523 ], [ 69.632057452960225, 28.302195000837855 ], [ 69.637725452965469, 28.301861000837562 ], [ 69.658302452984799, 28.311167000846353 ], [ 69.672470452997914, 28.322640000857064 ], [ 69.676612453001781, 28.328777000862829 ], [ 69.681579453006407, 28.352861000885241 ], [ 69.677307453002413, 28.36658300089789 ], [ 69.678276453003264, 28.377056000907714 ], [ 69.687141453011463, 28.394112000923542 ], [ 69.684974453009545, 28.396360000925597 ], [ 69.669914452995499, 28.394472000923997 ], [ 69.662887452989025, 28.392305000921851 ], [ 69.656112452982597, 28.387167000917088 ], [ 69.643386452970844, 28.385500000915499 ], [ 69.643775452971113, 28.389473000919224 ], [ 69.657470452983944, 28.390944000920626 ], [ 69.666053452991946, 28.397333000926665 ], [ 69.677635453002722, 28.397943000927171 ], [ 69.685363453009813, 28.400972000929869 ], [ 69.702613453026061, 28.412500000940781 ], [ 69.711196453034063, 28.421417000949077 ], [ 69.72708145304864, 28.439611000965897 ], [ 69.738723453059492, 28.440195000966469 ], [ 69.752777453072667, 28.446251000972097 ], [ 69.762527453081702, 28.467277000991771 ], [ 69.763832453083069, 28.47336200099744 ], [ 69.76457945308357, 28.483805001007113 ], [ 69.76258045308191, 28.502806001024737 ], [ 69.765052453084081, 28.509083001030604 ], [ 69.778083453096315, 28.520971001041744 ], [ 69.783752453101442, 28.521473001042068 ], [ 69.787719453105183, 28.523417001043981 ], [ 69.79799645311482, 28.531084001051113 ], [ 69.796524453113307, 28.533556001053512 ], [ 69.79983545311643, 28.5355550010554 ], [ 69.810997453126902, 28.543583001062871 ], [ 69.8183064531338, 28.545361001064521 ], [ 69.792945453110178, 28.522667001043374 ], [ 69.77327745309185, 28.512972001034314 ], [ 69.766777453085751, 28.505777001027582 ], [ 69.767890453086693, 28.484278001007624 ], [ 69.772697453091268, 28.480389001003914 ], [ 69.778579453096654, 28.480888001004359 ], [ 69.7855834531033, 28.485584001008647 ], [ 69.801582453118044, 28.502306001024408 ], [ 69.80955545312554, 28.506390001028194 ], [ 69.81561245313128, 28.511473001032755 ], [ 69.823112453138265, 28.514944001036156 ], [ 69.843834453157569, 28.519611001040403 ], [ 69.865417453177542, 28.52908300104923 ], [ 69.871971453183733, 28.532305001052237 ], [ 69.883163453194129, 28.541861001061079 ], [ 69.888168453198659, 28.553417001071921 ], [ 69.887641453198285, 28.555721001074062 ], [ 69.884780453195617, 28.557333001075676 ], [ 69.877914453189305, 28.557472001075666 ], [ 69.864135453176459, 28.554890001073318 ], [ 69.855140453167905, 28.555111001073556 ], [ 69.842781453156476, 28.552166001070873 ], [ 69.841331453155135, 28.553833001072235 ], [ 69.847641453161032, 28.557472001075666 ], [ 69.866165453178382, 28.557333001075676 ], [ 69.882774453193633, 28.562944001080723 ], [ 69.893447453203635, 28.562695001080556 ], [ 69.897636453207497, 28.5656660010834 ], [ 69.905334453214664, 28.586250001102599 ], [ 69.918334453226862, 28.600834001116027 ], [ 69.934974453242376, 28.608973001123559 ], [ 69.945388453252008, 28.609112001123776 ], [ 69.948944453255308, 28.607916001122703 ], [ 69.953414453259484, 28.609833001124571 ], [ 69.961807453267284, 28.632084001145131 ], [ 69.967582453272826, 28.640528001153143 ], [ 69.975753453280277, 28.646055001158174 ], [ 70.000000453302846, 28.689917001199092 ], [ 70.010109453312225, 28.696472001205166 ], [ 70.027168453328159, 28.710833001218589 ], [ 70.033920453334531, 28.711111001218796 ], [ 70.040191453340412, 28.709110001216914 ], [ 70.050308453349771, 28.711250001219014 ], [ 70.064025453362547, 28.718944001226191 ], [ 70.071830453369785, 28.718306001225528 ], [ 70.077804453375393, 28.720861001227831 ], [ 70.084968453382089, 28.732861001239144 ], [ 70.094779453391084, 28.740723001246351 ], [ 70.102531453398342, 28.749277001254313 ], [ 70.104553453400285, 28.753889001258585 ], [ 70.102890453398686, 28.765112001269017 ], [ 70.10488845340069, 28.77202800127543 ], [ 70.112136453407402, 28.7785000012816 ], [ 70.138084453431475, 28.788111001290417 ], [ 70.144584453437574, 28.788139001290574 ], [ 70.187141453477125, 28.776501001279712 ], [ 70.18538645347553, 28.771223001274848 ], [ 70.187690453477671, 28.76702700127089 ], [ 70.195030453484605, 28.768389001272226 ], [ 70.199943453489141, 28.772194001275693 ], [ 70.202392453491484, 28.783083001285831 ], [ 70.206970453495614, 28.793362001295463 ], [ 70.218223453506198, 28.803305001304579 ], [ 70.233802453520639, 28.807667001308801 ], [ 70.241638453527912, 28.807112001308269 ], [ 70.253555453539093, 28.802221001303678 ], [ 70.263641453548416, 28.793777001295894 ], [ 70.265998453550537, 28.793583001295701 ], [ 70.274414453558393, 28.801834001303178 ], [ 70.287864453571046, 28.805721001306893 ], [ 70.289718453572732, 28.826834001326461 ], [ 70.291557453574342, 28.830833001330348 ], [ 70.311195453592745, 28.850666001348827 ], [ 70.325859453606427, 28.87086100136753 ], [ 70.334304453614322, 28.878250001374454 ], [ 70.342308453621627, 28.882528001378432 ], [ 70.36597445364373, 28.886723001382279 ], [ 70.380668453657336, 28.887722001383281 ], [ 70.386413453662726, 28.882528001378432 ], [ 70.39380645366964, 28.8813610013774 ], [ 70.403747453678989, 28.881889001377886 ], [ 70.408447453683266, 28.885889001381656 ], [ 70.410530453685169, 28.890499001385933 ], [ 70.412529453687057, 28.919361001412653 ], [ 70.418335453692634, 28.929222001421977 ], [ 70.42544545369924, 28.949556001440897 ], [ 70.430831453704059, 28.95480500144572 ], [ 70.437553453710507, 28.966778001456987 ], [ 70.444137453716621, 28.972279001462084 ], [ 70.475303453745482, 28.986334001475143 ], [ 70.491859453760981, 28.991501001479946 ], [ 70.49669645376548, 28.985083001473868 ], [ 70.502197453770577, 28.98116700147034 ], [ 70.512413453780027, 28.979361001468533 ], [ 70.521919453788996, 28.980083001469211 ], [ 70.530197453796745, 28.982445001471433 ], [ 70.541969453807724, 28.990694001479142 ], [ 70.54435745380988, 28.994499001482609 ], [ 70.56019545382469, 28.995861001483945 ], [ 70.571083453834717, 28.999722001487498 ], [ 70.577446453840821, 29.004360001491932 ], [ 70.584915453847771, 29.014444001501261 ], [ 70.594001453856208, 29.030611001516263 ], [ 70.603386453864914, 29.041140001526173 ], [ 70.609443453870426, 29.052250001536549 ], [ 70.61280845387364, 29.070250001553177 ], [ 70.611053453872046, 29.080444001562682 ], [ 70.607414453868614, 29.086277001568305 ], [ 70.603332453864823, 29.089582001571216 ], [ 70.585502453848221, 29.092361001573863 ], [ 70.580001453843124, 29.095638001576845 ], [ 70.577804453841054, 29.100027001581111 ], [ 70.579330453842431, 29.111111001591325 ], [ 70.594863453856988, 29.127722001606799 ], [ 70.600471453862156, 29.135916001614532 ], [ 70.608253453869338, 29.141834001619827 ], [ 70.612441453873316, 29.150223001627637 ], [ 70.611579453872537, 29.16313900163982 ], [ 70.600807453862444, 29.169527001645747 ], [ 70.596252453858142, 29.173889001649741 ], [ 70.591392453853587, 29.183861001659125 ], [ 70.593719453855783, 29.208750001682347 ], [ 70.61189245387277, 29.223499001695927 ], [ 70.616722453877173, 29.237333001708976 ], [ 70.623359453883495, 29.240723001712013 ], [ 70.634498453893912, 29.243305001714361 ], [ 70.647468453905958, 29.254889001725132 ], [ 70.647697453906176, 29.258444001728549 ], [ 70.645248453903832, 29.264084001733863 ], [ 70.629524453889189, 29.285667001753836 ], [ 70.622024453882204, 29.300556001767745 ], [ 70.620781453881136, 29.304583001771562 ], [ 70.611610453872572, 29.31369400178005 ], [ 70.612274453873169, 29.317888001784013 ], [ 70.61463945387527, 29.321028001786772 ], [ 70.619140453879481, 29.322750001788336 ], [ 70.622917453883019, 29.326529001791869 ], [ 70.625892453885854, 29.338028001802741 ], [ 70.628944453888607, 29.342028001806284 ], [ 70.653083453911222, 29.356417001819864 ], [ 70.6640625, 29.365546565665074 ], [ 70.6640625, 29.35246038131968 ], [ 70.662918453920383, 29.351500001815111 ], [ 70.6640625, 29.350483600928804 ], [ 70.6640625, 29.332944947135765 ], [ 70.65391545391185, 29.322195001787804 ], [ 70.64847545390694, 29.319639001785617 ], [ 70.639190453898209, 29.317888001784013 ], [ 70.630363453889913, 29.320110001785906 ], [ 70.623222453883272, 29.320278001786164 ], [ 70.620163453880423, 29.317528001783558 ], [ 70.624336453884325, 29.305779001772635 ], [ 70.635803453895051, 29.301167001768363 ], [ 70.642997453901671, 29.295584001763018 ], [ 70.644531453903255, 29.287666001755724 ], [ 70.650085453908332, 29.278723001747494 ], [ 70.654113453912032, 29.257473001727703 ], [ 70.651580453909673, 29.248472001719165 ], [ 70.645942453904581, 29.241722001713015 ], [ 70.630142453889675, 29.228251001700528 ], [ 70.624473453884548, 29.225472001697881 ], [ 70.607749453869019, 29.209889001683223 ], [ 70.600669453862338, 29.205444001679098 ], [ 70.599281453861067, 29.200445001674552 ], [ 70.600334453861933, 29.190611001665275 ], [ 70.599670453861336, 29.186222001661235 ], [ 70.601669453863224, 29.179138001654792 ], [ 70.618385453878773, 29.171778001647908 ], [ 70.623664453883748, 29.166389001642756 ], [ 70.627609453887317, 29.154945001632086 ], [ 70.633026453892398, 29.159361001636171 ], [ 70.637969453897085, 29.164417001640913 ], [ 70.645553453904085, 29.189527001664374 ], [ 70.64450045390322, 29.198723001672988 ], [ 70.648223453906667, 29.206249001679907 ], [ 70.647918453906414, 29.213556001686811 ], [ 70.650390453908585, 29.228195001700442 ], [ 70.65530345391312, 29.235556001707209 ], [ 70.6640625, 29.2433819338451 ], [ 70.6640625, 29.235874971566524 ], [ 70.656997453914755, 29.230749001702634 ] ], [ [ 70.645614453904273, 29.342167001806502 ], [ 70.63703145389627, 29.342527001806957 ], [ 70.63349945389291, 29.339556001804112 ], [ 70.629524453889189, 29.331612001796657 ], [ 70.632888453892292, 29.32933400179445 ], [ 70.638610453897627, 29.328972001794227 ], [ 70.643165453901929, 29.32691600179237 ], [ 70.653861453911986, 29.327833001793124 ], [ 70.655975453913925, 29.332445001797396 ], [ 70.656776453914517, 29.34474900180885 ], [ 70.645614453904273, 29.342167001806502 ] ], [ [ 70.426528453700257, 28.920111001413488 ], [ 70.426719453700343, 28.923861001416981 ], [ 70.423614453697382, 28.923834001416935 ], [ 70.416862453691238, 28.915832001409399 ], [ 70.418998453693121, 28.913973001407612 ], [ 70.429390453702808, 28.91888800141237 ], [ 70.426528453700257, 28.920111001413488 ] ], [ [ 70.315360453596668, 28.840473001339205 ], [ 70.314636453595995, 28.84605600134455 ], [ 70.309860453591455, 28.84397300134242 ], [ 70.299110453581534, 28.833000001332266 ], [ 70.299942453582162, 28.823389001323449 ], [ 70.313056453594527, 28.835444001334508 ], [ 70.315360453596668, 28.840473001339205 ] ], [ [ 70.235809453522506, 28.800778001302206 ], [ 70.230079453517192, 28.801361001302894 ], [ 70.212692453500949, 28.791555001293773 ], [ 70.206275453494982, 28.777277001280481 ], [ 70.207496453496105, 28.775000001278386 ], [ 70.214584453502766, 28.776527001279646 ], [ 70.216247453504366, 28.775723001278948 ], [ 70.214386453502584, 28.772778001276265 ], [ 70.197975453487288, 28.762556001266603 ], [ 70.198219453487582, 28.760889001265241 ], [ 70.201057453490193, 28.760723001264978 ], [ 70.20880845349734, 28.766027001270004 ], [ 70.230697453517678, 28.775250001278437 ], [ 70.23921945352572, 28.775333001278568 ], [ 70.248916453534775, 28.778360001281499 ], [ 70.260635453545547, 28.785805001288281 ], [ 70.26205445354708, 28.787500001290027 ], [ 70.260612453545718, 28.789972001292199 ], [ 70.253860453539346, 28.796583001298359 ], [ 70.241531453527841, 28.796667001298374 ], [ 70.235809453522506, 28.800778001302206 ] ], [ [ 70.14213545343523, 28.745861001251114 ], [ 70.141830453434977, 28.749584001254561 ], [ 70.144142453437098, 28.753250001258039 ], [ 70.15139045344381, 28.757444001262002 ], [ 70.154472453446715, 28.762056001266274 ], [ 70.150527453443146, 28.766611001270576 ], [ 70.142669453435701, 28.771389001274883 ], [ 70.137168453430604, 28.773167001276533 ], [ 70.133804453427501, 28.772222001275622 ], [ 70.130500453424474, 28.762556001266603 ], [ 70.130111453424206, 28.749500001254546 ], [ 70.131805453425613, 28.742945001248472 ], [ 70.138031453431495, 28.745167001250593 ], [ 70.14213545343523, 28.745861001251114 ] ], [ [ 70.029113453329956, 28.669083001179615 ], [ 70.033363453334005, 28.671028001181412 ], [ 70.044113453343925, 28.678667001188614 ], [ 70.065582453363959, 28.69772200120633 ], [ 70.080642453378005, 28.704584001212652 ], [ 70.0854414533826, 28.709944001217764 ], [ 70.074806453372503, 28.707527001215567 ], [ 70.06911445336732, 28.705194001213385 ], [ 70.060859453359626, 28.698723001207327 ], [ 70.026107453327313, 28.68580600119526 ], [ 70.014747453316659, 28.67791700118778 ], [ 70.010109453312225, 28.673973001184095 ], [ 70.00421945330686, 28.66547200117634 ], [ 70.010192453312357, 28.66738900117798 ], [ 70.029113453329956, 28.669083001179615 ] ], [ [ 69.981056453285191, 28.641333001153725 ], [ 69.976219453280692, 28.632278001145323 ], [ 69.970413453275341, 28.625528001139173 ], [ 69.969085453274147, 28.62133400113521 ], [ 69.972389453277174, 28.621166001134952 ], [ 69.984085453288117, 28.630083001143248 ], [ 70.004501453307057, 28.63952800115203 ], [ 70.012642453314584, 28.649250001161136 ], [ 70.012474453314553, 28.659889001170995 ], [ 70.009140453311375, 28.660278001171491 ], [ 69.981056453285191, 28.641333001153725 ] ], [ [ 69.936225453243424, 28.604610001119681 ], [ 69.931274453238984, 28.603500001118618 ], [ 69.913749453222636, 28.5913620011072 ], [ 69.910308453219386, 28.584833001101288 ], [ 69.912025453221077, 28.580889001097603 ], [ 69.924278453232318, 28.584806001101242 ], [ 69.937469453244603, 28.587084001103221 ], [ 69.944610453251244, 28.584444001100792 ], [ 69.948166453254544, 28.585138001101541 ], [ 69.952667453258755, 28.598333001113815 ], [ 69.950721453257074, 28.601250001116568 ], [ 69.942947453249872, 28.600111001115465 ], [ 69.936225453243424, 28.604610001119681 ] ], [ [ 69.924080453232136, 28.568111001085526 ], [ 69.940887453247797, 28.581472001098064 ], [ 69.936080453243449, 28.584972001101278 ], [ 69.932556453240068, 28.58388900110026 ], [ 69.916725453225354, 28.569666001087171 ], [ 69.907524453216865, 28.567667001085283 ], [ 69.907837453217098, 28.563305001081062 ], [ 69.917968453226422, 28.565083001082712 ], [ 69.924080453232136, 28.568111001085526 ] ], [ [ 69.831443453145994, 28.511278001032679 ], [ 69.829780453144394, 28.512722001034035 ], [ 69.821556453136736, 28.509056001030558 ], [ 69.81622345313167, 28.504194001026008 ], [ 69.816970453132399, 28.501888001023872 ], [ 69.821441453136686, 28.502777001024697 ], [ 69.831443453145994, 28.511278001032679 ] ], [ [ 69.381919452727288, 28.169805000714632 ], [ 69.377387452723042, 28.178749000722974 ], [ 69.373832452719853, 28.179527000723738 ], [ 69.36891945271509, 28.177778000722128 ], [ 69.363197452709755, 28.17058400071528 ], [ 69.348640452696372, 28.158194000703816 ], [ 69.341163452689216, 28.154306000700217 ], [ 69.330612452679588, 28.152861000698977 ], [ 69.309135452659575, 28.154167000699999 ], [ 69.300086452651158, 28.15816700070377 ], [ 69.295860452647048, 28.157055000702712 ], [ 69.296501452647817, 28.149973000696264 ], [ 69.308441452658826, 28.143278000689861 ], [ 69.319114452668828, 28.139917000686864 ], [ 69.384887452730027, 28.137945000685022 ], [ 69.396163452740439, 28.138971000685842 ], [ 69.395362452739846, 28.14397200069061 ], [ 69.385833452730822, 28.159471000705025 ], [ 69.381919452727288, 28.169805000714632 ] ], [ [ 69.27483345262749, 28.159611000705127 ], [ 69.281608452633918, 28.16202700070744 ], [ 69.278030452630446, 28.164055000709368 ], [ 69.260559452614189, 28.166195000711241 ], [ 69.247833452602436, 28.155777000701619 ], [ 69.245582452600274, 28.150944000697109 ], [ 69.246635452601367, 28.14655500069307 ], [ 69.25044245260483, 28.144138000690873 ], [ 69.27483345262749, 28.159611000705127 ] ], [ [ 69.148719452510022, 28.084167000634807 ], [ 69.145805452507375, 28.068445000620159 ], [ 69.141418452503331, 28.064388000616418 ], [ 69.136970452499099, 28.063250000615426 ], [ 69.115059452478818, 28.064306000616398 ], [ 69.088996452454467, 28.071112000622861 ], [ 69.079109452445209, 28.071138000622796 ], [ 69.064697452431801, 28.063749000615871 ], [ 69.057777452425398, 28.05755600061002 ], [ 69.050224452418433, 28.047666000600884 ], [ 69.09285745245802, 28.048611000601795 ], [ 69.100441452465247, 28.046249000599573 ], [ 69.107528452471797, 28.035110000589157 ], [ 69.110641452474738, 28.032862000587102 ], [ 69.11799645248152, 28.030722000585229 ], [ 69.12767045249052, 28.030056000584409 ], [ 69.13610845249832, 28.031694000585958 ], [ 69.140586452502475, 28.030945000585234 ], [ 69.147529452508934, 28.035667000589683 ], [ 69.162307452522782, 28.057888000610546 ], [ 69.173835452533467, 28.068333000620214 ], [ 69.184974452543884, 28.075222000626582 ], [ 69.19752545255551, 28.080694000631638 ], [ 69.2013324525592, 28.080139000631107 ], [ 69.210670452567911, 28.073416000625002 ], [ 69.245780452600457, 28.071972000623646 ], [ 69.262413452615874, 28.074972000626303 ], [ 69.269531452622687, 28.083666000634366 ], [ 69.265357452618673, 28.090084000640445 ], [ 69.252113452606409, 28.103001000652512 ], [ 69.247413452601904, 28.112305000661081 ], [ 69.246391452601074, 28.12672200067459 ], [ 69.247413452601904, 28.133194000680533 ], [ 69.244720452599495, 28.137556000684526 ], [ 69.241386452596316, 28.138945000685908 ], [ 69.228668452584543, 28.1391390006861 ], [ 69.205802452563375, 28.129723000677359 ], [ 69.197586452555697, 28.128334000675977 ], [ 69.186248452544987, 28.129360000677025 ], [ 69.183136452542158, 28.131195000678645 ], [ 69.181663452540761, 28.134500000681783 ], [ 69.161277452521745, 28.130138000677789 ], [ 69.158584452519335, 28.126917000674666 ], [ 69.157218452518009, 28.120861000669038 ], [ 69.156723452517554, 28.12011100066843 ], [ 69.161415452521851, 28.104250000653565 ], [ 69.148719452510022, 28.084167000634807 ] ], [ [ 69.139526452501514, 28.075222000626582 ], [ 69.145194452506757, 28.083666000634366 ], [ 69.145553452507102, 28.087862000638324 ], [ 69.142608452504419, 28.087917000638299 ], [ 69.138191452500223, 28.081667000632478 ], [ 69.130554452493243, 28.076084000627361 ], [ 69.126663452489538, 28.07077800062234 ], [ 69.127891452490758, 28.068945000620715 ], [ 69.132110452494544, 28.069639000621464 ], [ 69.139526452501514, 28.075222000626582 ] ] ], [ [ [ 70.662139453919508, 29.471527001926916 ], [ 70.653221453911328, 29.481695001936487 ], [ 70.650749453908929, 29.488138001942389 ], [ 70.645919453904526, 29.49522200194906 ], [ 70.643196453901965, 29.503555001956784 ], [ 70.642913453901656, 29.508751001961627 ], [ 70.647109453905614, 29.518194001970414 ], [ 70.645500453904106, 29.527695001979282 ], [ 70.641166453900041, 29.539444001990205 ], [ 70.64583545390451, 29.548666001998754 ], [ 70.6640625, 29.553601026032048 ], [ 70.6640625, 29.54497373574122 ], [ 70.654220453912103, 29.543501001993945 ], [ 70.649475453907826, 29.544306001994755 ], [ 70.646858453905452, 29.542833001993358 ], [ 70.646385453904941, 29.539888001990676 ], [ 70.650528453908692, 29.532833001984045 ], [ 70.651359453909436, 29.521778001973871 ], [ 70.650497453908656, 29.514029001966492 ], [ 70.647697453906176, 29.508806001961602 ], [ 70.651359453909436, 29.497972001951666 ], [ 70.655670453913672, 29.497999001951712 ], [ 70.663696453921148, 29.505777001958904 ], [ 70.6640625, 29.506023926910842 ], [ 70.6640625, 29.498431604397155 ], [ 70.659721453917427, 29.497833001951449 ], [ 70.655944453913889, 29.494249001948219 ], [ 70.655746453913707, 29.48944500194375 ], [ 70.657974453915813, 29.483000001937626 ], [ 70.6640625, 29.477429549810228 ], [ 70.6640625, 29.469875242836284 ], [ 70.662139453919508, 29.471527001926916 ] ] ], [ [ [ 70.662498453919852, 29.576334002024623 ], [ 70.66046945391804, 29.58177800202975 ], [ 70.658554453916167, 29.586971002034488 ], [ 70.657249453915028, 29.598639002045275 ], [ 70.658332453916046, 29.607834002054005 ], [ 70.6640625, 29.617091400899156 ], [ 70.6640625, 29.573454645347933 ], [ 70.662498453919852, 29.576334002024623 ] ] ], [ [ [ 70.656280453914178, 29.644362002087973 ], [ 70.655250453913141, 29.651861002094847 ], [ 70.6640625, 29.66738178068135 ], [ 70.6640625, 29.653930810676929 ], [ 70.661972453919361, 29.650444002093536 ], [ 70.663444453920874, 29.645445002088991 ], [ 70.6640625, 29.64497806085723 ], [ 70.6640625, 29.63725811774248 ], [ 70.656280453914178, 29.644362002087973 ] ] ] ] } },
{ "type": "Feature", "properties": { "NAME": "INDUS", "HYC_DESCRI": "Perennial/Permanent" }, "geometry": { "type": "Polygon", "coordinates": [ [ [ 68.458526451867328, 27.667334000246683 ], [ 68.446136451855864, 27.673945000252843 ], [ 68.441413451851304, 27.674028000252974 ], [ 68.428192451839095, 27.654278000234626 ], [ 68.424141451835339, 27.641001000222104 ], [ 68.420333451831766, 27.635279000216769 ], [ 68.417198451828881, 27.645639000226538 ], [ 68.421524451832738, 27.657250000237354 ], [ 68.434165451844592, 27.673861000252828 ], [ 68.440551451850524, 27.679445000258056 ], [ 68.445472451855039, 27.679777000258355 ], [ 68.45158345186087, 27.679695000258107 ], [ 68.45610845186502, 27.677111000255763 ], [ 68.463218451871626, 27.667028000246319 ], [ 68.458526451867328, 27.667334000246683 ] ] ] } },
{ "type": "Feature", "properties": { "NAME": "INDUS", "HYC_DESCRI": "Perennial/Permanent" }, "geometry": { "type": "Polygon", "coordinates": [ [ [ 68.414665451826522, 27.598555000182614 ], [ 68.409637451821709, 27.594055000178514 ], [ 68.404083451816632, 27.592251000176702 ], [ 68.394722451807866, 27.591389000175923 ], [ 68.38410945179794, 27.59344500017778 ], [ 68.362968451778215, 27.602112000186025 ], [ 68.353752451769651, 27.604389000188121 ], [ 68.348388451764777, 27.604055000187827 ], [ 68.343780451760495, 27.601417000185393 ], [ 68.338333451755261, 27.595222000179547 ], [ 68.33327445175064, 27.584639000169773 ], [ 68.328086451745776, 27.563612000150215 ], [ 68.325416451743422, 27.558750000145665 ], [ 68.319885451738173, 27.555695000142805 ], [ 68.319053451737318, 27.559834000146566 ], [ 68.324691451742638, 27.581499000166787 ], [ 68.329109451746717, 27.590805000175351 ], [ 68.338554451755499, 27.60297200018681 ], [ 68.344497451761072, 27.608139000191613 ], [ 68.34955645176592, 27.610972000194124 ], [ 68.35541545177125, 27.611111000194342 ], [ 68.36846945178354, 27.606417000190049 ], [ 68.38491845179874, 27.605362000188961 ], [ 68.395332451808372, 27.602278000186061 ], [ 68.408721451820838, 27.601555000185499 ], [ 68.411720451823612, 27.602888000186795 ], [ 68.418586451830151, 27.615805000198634 ], [ 68.424056451835213, 27.617083000199955 ], [ 68.42338545183452, 27.612583000195627 ], [ 68.414665451826522, 27.598555000182614 ] ] ] } },
{ "type": "Feature", "properties": { "NAME": "INDUS", "HYC_DESCRI": "Perennial/Permanent" }, "geometry": { "type": "Polygon", "coordinates": [ [ [ 68.305725451725039, 27.551556000138817 ], [ 68.302719451722169, 27.550444000137759 ], [ 68.283058451703937, 27.550167000137662 ], [ 68.272941451694578, 27.543833000131599 ], [ 68.26799745168978, 27.544332000132044 ], [ 68.269889451691597, 27.550861000138184 ], [ 68.275665451697023, 27.553722000140851 ], [ 68.281501451702525, 27.554722000141737 ], [ 68.306137451725363, 27.55324900014034 ], [ 68.305725451725039, 27.551556000138817 ] ] ] } },
{ "type": "Feature", "properties": { "NAME": "INDUS", "HYC_DESCRI": "Perennial/Permanent" }, "geometry": { "type": "Polygon", "coordinates": [ [ [ 68.273025451694593, 27.511444000101619 ], [ 68.27058445169223, 27.515167000105066 ], [ 68.27461245169593, 27.521110000110411 ], [ 68.296524451716323, 27.509972000100106 ], [ 68.301834451721334, 27.50508300009551 ], [ 68.304801451724188, 27.499500000090393 ], [ 68.302558451722007, 27.496944000087979 ], [ 68.273025451694593, 27.511444000101619 ] ] ] } },
{ "type": "Feature", "properties": { "NAME": "INDUS", "HYC_DESCRI": "Perennial/Permanent" }, "geometry": { "type": "Polygon", "coordinates": [ [ [ 68.247390451670753, 27.261277999868526 ], [ 68.239364451663278, 27.264415999871517 ], [ 68.230224451654749, 27.272332999878927 ], [ 68.232192451656601, 27.275527999881888 ], [ 68.236915451660934, 27.274804999881098 ], [ 68.24886345167215, 27.266749999873582 ], [ 68.251586451674484, 27.261582999868779 ], [ 68.247390451670753, 27.261277999868526 ] ] ] } },
{ "type": "Feature", "properties": { "NAME": "INDUS", "HYC_DESCRI": "Perennial/Permanent" }, "geometry": { "type": "Polygon", "coordinates": [ [ [ 68.052085451488892, 27.004722999629621 ], [ 68.042114451479392, 27.003194999628249 ], [ 68.02766445146608, 27.002805999627753 ], [ 68.018974451458007, 27.004443999629302 ], [ 68.013885451453234, 27.003470999628462 ], [ 68.007247451447029, 26.999944999625086 ], [ 68.001808451442002, 26.995000999620515 ], [ 67.997413451437751, 26.9873329996135 ], [ 67.987968451428969, 26.977055999603863 ], [ 67.976364451418249, 26.955638999583925 ], [ 67.972168451414291, 26.948609999577229 ], [ 67.967720451410287, 26.949332999578019 ], [ 67.976303451418289, 26.963777999591457 ], [ 67.978141451420015, 26.971776999598887 ], [ 67.991638451432436, 26.992610999618364 ], [ 68.003166451443121, 27.002971999628016 ], [ 68.012802451452217, 27.007832999632456 ], [ 68.038970451476644, 27.006444999631185 ], [ 68.053085451489778, 27.009360999633827 ], [ 68.056198451492719, 27.006915999631701 ], [ 68.052085451488892, 27.004722999629621 ] ] ] } },
{ "type": "Feature", "properties": { "NAME": "INDUS", "HYC_DESCRI": "Perennial/Permanent" }, "geometry": { "type": "Polygon", "coordinates": [ [ [ 67.902420451349371, 26.930360999560435 ], [ 67.906135451352839, 26.924193999554518 ], [ 67.909141451355708, 26.918221999549132 ], [ 67.908279451354929, 26.916305999547149 ], [ 67.905944451352752, 26.916444999547366 ], [ 67.900749451347792, 26.918611999549512 ], [ 67.900474451347691, 26.91316599954439 ], [ 67.902275451349169, 26.907777999539348 ], [ 67.911087451357389, 26.896527999528871 ], [ 67.911026451357429, 26.891721999524407 ], [ 67.908447451354959, 26.891860999524397 ], [ 67.899025451346233, 26.901221999533163 ], [ 67.892891451340574, 26.936137999565744 ], [ 67.895385451342918, 26.951278999579927 ], [ 67.898696451346041, 26.957221999585272 ], [ 67.90499845135173, 26.96302799959085 ], [ 67.913780451360026, 26.965777999593229 ], [ 67.920135451365923, 26.963887999591634 ], [ 67.938858451383339, 26.948527999577209 ], [ 67.948364451392081, 26.943360999572405 ], [ 67.946304451390233, 26.941609999570801 ], [ 67.935752451380495, 26.943416999572491 ], [ 67.911750451358103, 26.95652799958475 ], [ 67.905220451352079, 26.956361999584487 ], [ 67.902526451349559, 26.953971999582336 ], [ 67.901611451348572, 26.939944999569207 ], [ 67.902420451349371, 26.930360999560435 ] ] ] } },
{ "type": "Feature", "properties": { "NAME": "INDUS", "HYC_DESCRI": "Perennial/Permanent" }, "geometry": { "type": "Polygon", "coordinates": [ [ [ 67.886917451334966, 26.618527999269872 ], [ 67.89338645134103, 26.613082999264861 ], [ 67.904335451351244, 26.599166999251793 ], [ 67.913528451359753, 26.576026999230407 ], [ 67.925552451371004, 26.556943999212535 ], [ 67.936553451381087, 26.54805599920428 ], [ 67.940528451384807, 26.541055999197852 ], [ 67.936973451381618, 26.529887999187395 ], [ 67.928169451373378, 26.516276999174806 ], [ 67.916168451362182, 26.507583999166627 ], [ 67.911163451357424, 26.49738899915701 ], [ 67.910278451356817, 26.489638999149975 ], [ 67.910804451357308, 26.481721999142565 ], [ 67.925834451371202, 26.450166999113208 ], [ 67.925720451371035, 26.446610999109907 ], [ 67.920913451366687, 26.437915999101733 ], [ 67.890113451338038, 26.410277999076015 ], [ 67.883110451331504, 26.397971999064566 ], [ 67.882415451330871, 26.391889999058776 ], [ 67.883583451331788, 26.38502699905257 ], [ 67.887611451335715, 26.375749999043819 ], [ 67.899917451347164, 26.362304999031267 ], [ 67.902114451349007, 26.352971999022657 ], [ 67.901970451348916, 26.343139999013374 ], [ 67.906417451353036, 26.329249999000467 ], [ 67.91236145135872, 26.324416998995957 ], [ 67.93577545138055, 26.31797199899006 ], [ 67.94147445138583, 26.314166998986366 ], [ 67.943168451387237, 26.305221998978141 ], [ 67.938804451383248, 26.297166998970624 ], [ 67.919280451365012, 26.273221998948429 ], [ 67.91858645136449, 26.266305998941789 ], [ 67.920059451365887, 26.257554998933756 ], [ 67.925445451370933, 26.248527998925283 ], [ 67.934249451378946, 26.242276998919579 ], [ 67.94783045139161, 26.244555998921669 ], [ 67.976776451418573, 26.244111998921198 ], [ 67.986915451428104, 26.239388998916866 ], [ 68.011665451451108, 26.219583998898315 ], [ 68.03089145146896, 26.21322199889255 ], [ 68.03433245147221, 26.206832998886512 ], [ 68.031723451469816, 26.201749998881724 ], [ 68.011390451450779, 26.214776998893967 ], [ 67.985946451427253, 26.233693998911576 ], [ 67.98005645142166, 26.236472998913996 ], [ 67.967888451410317, 26.240304998917736 ], [ 67.932998451377898, 26.238082998915615 ], [ 67.919776451365578, 26.245221998922261 ], [ 67.915168451361296, 26.251138998927672 ], [ 67.911697451358123, 26.264415998940194 ], [ 67.912246451358442, 26.274693998949715 ], [ 67.91461145136077, 26.280610998955126 ], [ 67.934997451379786, 26.299777998973013 ], [ 67.938697451383177, 26.307610998980408 ], [ 67.937637451382216, 26.311137998983668 ], [ 67.934524451379275, 26.313748998986057 ], [ 67.920974451366646, 26.316916998988972 ], [ 67.912498451358715, 26.320443998992232 ], [ 67.903915451350713, 26.32730499899867 ], [ 67.898498451345631, 26.336554999007376 ], [ 67.894332451341825, 26.362555999031429 ], [ 67.885246451333387, 26.370860999039223 ], [ 67.880302451328816, 26.3794989990472 ], [ 67.878196451326858, 26.392610999059571 ], [ 67.877998451326675, 26.398665999065088 ], [ 67.881385451329834, 26.4071099990731 ], [ 67.887359451335442, 26.416055999081436 ], [ 67.901084451348197, 26.428166999092582 ], [ 67.91425345136031, 26.442527999106005 ], [ 67.916420451362455, 26.446776999109943 ], [ 67.916191451362238, 26.453027999115875 ], [ 67.905166451351988, 26.483443999144129 ], [ 67.904197451351138, 26.491555999151615 ], [ 67.905975451352788, 26.500388999159895 ], [ 67.908996451355506, 26.506526999165544 ], [ 67.915252451361312, 26.513804999172407 ], [ 67.919334451365103, 26.522693999180774 ], [ 67.923751451369299, 26.522832999180764 ], [ 67.93277745137766, 26.537082999194126 ], [ 67.932891451377827, 26.540416999197078 ], [ 67.921363451367142, 26.551166999207226 ], [ 67.898246451345585, 26.581027999234948 ], [ 67.897697451345039, 26.583304999237043 ], [ 67.901664451348779, 26.589082999242464 ], [ 67.898750451345904, 26.599444999252228 ], [ 67.894332451341825, 26.606000999258185 ], [ 67.867446451316937, 26.620832999272125 ], [ 67.860641451310585, 26.626138999276918 ], [ 67.858802451308748, 26.631944999282496 ], [ 67.858696451308788, 26.641137999291004 ], [ 67.861053451310909, 26.646638999296101 ], [ 67.869613451318855, 26.654611999303597 ], [ 67.87980645132825, 26.66827799931616 ], [ 67.88280445133114, 26.675666999323084 ], [ 67.884666451332805, 26.6826379993297 ], [ 67.88366745133203, 26.6911659993375 ], [ 67.889808451337558, 26.734387999377759 ], [ 67.892913451340519, 26.731971999375673 ], [ 67.895080451342665, 26.72283399936714 ], [ 67.892944451340554, 26.697915999343877 ], [ 67.888473451336495, 26.679610999326769 ], [ 67.876052451324767, 26.656472999305151 ], [ 67.866165451315737, 26.646582999296015 ], [ 67.861915451311688, 26.635388999285624 ], [ 67.863281451313014, 26.629971999280542 ], [ 67.867614451316967, 26.626138999276918 ], [ 67.886917451334966, 26.618527999269872 ] ] ] } },
{ "type": "Feature", "properties": { "NAME": "INDUS", "HYC_DESCRI": "Perennial/Permanent" }, "geometry": { "type": "Polygon", "coordinates": [ [ [ 68.130058451561354, 26.119166998804758 ], [ 68.128646856286665, 26.115985925333522 ], [ 68.120729074567024, 26.115985925333522 ], [ 68.12088745155279, 26.116832998802693 ], [ 68.126525451558109, 26.13516599881973 ], [ 68.126167451557876, 26.139138998823455 ], [ 68.122085451554085, 26.143416998827433 ], [ 68.116218451548548, 26.146165998829929 ], [ 68.10314145153643, 26.149388998833047 ], [ 68.090194451524212, 26.156138998839197 ], [ 68.079025451513871, 26.158332998841388 ], [ 68.066719451502422, 26.165944998848317 ], [ 68.052276451488979, 26.168887998851233 ], [ 68.021164451459981, 26.179110998860779 ], [ 68.017112451456114, 26.182137998863482 ], [ 68.015609451454793, 26.185637998866696 ], [ 68.01750145145661, 26.191333998872096 ], [ 68.019805451458751, 26.191388998872071 ], [ 68.022834451461449, 26.183970998865107 ], [ 68.027442451465731, 26.180388998861872 ], [ 68.054885451491373, 26.173972998855788 ], [ 68.071998451507397, 26.167748998850129 ], [ 68.089691451523777, 26.164248998846915 ], [ 68.100280451533763, 26.159526998842466 ], [ 68.117469451549596, 26.150166998833811 ], [ 68.124473451556241, 26.148276998831989 ], [ 68.130195451561576, 26.143193998827201 ], [ 68.132003451563151, 26.137193998821658 ], [ 68.130058451561354, 26.119166998804758 ] ] ] } }
]
}
