{
"type": "FeatureCollection",
"name": "provinces",
"crs": { "type": "name", "properties": { "name": "urn:ogc:def:crs:OGC:1.3:CRS84" } },
"features": [
{ "type": "Feature", "properties": { "adm1_name": "Balochistan", "adm1_pcode": "PK2", "is_sindh": false }, "geometry": { "type": "Polygon", "coordinates": [ [ [ 69.852546691999976, 32.093612671000017 ], [ 69.840660094999976, 32.082069397 ], [ 69.817459106, 32.03669357299998 ], [ 69.799980163999976, 32.024158478 ], [ 69.826469421000013, 32.003677368000012 ], [ 69.880523681999989, 31.981708527000023 ], [ 69.882797241, 31.978218078999987 ], [ 69.881362915000011, 31.969610214 ], [ 69.868499756, 31.942140579000011 ], [ 69.853317260999972, 31.924848557000018 ], [ 69.854698181, 31.893640517999984 ], [ 69.867195128999981, 31.89169311500001 ], [ 69.882575988999974, 31.884140015000014 ], [ 69.898986816, 31.888376236 ], [ 69.931938171000013, 31.929330826000012 ], [ 69.945716858000026, 31.936094283999978 ], [ 69.963287353999988, 31.93682289100002 ], [ 69.963401794, 31.920578003 ], [ 69.954299927000022, 31.886447906 ], [ 69.95703125, 31.870855330999973 ], [ 69.939971924000019, 31.853563308999981 ], [ 69.938934325999981, 31.843406677000019 ], [ 69.945236206, 31.798847197999976 ], [ 69.949020385999972, 31.791858672999979 ], [ 69.957656859999986, 31.784259796000015 ], [ 69.955856322999978, 31.775650024000015 ], [ 69.948432922, 31.770196914999985 ], [ 69.946617125999978, 31.762861252 ], [ 69.95136261, 31.725936890000014 ], [ 69.949508666999975, 31.673992156999986 ], [ 69.9453125, 31.636384964 ], [ 69.943656921000013, 31.566328049 ], [ 69.939674377000017, 31.551017761000026 ], [ 69.939712524000015, 31.545602798 ], [ 69.947257996000019, 31.531948090000014 ], [ 69.965240478999988, 31.516433716 ], [ 70.009918213, 31.512836456 ], [ 70.015136719, 31.511587142999986 ], [ 70.018135071000017, 31.508098602000018 ], [ 70.04385376, 31.442285538000021 ], [ 70.053085327000019, 31.395511627000019 ], [ 70.057144165000011, 31.38957977299998 ], [ 70.069396972999982, 31.38772392300001 ], [ 70.077560425, 31.392452240000011 ], [ 70.081054687, 31.407262802 ], [ 70.095046997, 31.412441253999987 ], [ 70.097366333000025, 31.416099547999977 ], [ 70.095802306999985, 31.449081421000017 ], [ 70.113845825, 31.446680069000024 ], [ 70.118408203, 31.434114455999975 ], [ 70.124702453999987, 31.428333281999983 ], [ 70.131248474000017, 31.428758620999986 ], [ 70.136627197, 31.436054230000025 ], [ 70.149589538999976, 31.433799744 ], [ 70.154296875, 31.442358017 ], [ 70.174011230000019, 31.445489883 ], [ 70.192405700999984, 31.46916580200002 ], [ 70.203613281, 31.476902008000025 ], [ 70.223571777000018, 31.48561096200001 ], [ 70.245590209999989, 31.508546829000011 ], [ 70.260787963999974, 31.507455826000012 ], [ 70.262107849000017, 31.504306793000012 ], [ 70.267494202000023, 31.460018158000025 ], [ 70.27645874000001, 31.431774139000026 ], [ 70.278625487999989, 31.397527695 ], [ 70.266342163, 31.326622009 ], [ 70.267860413, 31.276861191000023 ], [ 70.271797180000021, 31.250017166000021 ], [ 70.270065308000028, 31.243236541999977 ], [ 70.258850097999982, 31.234886169 ], [ 70.257118225, 31.228103638 ], [ 70.257659912, 31.223737717 ], [ 70.270248413, 31.213401794 ], [ 70.268463135, 31.206596375 ], [ 70.262481689000026, 31.201124191000019 ], [ 70.267372131, 31.188756942999987 ], [ 70.292739868000012, 31.159461975 ], [ 70.294784546000017, 31.104860305999978 ], [ 70.294380188, 31.095235824999975 ], [ 70.287635803, 31.069587707999972 ], [ 70.269973755000024, 31.040258408 ], [ 70.268371581999986, 31.033845901 ], [ 70.264663696000014, 30.99993515 ], [ 70.263763428, 30.925287247000028 ], [ 70.252555847, 30.882833480999977 ], [ 70.255584716999977, 30.872381210000015 ], [ 70.267341097999974, 30.867497555999989 ], [ 70.270698547, 30.859985352000024 ], [ 70.267166138, 30.84528923 ], [ 70.26435852100002, 30.843700409 ], [ 70.226799011000026, 30.843111038000018 ], [ 70.223983765000014, 30.84045028700001 ], [ 70.215766906999988, 30.790206909 ], [ 70.20980835, 30.781408310000018 ], [ 70.201095581, 30.777709961000028 ], [ 70.168190002000017, 30.774669647 ], [ 70.16318511999998, 30.768274307000013 ], [ 70.159919738999974, 30.743406295999989 ], [ 70.156158447, 30.737272263000023 ], [ 70.141265869, 30.735740662000012 ], [ 70.115631103999988, 30.739379883000026 ], [ 70.108802794999974, 30.73780632 ], [ 70.10349327, 30.732211591 ], [ 70.098388672, 30.707620621 ], [ 70.088722228999984, 30.697496414 ], [ 70.087051391999978, 30.677436828999987 ], [ 70.092216491999977, 30.660558701000014 ], [ 70.09482574499998, 30.628730774000019 ], [ 70.085632324000017, 30.592920303000028 ], [ 70.038940430000025, 30.49548912 ], [ 70.001945496000019, 30.456573486000025 ], [ 69.996490478999988, 30.436538696000014 ], [ 69.996612549000019, 30.398284912 ], [ 69.99344635, 30.381175994999978 ], [ 69.96912384, 30.333406448 ], [ 69.96117024900002, 30.322636412 ], [ 69.959121703999983, 30.304552077999972 ], [ 69.959091187000013, 30.297863006999989 ], [ 69.96308136, 30.293035507000013 ], [ 69.966468811000027, 30.292488097999978 ], [ 69.977928162000012, 30.301277160999973 ], [ 69.983177184999988, 30.302328110000019 ], [ 69.984092712, 30.299917220999987 ], [ 69.981849669999974, 30.282804489 ], [ 69.971321106, 30.262559891000024 ], [ 69.972824097, 30.25345993000002 ], [ 69.978057861000025, 30.251033783000025 ], [ 69.987625122, 30.253408432000015 ], [ 70.003456116, 30.273410797 ], [ 70.012420653999982, 30.277389525999979 ], [ 70.059921265000014, 30.275060654000015 ], [ 70.072342735, 30.271277818999977 ], [ 70.076202393000017, 30.262418747000027 ], [ 70.047630309999988, 30.226694107000014 ], [ 70.024169922, 30.221973419 ], [ 70.020759582999972, 30.219312667999986 ], [ 70.017341613999974, 30.212905884 ], [ 70.015060425, 30.189910888999975 ], [ 70.002716064000026, 30.185678482000014 ], [ 69.997131347999982, 30.179012299000021 ], [ 69.994277953999983, 30.162479400999985 ], [ 69.985542297, 30.13950920100001 ], [ 69.984840393000013, 30.121322631999988 ], [ 69.98754119900002, 30.106067656999983 ], [ 69.985313416, 30.091632843000014 ], [ 69.979660034, 30.076745986999981 ], [ 69.962310791, 30.053001403999986 ], [ 69.94657135, 30.042890549 ], [ 69.940696716, 30.035957336000024 ], [ 69.922470093000015, 30.001712799000018 ], [ 69.911018372, 29.962451935 ], [ 69.892509459999985, 29.914806366 ], [ 69.855957031, 29.876155853 ], [ 69.835800171000017, 29.861467361 ], [ 69.811828612999989, 29.810251236 ], [ 69.789001465000013, 29.768806457999972 ], [ 69.775360106999983, 29.762292861999981 ], [ 69.753395081, 29.745628356999987 ], [ 69.732582091999973, 29.718872069999975 ], [ 69.722099303999983, 29.714210509999987 ], [ 69.696876525999983, 29.710363388000019 ], [ 69.690620422, 29.703893661 ], [ 69.666481018000013, 29.697294235000015 ], [ 69.64600486400002, 29.685261105999984 ], [ 69.628898751, 29.668724683999983 ], [ 69.625862122, 29.655687332000014 ], [ 69.618659972999978, 29.640029906999985 ], [ 69.596626281999988, 29.635267258 ], [ 69.591468811000027, 29.626049041999977 ], [ 69.592597961000024, 29.618715286 ], [ 69.600059509, 29.608680725 ], [ 69.603332519999981, 29.596775055000023 ], [ 69.597709656, 29.564357758000028 ], [ 69.598052978999988, 29.531063080000024 ], [ 69.591835022, 29.503913878999981 ], [ 69.574394225999981, 29.483877182000015 ], [ 69.565750122, 29.467157364 ], [ 69.563514709, 29.458612442 ], [ 69.562492371000019, 29.42449760400001 ], [ 69.564514159999987, 29.409086226999989 ], [ 69.571533203, 29.403865814000028 ], [ 69.576629638999975, 29.404312134 ], [ 69.584030150999979, 29.407215118000011 ], [ 69.605667114000028, 29.424034119 ], [ 69.614959716999977, 29.423295974999974 ], [ 69.627578734999986, 29.414867400999981 ], [ 69.652526855000019, 29.389142989999982 ], [ 69.659745096999984, 29.378871530000026 ], [ 69.669090271000016, 29.355567931999985 ], [ 69.666366577000019, 29.349456787 ], [ 69.642021178999983, 29.325321197999983 ], [ 69.638832091999973, 29.319206238 ], [ 69.640304565, 29.311098099 ], [ 69.644035339000027, 29.308691024999973 ], [ 69.662117003999981, 29.308826447 ], [ 69.671424866, 29.305242538000016 ], [ 69.682228087999988, 29.291110991999972 ], [ 69.682472228999984, 29.265130997000028 ], [ 69.686706543000014, 29.258666991999974 ], [ 69.698745728, 29.259565353000028 ], [ 69.736473083000021, 29.29027557400002 ], [ 69.745697021000012, 29.29520988500002 ], [ 69.758178711000028, 29.299354553 ], [ 69.766540527000018, 29.297784805 ], [ 69.768974303999983, 29.284404755000025 ], [ 69.767173766999974, 29.277490616000023 ], [ 69.744018555000025, 29.236421585000016 ], [ 69.743385315000012, 29.203128815000014 ], [ 69.752334594999979, 29.185733794999976 ], [ 69.751914978, 29.180454253999983 ], [ 69.750122069999975, 29.173946381 ], [ 69.712684631, 29.115642547999983 ], [ 69.706306457999972, 29.089658736999979 ], [ 69.685600281, 29.078550339 ], [ 69.664840697999978, 29.072715759 ], [ 69.650573730000019, 29.065708159999986 ], [ 69.634155272999976, 29.042446136000024 ], [ 69.613571166999975, 29.02036857600001 ], [ 69.608901391000018, 29.011509096999987 ], [ 69.593963622999979, 28.994235991999972 ], [ 69.581199646000016, 28.960124969 ], [ 69.574340819999975, 28.953979491999974 ], [ 69.555419922, 28.951795577999974 ], [ 69.552215575999981, 28.949333191 ], [ 69.541816711000024, 28.928546906 ], [ 69.500083922999977, 28.903022766 ], [ 69.489601134999987, 28.891567230000021 ], [ 69.487609862999989, 28.863952637000011 ], [ 69.483078003, 28.85660743699998 ], [ 69.484603881999988, 28.844446182000013 ], [ 69.490653991999977, 28.840036392 ], [ 69.511917114000028, 28.836570740000013 ], [ 69.525413513, 28.825729369999976 ], [ 69.53767395, 28.801134108999975 ], [ 69.532913208000025, 28.773094177000019 ], [ 69.484398509000016, 28.701897549000023 ], [ 69.469276428, 28.673599243000012 ], [ 69.420921325999984, 28.597682953 ], [ 69.411346435999974, 28.590288161999979 ], [ 69.357757568000011, 28.571100235000017 ], [ 69.324691772, 28.554906845 ], [ 69.321937561000027, 28.549612045 ], [ 69.321319580000022, 28.543546677 ], [ 69.338409424000019, 28.512151717999984 ], [ 69.353248596000014, 28.466457366999975 ], [ 69.363761902000022, 28.445636749000016 ], [ 69.215110778999986, 28.444622040000013 ], [ 69.001289368000016, 28.431215286 ], [ 68.929489135999972, 28.429452895999987 ], [ 68.884460449000017, 28.432003021000014 ], [ 68.757148743000016, 28.429811477999976 ], [ 68.467102050999983, 28.431179047 ], [ 68.405227661000026, 28.387615203999985 ], [ 68.359123230000023, 28.291027069 ], [ 68.353439331, 28.284820556999989 ], [ 68.208999634, 28.242517470999985 ], [ 68.017784119, 28.092046738000022 ], [ 67.964424133000023, 28.069597244000022 ], [ 67.942863464000027, 28.043773650999981 ], [ 67.912963581999975, 27.994295018 ], [ 67.877250671000013, 28.000171661000024 ], [ 67.866394043000014, 27.998390197999981 ], [ 67.854759216, 27.991214752000019 ], [ 67.812385559, 27.985469818000013 ], [ 67.794372400999976, 27.976157949000026 ], [ 67.790435791, 27.968154906999985 ], [ 67.788574219, 27.951616286999979 ], [ 67.774887084999989, 27.943298340000013 ], [ 67.76083374000001, 27.945739746000015 ], [ 67.656730652000022, 27.932664870999986 ], [ 67.594688416, 27.922128676999989 ], [ 67.568260193000015, 27.914457320999986 ], [ 67.5493927, 27.901523590000011 ], [ 67.533203125, 27.906774520999988 ], [ 67.419967650999979, 27.892740249999974 ], [ 67.416183472, 27.895126343000015 ], [ 67.409141541, 27.908033370999988 ], [ 67.394241333000025, 27.909675597999978 ], [ 67.392745972, 27.889986038000018 ], [ 67.384857178, 27.864868163999972 ], [ 67.36045074499998, 27.815334319999977 ], [ 67.354705810999974, 27.795917511000027 ], [ 67.357048035, 27.768003464 ], [ 67.35153961200001, 27.749166489 ], [ 67.337394714000027, 27.725448608000022 ], [ 67.309921265000014, 27.69893837 ], [ 67.269897461000028, 27.67172431900002 ], [ 67.254211425999983, 27.658462524000015 ], [ 67.248725891, 27.647994994999976 ], [ 67.236114502000021, 27.594432831 ], [ 67.2290802, 27.57489585899998 ], [ 67.220466613999974, 27.563030243000014 ], [ 67.186790466, 27.539981841999975 ], [ 67.182884216, 27.532304764 ], [ 67.175163155, 27.447196911 ], [ 67.161117553999986, 27.354455948 ], [ 67.136924744, 27.327226639 ], [ 67.129913330000022, 27.313966751 ], [ 67.126037597999982, 27.29582977299998 ], [ 67.126861572, 27.270029067999985 ], [ 67.151885986000025, 27.155887603999986 ], [ 67.160606384, 27.065963744999976 ], [ 67.138893127000017, 26.996227264000026 ], [ 67.138908386000026, 26.984376907000012 ], [ 67.145965575999981, 26.95636272500002 ], [ 67.139282227000024, 26.946203232000016 ], [ 67.137268066, 26.938493729000015 ], [ 67.133381714999985, 26.940352421 ], [ 67.133766174000016, 26.878032684 ], [ 67.146553040000015, 26.768428802000017 ], [ 67.144599915000015, 26.762552261 ], [ 67.126472472999978, 26.738306046 ], [ 67.126495361000025, 26.719667435000019 ], [ 67.133079528999986, 26.66324806199998 ], [ 67.123787516, 26.653095716 ], [ 67.15107727100002, 26.546045303000028 ], [ 67.177581787, 26.471496581999986 ], [ 67.18964386, 26.457298278999986 ], [ 67.203704834, 26.445985794000023 ], [ 67.213745116999974, 26.428316116000019 ], [ 67.225158691, 26.41470909100002 ], [ 67.265556334999985, 26.346961975 ], [ 67.340451645229777, 26.2 ], [ 66.09, 26.2 ], [ 66.09, 29.807200350013968 ], [ 66.230590354000014, 29.846709571000019 ], [ 66.253968000999976, 29.85565463 ], [ 66.269821590999982, 29.874949382000011 ], [ 66.313194667, 29.910896615000013 ], [ 66.31890832, 29.91270419 ], [ 66.330190941000012, 29.925031255000022 ], [ 66.345641801, 29.95012785199998 ], [ 66.356855871, 29.958316578999984 ], [ 66.361947223000016, 29.968132573999981 ], [ 66.358758169999987, 29.974448468999981 ], [ 66.241653811999981, 30.055052257 ], [ 66.238219195999989, 30.066407116999983 ], [ 66.238441841, 30.084087694 ], [ 66.257255284999985, 30.110683866999977 ], [ 66.260087451, 30.129143699 ], [ 66.284309842000027, 30.158906005 ], [ 66.287711716, 30.170958265000024 ], [ 66.28694228400002, 30.187456863000023 ], [ 66.301384696000014, 30.21779214999998 ], [ 66.310408339, 30.228204045999973 ], [ 66.31660309, 30.24287565100002 ], [ 66.320456800999978, 30.279494092 ], [ 66.332459948, 30.317310882000015 ], [ 66.335236453999983, 30.33736851499998 ], [ 66.336516658999983, 30.349800581000011 ], [ 66.334182167999984, 30.354538321 ], [ 66.33278736699998, 30.373305926 ], [ 66.334702762, 30.383468984 ], [ 66.354370768000024, 30.421773627999983 ], [ 66.354118656000026, 30.427270978000024 ], [ 66.33892014700001, 30.446938687999989 ], [ 66.336647626, 30.456034658000021 ], [ 66.339813758999981, 30.479317359 ], [ 66.325729723999984, 30.493381295 ], [ 66.305366100000015, 30.5024429 ], [ 66.297897654999986, 30.509295963 ], [ 66.292328312, 30.537781134999989 ], [ 66.282692397, 30.55694491700001 ], [ 66.281058581000025, 30.569275483000013 ], [ 66.333039477999989, 30.740590456 ], [ 66.386572338, 30.933917748 ], [ 66.391326449000019, 30.940498852000019 ], [ 66.400968912, 30.944725819999974 ], [ 66.446211544999983, 30.955880955 ], [ 66.48239124600002, 30.961905447999982 ], [ 66.484152755000025, 30.964027117 ], [ 66.53389083899998, 30.970257882999988 ], [ 66.562665689000028, 30.977685803999975 ], [ 66.579644244, 30.988495071999978 ], [ 66.618155161, 31.020467449000023 ], [ 66.666968753, 31.066711954000027 ], [ 66.68316729999998, 31.074592935999988 ], [ 66.684228134000023, 31.093200105999983 ], [ 66.688147329, 31.10111707599998 ], [ 66.686202465, 31.115268086000015 ], [ 66.696938505, 31.132117021999989 ], [ 66.709298537999985, 31.160703895999973 ], [ 66.720152448000022, 31.205972723 ], [ 66.731071842, 31.212507988000027 ], [ 66.776245717999984, 31.209793692 ], [ 66.792908024999974, 31.213061325000012 ], [ 66.801987328999985, 31.219072720999975 ], [ 66.834974702000011, 31.264279338999984 ], [ 66.856581023, 31.278508929 ], [ 66.902275493, 31.296169862 ], [ 66.934182387000021, 31.305609326000024 ], [ 66.969124447000013, 31.312609525000028 ], [ 66.985655786999985, 31.312871459 ], [ 67.034637535, 31.309269859999972 ], [ 67.04446335199998, 31.303828171000021 ], [ 67.051316213, 31.285921675 ], [ 67.047737532999975, 31.275277313 ], [ 67.024818266000011, 31.26131293100002 ], [ 67.021864955000012, 31.255039599999975 ], [ 67.030990251, 31.240181286999984 ], [ 67.040252755999973, 31.235407609999982 ], [ 67.069016436000027, 31.229602488000012 ], [ 67.093720131999987, 31.231920608 ], [ 67.117621653000015, 31.241317507000019 ], [ 67.166344740999989, 31.243393337999976 ], [ 67.183327917999975, 31.224854924999988 ], [ 67.195753823000018, 31.220621395000023 ], [ 67.226989120999974, 31.219436154999983 ], [ 67.245835307, 31.214688593 ], [ 67.262017548000017, 31.206940633999977 ], [ 67.271498338000015, 31.205772997999986 ], [ 67.291503584, 31.21251126300001 ], [ 67.304855694000025, 31.211961200000019 ], [ 67.314599656999974, 31.215209188000017 ], [ 67.327185609000026, 31.213716160999979 ], [ 67.345360588, 31.219711186999973 ], [ 67.390534463, 31.216574520999984 ], [ 67.406410967, 31.219747203 ], [ 67.444067323000013, 31.232893038999975 ], [ 67.490668740999979, 31.242136051999978 ], [ 67.539244490999977, 31.263562293 ], [ 67.574661306999985, 31.272946096 ], [ 67.602943682999978, 31.272746370999982 ], [ 67.620421261, 31.276393808000023 ], [ 67.65831663199998, 31.291549992 ], [ 67.691719783, 31.313686696 ], [ 67.707098654999982, 31.320241641 ], [ 67.717736093999974, 31.323427306999974 ], [ 67.756165532000011, 31.325797926 ], [ 67.774078576000022, 31.332873431 ], [ 67.785453081000014, 31.343917244000011 ], [ 67.789847032000011, 31.356621066 ], [ 67.785790320999979, 31.374625787000014 ], [ 67.778305543999977, 31.391173498 ], [ 67.771338086000014, 31.399938481 ], [ 67.750321117999988, 31.413637654000013 ], [ 67.740936899000019, 31.414783535000026 ], [ 67.660071593, 31.397220910999977 ], [ 67.644066706, 31.39682172 ], [ 67.633779919, 31.40068826800001 ], [ 67.627739055, 31.413369171 ], [ 67.60539276999998, 31.418535829 ], [ 67.597626413, 31.426816233000011 ], [ 67.594696052000018, 31.434301146 ], [ 67.599106342000027, 31.453657969 ], [ 67.595046465999985, 31.470509850999974 ], [ 67.575676303000023, 31.505069159000016 ], [ 67.555039140000019, 31.521954111000014 ], [ 67.553994706000026, 31.52880023199998 ], [ 67.569563406999976, 31.534693948999973 ], [ 67.584549333999973, 31.534386176 ], [ 67.63637601, 31.528129297000021 ], [ 67.64846795, 31.518352515 ], [ 67.661751247999973, 31.520971856000017 ], [ 67.71309695399998, 31.520634616 ], [ 67.742066908000027, 31.533708419999982 ], [ 67.766976877, 31.556755381000016 ], [ 67.803595318000021, 31.58214338 ], [ 67.815451240000016, 31.595934313999976 ], [ 67.843147424, 31.616515731999982 ], [ 67.868705681, 31.628797185 ], [ 67.886618726, 31.629438924999988 ], [ 67.894499680000024, 31.625729278 ], [ 67.904397529, 31.625958471 ], [ 67.924530468, 31.632375864999972 ], [ 67.949921742000015, 31.633413781 ], [ 67.969802569000024, 31.639588886000013 ], [ 67.987715612999978, 31.64892685 ], [ 68.03149468700002, 31.679216299000018 ], [ 68.046814579999989, 31.685967660000017 ], [ 68.06408602099998, 31.699398780000024 ], [ 68.067344183999978, 31.715501158 ], [ 68.08409113099998, 31.728692448 ], [ 68.101211824000018, 31.747610666000014 ], [ 68.116682329000014, 31.758706866000011 ], [ 68.140574943999979, 31.798247005 ], [ 68.168876058000023, 31.834235649 ], [ 68.171921037, 31.821708656999988 ], [ 68.17749041899998, 31.81449891 ], [ 68.241255094, 31.806441151 ], [ 68.259354184000017, 31.801549681999973 ], [ 68.250969589000022, 31.785348877 ], [ 68.278220598000019, 31.759803716000022 ], [ 68.286605775999988, 31.756997743 ], [ 68.421855103999974, 31.757217938 ], [ 68.445334796999987, 31.742509492000011 ], [ 68.500900923000017, 31.738298895000014 ], [ 68.510382951, 31.733901670000023 ], [ 68.537146107000012, 31.714020843000014 ], [ 68.555619036, 31.714364632000013 ], [ 68.563513087, 31.719773579 ], [ 68.574645302000022, 31.734861005000027 ], [ 68.582022006999978, 31.750338006 ], [ 68.538521263, 31.754574849 ], [ 68.498353609999981, 31.753821787999982 ], [ 68.463676759, 31.748124712999982 ], [ 68.447610353000016, 31.757894868999983 ], [ 68.433106566999982, 31.763247847 ], [ 68.465935944000023, 31.77404313 ], [ 68.570143303, 31.827965617000018 ], [ 68.582123532000026, 31.82085737 ], [ 68.63223205700001, 31.778263385 ], [ 68.639533020999977, 31.775647478 ], [ 68.682189052000012, 31.773653502 ], [ 68.701843960000019, 31.769878371 ], [ 68.709259980000013, 31.751002718 ], [ 68.715719939999985, 31.716083577 ], [ 68.713912794, 31.702086096000016 ], [ 68.71698707500002, 31.696644746 ], [ 68.742836706999981, 31.679455314 ], [ 68.751899639999976, 31.669537820000016 ], [ 68.773512950999987, 31.660975248999989 ], [ 68.777939052000022, 31.655095605999975 ], [ 68.782676940999977, 31.635253869999985 ], [ 68.80493809799998, 31.609980467000014 ], [ 68.812170763999973, 31.609643227 ], [ 68.821907673, 31.604997405 ], [ 68.831616243999974, 31.605780147000019 ], [ 68.848298076999981, 31.597417435000011 ], [ 68.872002676000022, 31.601699941999982 ], [ 68.900635861000012, 31.601244952 ], [ 68.916878872999973, 31.604712267000025 ], [ 68.928459851000014, 31.613369245 ], [ 68.944421483999974, 31.642244247 ], [ 68.949158816000022, 31.645753867 ], [ 68.968918906, 31.635528901999976 ], [ 68.978270646999988, 31.636133905 ], [ 68.985938099, 31.628011382000011 ], [ 69.000914202999979, 31.628237301000013 ], [ 69.010887358, 31.624730652999972 ], [ 69.021011126000019, 31.626714806 ], [ 69.024170610999988, 31.642106243 ], [ 69.031495054, 31.650229974000013 ], [ 69.046814946999973, 31.659849517999987 ], [ 69.066466580999986, 31.667242618999978 ], [ 69.096453750000023, 31.69340516699998 ], [ 69.117943255, 31.703261884000028 ], [ 69.121017710999979, 31.709944488000019 ], [ 69.120009262999986, 31.720231964999982 ], [ 69.12742528299998, 31.724462206 ], [ 69.135260398000014, 31.747928262000016 ], [ 69.148972668, 31.758883670999978 ], [ 69.156251162, 31.783944216 ], [ 69.17469136, 31.800000837000027 ], [ 69.180938497999989, 31.809476317000019 ], [ 69.185761366, 31.823276990000011 ], [ 69.192335921999984, 31.830008706 ], [ 69.197607353000024, 31.848396505999972 ], [ 69.20342229900001, 31.852597280999987 ], [ 69.231125143999975, 31.862593355 ], [ 69.26258035799998, 31.886599935999982 ], [ 69.271872326999983, 31.906182527 ], [ 69.277680724, 31.911522715999979 ], [ 69.317619212000011, 31.928073763999976 ], [ 69.323246644, 31.940626765 ], [ 69.320920657999977, 31.95189079 ], [ 69.330825806, 31.960212707999972 ], [ 69.337234497, 31.954124450999984 ], [ 69.346794128, 31.951955795 ], [ 69.372024536000026, 31.966579437 ], [ 69.393920897999976, 31.962368011000024 ], [ 69.432868957999972, 31.962915421 ], [ 69.447082519999981, 31.966585158999976 ], [ 69.4712677, 31.965230942 ], [ 69.497581481999987, 31.969518661 ], [ 69.51881408700001, 31.976106644000026 ], [ 69.523117065, 31.975599289 ], [ 69.53589630099998, 31.959835052000017 ], [ 69.548759459999985, 31.956113814999981 ], [ 69.563453674000016, 31.966890335000016 ], [ 69.59072876, 31.981044769 ], [ 69.608734131, 31.998477935999972 ], [ 69.620292663999976, 32.001754760999972 ], [ 69.629219055000021, 32.007240294999974 ], [ 69.63173675500002, 32.016181946000017 ], [ 69.643539428999986, 32.03251647899998 ], [ 69.646759033000023, 32.046237946000019 ], [ 69.659049988, 32.052387238 ], [ 69.679548419000014, 32.072943775 ], [ 69.736961365000013, 32.07820510900001 ], [ 69.773170471000014, 32.090557097999977 ], [ 69.778831481999987, 32.085815430000025 ], [ 69.782577515000014, 32.085842133000028 ], [ 69.805709838999974, 32.095546722 ], [ 69.822570800999983, 32.09501647899998 ], [ 69.852485656999988, 32.100616455000022 ], [ 69.852546691999976, 32.093612671000017 ] ] ] } },
{ "type": "Feature", "properties": { "adm1_name": "Khyber Pakhtunkhwa", "adm1_pcode": "PK5", "is_sindh": false }, "geometry": { "type": "Polygon", "coordinates": [ [ [ 70.66, 31.317287846044575 ], [ 70.634475708000025, 31.317611694 ], [ 70.61631011999998, 31.325159073 ], [ 70.607688903999986, 31.320035933999975 ], [ 70.601310730000023, 31.32778358500002 ], [ 70.582672119, 31.331497191999972 ], [ 70.565742493000016, 31.340415955000026 ], [ 70.544927759000018, 31.335665006 ], [ 70.541069031, 31.324310303 ], [ 70.531593322999981, 31.317350388000023 ], [ 70.524810791, 31.306089401 ], [ 70.450218200999984, 31.294050217 ], [ 70.44671630900001, 31.286109924000016 ], [ 70.430549622, 31.265779495 ], [ 70.427719116, 31.253810883000028 ], [ 70.423797606999983, 31.250019072999976 ], [ 70.424156188999973, 31.246549605999974 ], [ 70.413536072, 31.225387572999978 ], [ 70.404998778999982, 31.212610245 ], [ 70.404541016, 31.199834824 ], [ 70.309883118000016, 31.174806595 ], [ 70.287513733000026, 31.165496825999981 ], [ 70.267372131, 31.188756942999987 ], [ 70.262481689000026, 31.201124191000019 ], [ 70.268463135, 31.206596375 ], [ 70.270248413, 31.213401794 ], [ 70.257659912, 31.223737717 ], [ 70.257118225, 31.228103638 ], [ 70.258850097999982, 31.234886169 ], [ 70.270065308000028, 31.243236541999977 ], [ 70.271797180000021, 31.250017166000021 ], [ 70.267860413, 31.276861191000023 ], [ 70.266342163, 31.326622009 ], [ 70.278625487999989, 31.397527695 ], [ 70.27645874000001, 31.431774139000026 ], [ 70.267494202000023, 31.460018158000025 ], [ 70.260787963999974, 31.507455826000012 ], [ 70.245590209999989, 31.508546829000011 ], [ 70.223571777000018, 31.48561096200001 ], [ 70.203613281, 31.476902008000025 ], [ 70.192405700999984, 31.46916580200002 ], [ 70.174011230000019, 31.445489883 ], [ 70.154296875, 31.442358017 ], [ 70.149589538999976, 31.433799744 ], [ 70.136627197, 31.436054230000025 ], [ 70.131248474000017, 31.428758620999986 ], [ 70.124702453999987, 31.428333281999983 ], [ 70.118408203, 31.434114455999975 ], [ 70.113845825, 31.446680069000024 ], [ 70.095802306999985, 31.449081421000017 ], [ 70.097366333000025, 31.416099547999977 ], [ 70.095046997, 31.412441253999987 ], [ 70.081054687, 31.407262802 ], [ 70.077560425, 31.392452240000011 ], [ 70.069396972999982, 31.38772392300001 ], [ 70.057144165000011, 31.38957977299998 ], [ 70.053085327000019, 31.395511627000019 ], [ 70.04385376, 31.442285538000021 ], [ 70.018135071000017, 31.508098602000018 ], [ 70.015136719, 31.511587142999986 ], [ 70.009918213, 31.512836456 ], [ 69.965240478999988, 31.516433716 ], [ 69.947257996000019, 31.531948090000014 ], [ 69.939712524000015, 31.545602798 ], [ 69.940376281999988, 31.557392119999975 ], [ 69.943656921000013, 31.566328049 ], [ 69.9453125, 31.636384964 ], [ 69.949508666999975, 31.673992156999986 ], [ 69.95136261, 31.725936890000014 ], [ 69.946617125999978, 31.762861252 ], [ 69.948432922, 31.770196914999985 ], [ 69.955856322999978, 31.775650024000015 ], [ 69.957679749000022, 31.781393051 ], [ 69.95690155, 31.786167144999979 ], [ 69.949020385999972, 31.791858672999979 ], [ 69.945236206, 31.798847197999976 ], [ 69.939758300999983, 31.832580566 ], [ 69.939254760999972, 31.849737167 ], [ 69.941818237, 31.856122971 ], [ 69.95703125, 31.870855330999973 ], [ 69.954299927000022, 31.886447906 ], [ 69.963401794, 31.920578003 ], [ 69.963287353999988, 31.93682289100002 ], [ 69.945716858000026, 31.936094283999978 ], [ 69.931938171000013, 31.929330826000012 ], [ 69.898986816, 31.888376236 ], [ 69.882575988999974, 31.884140015000014 ], [ 69.867195128999981, 31.89169311500001 ], [ 69.854698181, 31.893640517999984 ], [ 69.853317260999972, 31.924848557000018 ], [ 69.868499756, 31.942140579000011 ], [ 69.881362915000011, 31.969610214 ], [ 69.882797241, 31.978218078999987 ], [ 69.880523681999989, 31.981708527000023 ], [ 69.826469421000013, 32.003677368000012 ], [ 69.800369263, 32.022571563999975 ], [ 69.799972534, 32.025432587000012 ], [ 69.817459106, 32.03669357299998 ], [ 69.840660094999976, 32.082069397 ], [ 69.852546691999976, 32.093612671000017 ], [ 69.853988647, 32.099670409999987 ], [ 69.833778381, 32.098590850999983 ], [ 69.815086365000013, 32.094333649000021 ], [ 69.805709838999974, 32.095546722 ], [ 69.782577515000014, 32.085842133000028 ], [ 69.778831481999987, 32.085815430000025 ], [ 69.773170471000014, 32.090557097999977 ], [ 69.736961365000013, 32.07820510900001 ], [ 69.679548419000014, 32.072943775 ], [ 69.659049988, 32.052387238 ], [ 69.646759033000023, 32.046237946000019 ], [ 69.643539428999986, 32.03251647899998 ], [ 69.63173675500002, 32.016181946000017 ], [ 69.629219055000021, 32.007240294999974 ], [ 69.620292663999976, 32.001754760999972 ], [ 69.608734131, 31.998477935999972 ], [ 69.59072876, 31.981044769 ], [ 69.563453674000016, 31.966890335000016 ], [ 69.548759459999985, 31.956113814999981 ], [ 69.53589630099998, 31.959835052000017 ], [ 69.523117065, 31.975599289 ], [ 69.51881408700001, 31.976106644000026 ], [ 69.497581481999987, 31.969518661 ], [ 69.4712677, 31.965230942 ], [ 69.447082519999981, 31.966585158999976 ], [ 69.432868957999972, 31.962915421 ], [ 69.393920897999976, 31.962368011000024 ], [ 69.372024536000026, 31.966579437 ], [ 69.346794128, 31.951955795 ], [ 69.337234497, 31.954124450999984 ], [ 69.330825806, 31.960212707999972 ], [ 69.320920657999977, 31.95189079 ], [ 69.312721008999972, 31.976073195000026 ], [ 69.311996947000011, 31.986134986000025 ], [ 69.300347879000014, 31.991933328000016 ], [ 69.298461950999979, 32.000000909999983 ], [ 69.286108465999973, 32.071400975000017 ], [ 69.28945795300001, 32.092719167999974 ], [ 69.272841485000015, 32.151006138000014 ], [ 69.275031830274145, 32.2 ], [ 70.66, 32.2 ], [ 70.66, 31.317287846044575 ] ] ] } },
{ "type": "Feature", "properties": { "adm1_name": "Punjab", "adm1_pcode": "PK6", "is_sindh": false }, "geometry": { "type": "MultiPolygon", "coordinates": [ [ [ [ 70.66, 27.931165639181692 ], [ 70.562629790000017, 28.019801691999987 ], [ 70.530333268, 28.03248914400001 ], [ 70.509833620999984, 28.035543954 ], [ 70.479089061000025, 28.033739880999974 ], [ 70.432356675999984, 28.021550105000017 ], [ 70.366165831999979, 28.008250382000028 ], [ 70.336462461999986, 27.983114494 ], [ 70.30290865500001, 27.946171908999986 ], [ 70.281335076, 27.930423099 ], [ 70.207597245999978, 27.885383465000018 ], [ 70.180508125000017, 27.854901706000021 ], [ 70.123573303, 27.882009505999974 ], [ 70.090522766, 27.888391495 ], [ 70.069160461000024, 27.895391464 ], [ 70.047843933000024, 27.913116455000022 ], [ 70.035148621000019, 27.927133560000016 ], [ 70.000823975, 27.937433242999987 ], [ 69.991661072, 27.944425583 ], [ 69.973907471000018, 27.96691703800002 ], [ 69.96786499000001, 27.980718611999976 ], [ 69.922729491999974, 28.025442123 ], [ 69.878792793, 28.080198506999977 ], [ 69.873222350999981, 28.094032288 ], [ 69.845115662000012, 28.133245467999984 ], [ 69.847671509, 28.152608870999984 ], [ 69.842941284, 28.16378212 ], [ 69.843864441, 28.169807434 ], [ 69.841293334999989, 28.170022964 ], [ 69.838615417000028, 28.166244506999988 ], [ 69.83769989000001, 28.169696808000026 ], [ 69.84236145, 28.179944992 ], [ 69.84691619900002, 28.182216644 ], [ 69.857635497999979, 28.197050095 ], [ 69.845062256, 28.213443756 ], [ 69.842086791999975, 28.227315902999976 ], [ 69.836143494, 28.232116699000017 ], [ 69.831649780000021, 28.241128920999984 ], [ 69.833061218000012, 28.249610900999983 ], [ 69.836517334, 28.253664017 ], [ 69.83114624000001, 28.260002136000026 ], [ 69.836715697999978, 28.268774033 ], [ 69.822311400999979, 28.270084381 ], [ 69.815475463999974, 28.277183533000027 ], [ 69.81018829300001, 28.30251503 ], [ 69.812713622999979, 28.312795639 ], [ 69.817970275999983, 28.320816040000011 ], [ 69.814971924000019, 28.324562072999981 ], [ 69.819786072, 28.332572937 ], [ 69.820693969999979, 28.339593886999978 ], [ 69.816024780000021, 28.347391129000016 ], [ 69.816490172999977, 28.355543136999984 ], [ 69.812942505000024, 28.361927032999972 ], [ 69.799072266, 28.363723755000024 ], [ 69.795341491999977, 28.371793747000027 ], [ 69.793258666999975, 28.368082045999984 ], [ 69.791267394999977, 28.368743896000012 ], [ 69.790283203, 28.374279022 ], [ 69.794303894, 28.379882813 ], [ 69.761901855000019, 28.384708405000026 ], [ 69.75138880999998, 28.402932465 ], [ 69.732170105000023, 28.419073105 ], [ 69.726074219, 28.421646118000012 ], [ 69.687095641999974, 28.429906845 ], [ 69.647026062, 28.428382874000022 ], [ 69.627014159999987, 28.432147980000025 ], [ 69.605946195, 28.439543593 ], [ 69.605583191, 28.444112777999976 ], [ 69.625, 28.46301078800002 ], [ 69.624542236000025, 28.467544556 ], [ 69.521278381, 28.484462738 ], [ 69.475563049000016, 28.483764647999976 ], [ 69.44670105, 28.47782135 ], [ 69.431030272999976, 28.472475052 ], [ 69.416526794, 28.449216842999988 ], [ 69.363761902000022, 28.445636749000016 ], [ 69.353248596000014, 28.466457366999975 ], [ 69.338409424000019, 28.512151717999984 ], [ 69.321319580000022, 28.543546677 ], [ 69.324691772, 28.554906845 ], [ 69.357757568000011, 28.571100235000017 ], [ 69.411346435999974, 28.590288161999979 ], [ 69.420921325999984, 28.597682953 ], [ 69.469276428, 28.673599243000012 ], [ 69.484398509000016, 28.701897549000023 ], [ 69.532913208000025, 28.773094177000019 ], [ 69.53767395, 28.801134108999975 ], [ 69.525413513, 28.825729369999976 ], [ 69.511917114000028, 28.836570740000013 ], [ 69.486480713, 28.841621399000019 ], [ 69.483177184999988, 28.848491669 ], [ 69.483078003, 28.85660743699998 ], [ 69.487609862999989, 28.863952637000011 ], [ 69.489601134999987, 28.891567230000021 ], [ 69.492774962999988, 28.896465302000024 ], [ 69.507415771000012, 28.907958984 ], [ 69.541816711000024, 28.928546906 ], [ 69.552215575999981, 28.949333191 ], [ 69.555419922, 28.951795577999974 ], [ 69.574340819999975, 28.953979491999974 ], [ 69.581199646000016, 28.960124969 ], [ 69.593963622999979, 28.994235991999972 ], [ 69.608901391000018, 29.011509096999987 ], [ 69.613571166999975, 29.02036857600001 ], [ 69.634155272999976, 29.042446136000024 ], [ 69.650573730000019, 29.065708159999986 ], [ 69.664840697999978, 29.072715759 ], [ 69.685600281, 29.078550339 ], [ 69.706306457999972, 29.089658736999979 ], [ 69.712684631, 29.115642547999983 ], [ 69.750122069999975, 29.173946381 ], [ 69.751914978, 29.180454253999983 ], [ 69.752334594999979, 29.185733794999976 ], [ 69.743385315000012, 29.203128815000014 ], [ 69.744018555000025, 29.236421585000016 ], [ 69.767173766999974, 29.277490616000023 ], [ 69.768974303999983, 29.284404755000025 ], [ 69.766540527000018, 29.297784805 ], [ 69.758178711000028, 29.299354553 ], [ 69.745697021000012, 29.29520988500002 ], [ 69.736473083000021, 29.29027557400002 ], [ 69.698745728, 29.259565353000028 ], [ 69.686706543000014, 29.258666991999974 ], [ 69.682472228999984, 29.265130997000028 ], [ 69.682228087999988, 29.291110991999972 ], [ 69.671424866, 29.305242538000016 ], [ 69.662117003999981, 29.308826447 ], [ 69.644035339000027, 29.308691024999973 ], [ 69.640304565, 29.311098099 ], [ 69.638832091999973, 29.319206238 ], [ 69.642021178999983, 29.325321197999983 ], [ 69.666366577000019, 29.349456787 ], [ 69.669090271000016, 29.355567931999985 ], [ 69.659745096999984, 29.378871530000026 ], [ 69.652526855000019, 29.389142989999982 ], [ 69.627578734999986, 29.414867400999981 ], [ 69.614959716999977, 29.423295974999974 ], [ 69.605667114000028, 29.424034119 ], [ 69.584030150999979, 29.407215118000011 ], [ 69.576629638999975, 29.404312134 ], [ 69.571533203, 29.403865814000028 ], [ 69.564514159999987, 29.409086226999989 ], [ 69.562492371000019, 29.42449760400001 ], [ 69.563514709, 29.458612442 ], [ 69.565750122, 29.467157364 ], [ 69.574394225999981, 29.483877182000015 ], [ 69.591835022, 29.503913878999981 ], [ 69.598052978999988, 29.531063080000024 ], [ 69.597709656, 29.564357758000028 ], [ 69.603332519999981, 29.596775055000023 ], [ 69.600059509, 29.608680725 ], [ 69.592597961000024, 29.618715286 ], [ 69.591468811000027, 29.626049041999977 ], [ 69.596626281999988, 29.635267258 ], [ 69.618659972999978, 29.640029906999985 ], [ 69.625862122, 29.655687332000014 ], [ 69.628898751, 29.668724683999983 ], [ 69.64600486400002, 29.685261105999984 ], [ 69.666481018000013, 29.697294235000015 ], [ 69.690620422, 29.703893661 ], [ 69.696876525999983, 29.710363388000019 ], [ 69.722099303999983, 29.714210509999987 ], [ 69.732582091999973, 29.718872069999975 ], [ 69.753395081, 29.745628356999987 ], [ 69.775360106999983, 29.762292861999981 ], [ 69.789001465000013, 29.768806457999972 ], [ 69.811828612999989, 29.810251236 ], [ 69.835800171000017, 29.861467361 ], [ 69.855957031, 29.876155853 ], [ 69.892509459999985, 29.914806366 ], [ 69.911018372, 29.962451935 ], [ 69.922470093000015, 30.001712799000018 ], [ 69.940696716, 30.035957336000024 ], [ 69.94657135, 30.042890549 ], [ 69.962310791, 30.053001403999986 ], [ 69.979660034, 30.076745986999981 ], [ 69.985313416, 30.091632843000014 ], [ 69.98754119900002, 30.106067656999983 ], [ 69.984840393000013, 30.121322631999988 ], [ 69.985542297, 30.13950920100001 ], [ 69.991462707999972, 30.153129578 ], [ 69.999000549000016, 30.182481766000024 ], [ 70.015060425, 30.189910888999975 ], [ 70.017341613999974, 30.212905884 ], [ 70.020759582999972, 30.219312667999986 ], [ 70.024169922, 30.221973419 ], [ 70.047630309999988, 30.226694107000014 ], [ 70.076202393000017, 30.262418747000027 ], [ 70.072342735, 30.271277818999977 ], [ 70.059921265000014, 30.275060654000015 ], [ 70.012420653999982, 30.277389525999979 ], [ 70.003456116, 30.273410797 ], [ 69.987625122, 30.253408432000015 ], [ 69.982368469, 30.250751494999975 ], [ 69.972824097, 30.25345993000002 ], [ 69.971321106, 30.262559891000024 ], [ 69.981849669999974, 30.282804489 ], [ 69.984092712, 30.299917220999987 ], [ 69.981330872, 30.302333831999988 ], [ 69.966468811000027, 30.292488097999978 ], [ 69.960617065, 30.29384613000002 ], [ 69.959793091, 30.317388535000021 ], [ 69.99344635, 30.381175994999978 ], [ 69.996612549000019, 30.398284912 ], [ 69.996490478999988, 30.436538696000014 ], [ 70.001945496000019, 30.456573486000025 ], [ 70.038940430000025, 30.49548912 ], [ 70.085632324000017, 30.592920303000028 ], [ 70.09482574499998, 30.628730774000019 ], [ 70.092216491999977, 30.660558701000014 ], [ 70.087051391999978, 30.677436828999987 ], [ 70.087142944, 30.692955016999974 ], [ 70.088722228999984, 30.697496414 ], [ 70.098388672, 30.707620621 ], [ 70.10349327, 30.732211591 ], [ 70.111907959, 30.73913002 ], [ 70.141265869, 30.735740662000012 ], [ 70.156158447, 30.737272263000023 ], [ 70.159919738999974, 30.743406295999989 ], [ 70.16318511999998, 30.768274307000013 ], [ 70.168190002000017, 30.774669647 ], [ 70.201095581, 30.777709961000028 ], [ 70.206687927000019, 30.779285431 ], [ 70.212623596000014, 30.785139083999979 ], [ 70.215766906999988, 30.790206909 ], [ 70.223983765000014, 30.84045028700001 ], [ 70.226799011000026, 30.843111038000018 ], [ 70.257843018000017, 30.843202591000022 ], [ 70.267166138, 30.84528923 ], [ 70.270698547, 30.859985352000024 ], [ 70.269500731999983, 30.865343094000025 ], [ 70.255584716999977, 30.872381210000015 ], [ 70.252555847, 30.882833480999977 ], [ 70.263763428, 30.925287247000028 ], [ 70.264663696000014, 30.99993515 ], [ 70.268371581999986, 31.033845901 ], [ 70.269973755000024, 31.040258408 ], [ 70.287635803, 31.069587707999972 ], [ 70.294380188, 31.095235824999975 ], [ 70.292739868000012, 31.159461975 ], [ 70.287513733000026, 31.165496825999981 ], [ 70.309883118000016, 31.174806595 ], [ 70.404541016, 31.199834824 ], [ 70.404998778999982, 31.212610245 ], [ 70.413536072, 31.225387572999978 ], [ 70.424156188999973, 31.246549605999974 ], [ 70.423797606999983, 31.250019072999976 ], [ 70.427719116, 31.253810883000028 ], [ 70.430549622, 31.265779495 ], [ 70.44671630900001, 31.286109924000016 ], [ 70.450218200999984, 31.294050217 ], [ 70.524810791, 31.306089401 ], [ 70.531593322999981, 31.317350388000023 ], [ 70.541069031, 31.324310303 ], [ 70.544927759000018, 31.335665006 ], [ 70.550811768000017, 31.335531235000019 ], [ 70.562080383000023, 31.340459824 ], [ 70.568977356, 31.339332581 ], [ 70.582672119, 31.331497191999972 ], [ 70.601310730000023, 31.32778358500002 ], [ 70.607688903999986, 31.320035933999975 ], [ 70.61631011999998, 31.325159073 ], [ 70.634475708000025, 31.317611694 ], [ 70.66, 31.317287846044575 ], [ 70.66, 27.931165639181692 ] ] ], [ [ [ 69.549095153999986, 28.122514724999974 ], [ 69.537696837999988, 28.124183655000024 ], [ 69.529380797999977, 28.13233757 ], [ 69.526092528999982, 28.168081283999982 ], [ 69.516128540000011, 28.173534393000011 ], [ 69.513114928999983, 28.182209015000012 ], [ 69.496406555000021, 28.195760727 ], [ 69.474426269999981, 28.205404282000018 ], [ 69.466705322, 28.211385727 ], [ 69.480300903, 28.242742539 ], [ 69.475135803, 28.264833450000026 ], [ 69.487960815, 28.258651733000022 ], [ 69.501983643000017, 28.247051238999973 ], [ 69.519073486000025, 28.237239838 ], [ 69.527786255000024, 28.225475311000025 ], [ 69.530998230000023, 28.214815139999985 ], [ 69.536270141999978, 28.209379195999986 ], [ 69.572532653999986, 28.20255279600002 ], [ 69.581771850999985, 28.198228836 ], [ 69.580307006999988, 28.192098617 ], [ 69.569839478, 28.178607941 ], [ 69.5623703, 28.154277802000024 ], [ 69.565155028999982, 28.142175673999986 ], [ 69.564300537, 28.134418488 ], [ 69.559265137000011, 28.126775742 ], [ 69.549095153999986, 28.122514724999974 ] ] ], [ [ [ 69.604576110999972, 28.347579956 ], [ 69.631561278999982, 28.353050231999987 ], [ 69.649902344, 28.346282959 ], [ 69.670021056999985, 28.330839157000014 ], [ 69.696296691999976, 28.299255371000015 ], [ 69.707885741999974, 28.29215431199998 ], [ 69.723625183000024, 28.295316695999986 ], [ 69.745788574000017, 28.31215858500002 ], [ 69.75151825, 28.313570023000011 ], [ 69.757834593999974, 28.311548405 ], [ 69.757987975999981, 28.305229187 ], [ 69.750244141, 28.278553009 ], [ 69.747353366000027, 28.249207254999988 ], [ 69.743217468000012, 28.241283416999977 ], [ 69.732765197999981, 28.234664916999975 ], [ 69.722442627000021, 28.23576355 ], [ 69.714523315, 28.240678786999979 ], [ 69.705627441, 28.253000258999975 ], [ 69.69404602100002, 28.259199142 ], [ 69.67256164600002, 28.250104904000011 ], [ 69.670082091999973, 28.245965958 ], [ 69.673645019999981, 28.229164122999975 ], [ 69.672187805000021, 28.224298477 ], [ 69.668914794999978, 28.222509383999977 ], [ 69.662582397999984, 28.220556258999977 ], [ 69.623046875, 28.226705551 ], [ 69.604454041, 28.220474243000012 ], [ 69.59729766800001, 28.244689941 ], [ 69.595275878999985, 28.273183823000011 ], [ 69.591690062999987, 28.288362502999973 ], [ 69.575691222999978, 28.310811995999984 ], [ 69.553413391, 28.352388382000015 ], [ 69.533538818000011, 28.380807877 ], [ 69.533576965, 28.388750076 ], [ 69.548530578999987, 28.395910263000019 ], [ 69.559150696000017, 28.395143508999979 ], [ 69.579223633000026, 28.367261886999984 ], [ 69.585060119, 28.35099029600002 ], [ 69.604576110999972, 28.347579956 ] ] ] ] } },
{ "type": "Feature", "properties": { "adm1_name": "Sindh", "adm1_pcode": "PK7", "is_sindh": true }, "geometry": { "type": "Polygon", "coordinates": [ [ [ 69.605583191, 28.444112777999976 ], [ 69.604827881, 28.440448761000027 ], [ 69.606773375999978, 28.439146042 ], [ 69.638969421000013, 28.429718018000017 ], [ 69.656791687, 28.427688599000021 ], [ 69.687095641999974, 28.429906845 ], [ 69.726074219, 28.421646118000012 ], [ 69.732170105000023, 28.419073105 ], [ 69.75138880999998, 28.402932465 ], [ 69.761901855000019, 28.384708405000026 ], [ 69.794303894, 28.379882813 ], [ 69.789924622, 28.372797011999978 ], [ 69.791900635, 28.367898941000021 ], [ 69.795341491999977, 28.371793747000027 ], [ 69.799072266, 28.363723755000024 ], [ 69.812942505000024, 28.361927032999972 ], [ 69.815933228, 28.358066559 ], [ 69.816024780000021, 28.347391129000016 ], [ 69.820762634, 28.337478638 ], [ 69.814971924000019, 28.324562072999981 ], [ 69.817970275999983, 28.320816040000011 ], [ 69.812713622999979, 28.312795639 ], [ 69.81018829300001, 28.30251503 ], [ 69.815475463999974, 28.277183533000027 ], [ 69.822311400999979, 28.270084381 ], [ 69.836715697999978, 28.268774033 ], [ 69.83114624000001, 28.260002136000026 ], [ 69.836517334, 28.253664017 ], [ 69.833061218000012, 28.249610900999983 ], [ 69.831649780000021, 28.241128920999984 ], [ 69.836143494, 28.232116699000017 ], [ 69.842086791999975, 28.227315902999976 ], [ 69.845062256, 28.213443756 ], [ 69.857635497999979, 28.197050095 ], [ 69.84691619900002, 28.182216644 ], [ 69.84236145, 28.179944992 ], [ 69.83769989000001, 28.169696808000026 ], [ 69.838615417000028, 28.166244506999988 ], [ 69.841293334999989, 28.170022964 ], [ 69.843864441, 28.169807434 ], [ 69.842941284, 28.16378212 ], [ 69.847671509, 28.152608870999984 ], [ 69.844642639000028, 28.134313583 ], [ 69.873222350999981, 28.094032288 ], [ 69.878792793, 28.080198506999977 ], [ 69.922729491999974, 28.025442123 ], [ 69.96786499000001, 27.980718611999976 ], [ 69.973907471000018, 27.96691703800002 ], [ 69.991661072, 27.944425583 ], [ 70.000823975, 27.937433242999987 ], [ 70.035148621000019, 27.927133560000016 ], [ 70.047843933000024, 27.913116455000022 ], [ 70.069160461000024, 27.895391464 ], [ 70.090522766, 27.888391495 ], [ 70.123573303, 27.882009505999974 ], [ 70.180508125000017, 27.854901706000021 ], [ 70.156952214, 27.834050854999987 ], [ 70.107810030999985, 27.766871208999987 ], [ 70.024567252999987, 27.569690204999972 ], [ 70.016267203999973, 27.555994306 ], [ 69.936249493999981, 27.502107835 ], [ 69.907623328999989, 27.459576223 ], [ 69.861968149, 27.402779005000014 ], [ 69.812544387, 27.359612202999983 ], [ 69.698707661000014, 27.277738032 ], [ 69.665946206, 27.251436536000028 ], [ 69.586661913, 27.177983558999983 ], [ 69.578126123, 27.165489284999978 ], [ 69.513205660999972, 27.01686766 ], [ 69.503592665999975, 26.943293537999978 ], [ 69.500937304999979, 26.900329735000014 ], [ 69.483734758000026, 26.806233046999978 ], [ 69.507652650000011, 26.748453574 ], [ 69.515448475000028, 26.740058573999988 ], [ 69.580535919999988, 26.711920261999978 ], [ 69.601844289999974, 26.705054304999976 ], [ 69.608307523, 26.700310017 ], [ 69.698982692000016, 26.665070006 ], [ 69.721869218, 26.653842839999982 ], [ 69.771941603000016, 26.613747018000026 ], [ 69.794837616, 26.59998256199998 ], [ 69.815360182, 26.592160542999977 ], [ 69.855554029000018, 26.582917529999975 ], [ 69.879311486, 26.581087262999972 ], [ 69.918342998000014, 26.582606483 ], [ 70.024848831999975, 26.59871218 ], [ 70.06619191599998, 26.599291709999989 ], [ 70.088439976000018, 26.595572240000024 ], [ 70.106880163000028, 26.589521553999987 ], [ 70.150223772, 26.568288489999986 ], [ 70.167740639999977, 26.550745428000027 ], [ 70.183898710999983, 26.486830227999974 ], [ 70.175994878999973, 26.433296870999982 ], [ 70.179337788999987, 26.375255874 ], [ 70.178306422, 26.349772922999989 ], [ 70.166742015000011, 26.30699574800002 ], [ 70.164603974999977, 26.290916245 ], [ 70.16524571399998, 26.277151587999981 ], [ 70.172668283, 26.245077711000022 ], [ 70.161079996687675, 26.2 ], [ 67.340451645229777, 26.2 ], [ 67.265556334999985, 26.346961975 ], [ 67.225158691, 26.41470909100002 ], [ 67.213745116999974, 26.428316116000019 ], [ 67.203704834, 26.445985794000023 ], [ 67.18964386, 26.457298278999986 ], [ 67.177581787, 26.471496581999986 ], [ 67.15107727100002, 26.546045303000028 ], [ 67.123787516, 26.653095716 ], [ 67.133079528999986, 26.66324806199998 ], [ 67.126495361000025, 26.719667435000019 ], [ 67.126472472999978, 26.738306046 ], [ 67.144599915000015, 26.762552261 ], [ 67.146553040000015, 26.768428802000017 ], [ 67.133766174000016, 26.878032684 ], [ 67.133381714999985, 26.940352421 ], [ 67.137268066, 26.938493729000015 ], [ 67.139282227000024, 26.946203232000016 ], [ 67.145965575999981, 26.95636272500002 ], [ 67.138908386000026, 26.984376907000012 ], [ 67.138893127000017, 26.996227264000026 ], [ 67.160606384, 27.065963744999976 ], [ 67.151885986000025, 27.155887603999986 ], [ 67.126861572, 27.270029067999985 ], [ 67.126037597999982, 27.29582977299998 ], [ 67.129913330000022, 27.313966751 ], [ 67.136924744, 27.327226639 ], [ 67.161117553999986, 27.354455948 ], [ 67.175163155, 27.447196911 ], [ 67.182884216, 27.532304764 ], [ 67.186790466, 27.539981841999975 ], [ 67.220466613999974, 27.563030243000014 ], [ 67.2290802, 27.57489585899998 ], [ 67.236114502000021, 27.594432831 ], [ 67.248725891, 27.647994994999976 ], [ 67.254211425999983, 27.658462524000015 ], [ 67.269897461000028, 27.67172431900002 ], [ 67.309921265000014, 27.69893837 ], [ 67.337394714000027, 27.725448608000022 ], [ 67.35153961200001, 27.749166489 ], [ 67.357048035, 27.768003464 ], [ 67.354705810999974, 27.795917511000027 ], [ 67.36045074499998, 27.815334319999977 ], [ 67.384857178, 27.864868163999972 ], [ 67.392745972, 27.889986038000018 ], [ 67.394241333000025, 27.909675597999978 ], [ 67.409141541, 27.908033370999988 ], [ 67.416183472, 27.895126343000015 ], [ 67.419967650999979, 27.892740249999974 ], [ 67.533203125, 27.906774520999988 ], [ 67.5493927, 27.901523590000011 ], [ 67.568260193000015, 27.914457320999986 ], [ 67.594688416, 27.922128676999989 ], [ 67.656730652000022, 27.932664870999986 ], [ 67.76083374000001, 27.945739746000015 ], [ 67.774887084999989, 27.943298340000013 ], [ 67.788574219, 27.951616286999979 ], [ 67.790435791, 27.968154906999985 ], [ 67.794372400999976, 27.976157949000026 ], [ 67.812385559, 27.985469818000013 ], [ 67.854759216, 27.991214752000019 ], [ 67.866394043000014, 27.998390197999981 ], [ 67.877250671000013, 28.000171661000024 ], [ 67.912963581999975, 27.994295018 ], [ 67.942863464000027, 28.043773650999981 ], [ 67.964424133000023, 28.069597244000022 ], [ 68.017784119, 28.092046738000022 ], [ 68.208999634, 28.242517470999985 ], [ 68.353439331, 28.284820556999989 ], [ 68.359123230000023, 28.291027069 ], [ 68.405227661000026, 28.387615203999985 ], [ 68.467102050999983, 28.431179047 ], [ 68.757148743000016, 28.429811477999976 ], [ 68.884460449000017, 28.432003021000014 ], [ 68.929489135999972, 28.429452895999987 ], [ 69.001289368000016, 28.431215286 ], [ 69.215110778999986, 28.444622040000013 ], [ 69.394058228, 28.446418762 ], [ 69.416526794, 28.449216842999988 ], [ 69.428825378, 28.470109939999986 ], [ 69.437156677000019, 28.475261687999989 ], [ 69.475563049000016, 28.483764647999976 ], [ 69.504417419, 28.484956741000019 ], [ 69.521278381, 28.484462738 ], [ 69.624542236000025, 28.467544556 ], [ 69.625, 28.46301078800002 ], [ 69.605583191, 28.444112777999976 ] ], [ [ 69.594291687, 28.280048369999975 ], [ 69.59729766800001, 28.244689941 ], [ 69.604454041, 28.220474243000012 ], [ 69.623046875, 28.226705551 ], [ 69.662582397999984, 28.220556258999977 ], [ 69.668914794999978, 28.222509383999977 ], [ 69.672187805000021, 28.224298477 ], [ 69.673645019999981, 28.229164122999975 ], [ 69.670082091999973, 28.245965958 ], [ 69.67256164600002, 28.250104904000011 ], [ 69.69404602100002, 28.259199142 ], [ 69.705627441, 28.253000258999975 ], [ 69.71837616, 28.237770080000018 ], [ 69.732765197999981, 28.234664916999975 ], [ 69.743217468000012, 28.241283416999977 ], [ 69.747353366000027, 28.249207254999988 ], [ 69.750244141, 28.278553009 ], [ 69.757987975999981, 28.305229187 ], [ 69.757834593999974, 28.311548405 ], [ 69.75151825, 28.313570023000011 ], [ 69.745788574000017, 28.31215858500002 ], [ 69.718910216999973, 28.292995453 ], [ 69.702590941999972, 28.29380607600001 ], [ 69.670021056999985, 28.330839157000014 ], [ 69.649902344, 28.346282959 ], [ 69.631561278999982, 28.353050231999987 ], [ 69.613563538, 28.348079681 ], [ 69.588043213, 28.349277496000013 ], [ 69.58343505900001, 28.353162766000025 ], [ 69.579223633000026, 28.367261886999984 ], [ 69.559150696000017, 28.395143508999979 ], [ 69.555686950999984, 28.396602631 ], [ 69.53993988000002, 28.393417358000022 ], [ 69.533576965, 28.388750076 ], [ 69.532531737999989, 28.38315773 ], [ 69.553413391, 28.352388382000015 ], [ 69.579330444, 28.304840088 ], [ 69.588661194, 28.294511795 ], [ 69.594291687, 28.280048369999975 ] ], [ [ 69.475135803, 28.264833450000026 ], [ 69.480300903, 28.242742539 ], [ 69.466705322, 28.211385727 ], [ 69.503921509, 28.190500258999975 ], [ 69.513114928999983, 28.182209015000012 ], [ 69.516128540000011, 28.173534393000011 ], [ 69.526092528999982, 28.168081283999982 ], [ 69.528190613, 28.138477325 ], [ 69.533226013, 28.127269744999978 ], [ 69.54277801500001, 28.122539519999975 ], [ 69.554191589000027, 28.123756409 ], [ 69.562377930000025, 28.130039215000011 ], [ 69.564300537, 28.134418488 ], [ 69.565155028999982, 28.142175673999986 ], [ 69.5623703, 28.154277802000024 ], [ 69.569839478, 28.178607941 ], [ 69.580307006999988, 28.192098617 ], [ 69.581771850999985, 28.198228836 ], [ 69.572532653999986, 28.20255279600002 ], [ 69.536270141999978, 28.209379195999986 ], [ 69.530998230000023, 28.214815139999985 ], [ 69.527786255000024, 28.225475311000025 ], [ 69.519073486000025, 28.237239838 ], [ 69.501983643000017, 28.247051238999973 ], [ 69.487960815, 28.258651733000022 ], [ 69.475135803, 28.264833450000026 ] ] ] } }
]
}
