{
"type": "FeatureCollection",
"name": "sindh_province",
"crs": { "type": "name", "properties": { "name": "urn:ogc:def:crs:OGC:1.3:CRS84" } },
"features": [
{ "type": "Feature", "properties": { "P_Name": "SINDH", "area": 141282.113 }, "geometry": { "type": "Polygon", "coordinates": [ [ [ 67.34354, 26.20311 ], [ 67.337227, 26.212579 ], [ 67.328547, 26.223232 ], [ 67.319866, 26.245328 ], [ 67.26561177, 26.347194 ], [ 67.255157, 26.370801 ], [ 67.2324071, 26.40480716 ], [ 67.215306, 26.428407 ], [ 67.193605, 26.45366 ], [ 67.177427, 26.477334 ], [ 67.162039, 26.514028 ], [ 67.150597, 26.555853 ], [ 67.14560697, 26.58291343 ], [ 67.14174499, 26.5968566 ], [ 67.128896, 26.633977 ], [ 67.12754679, 26.65508808 ], [ 67.134025, 26.671855 ], [ 67.130474, 26.693556 ], [ 67.125739, 26.738932 ], [ 67.131263, 26.74485 ], [ 67.137576, 26.755898 ], [ 67.147046, 26.766157 ], [ 67.13432622, 26.87289378 ], [ 67.131658, 26.923589 ], [ 67.134814, 26.941345 ], [ 67.144284, 26.955154 ], [ 67.145073, 26.969359 ], [ 67.14091104, 26.98038398 ], [ 67.137971, 26.996189 ], [ 67.148624, 27.031306 ], [ 67.163618, 27.065633 ], [ 67.1585083, 27.07470703 ], [ 67.15570068, 27.12689209 ], [ 67.149019, 27.168221 ], [ 67.140338, 27.21399 ], [ 67.129685, 27.244372 ], [ 67.123372, 27.275938 ], [ 67.127317, 27.309081 ], [ 67.137182, 27.331571 ], [ 67.153359, 27.347354 ], [ 67.163223, 27.367477 ], [ 67.167563, 27.413247 ], [ 67.17312994, 27.43970001 ], [ 67.176244, 27.46967 ], [ 67.177822, 27.51978 ], [ 67.185319, 27.540297 ], [ 67.204258, 27.555686 ], [ 67.223592, 27.568706 ], [ 67.230694, 27.584094 ], [ 67.246477, 27.646436 ], [ 67.252395, 27.659062 ], [ 67.280409, 27.681947 ], [ 67.30454318, 27.69791873 ], [ 67.330914, 27.719431 ], [ 67.344724, 27.740343 ], [ 67.354983, 27.757704 ], [ 67.358139, 27.780194 ], [ 67.358139, 27.803868 ], [ 67.368003, 27.836617 ], [ 67.38497, 27.870945 ], [ 67.390888, 27.895013 ], [ 67.392467, 27.911191 ], [ 67.399569, 27.912769 ], [ 67.41149902, 27.90649414 ], [ 67.42010498, 27.89508057 ], [ 67.44311523, 27.89550781 ], [ 67.501367, 27.902905 ], [ 67.532932, 27.912374 ], [ 67.543712, 27.905858 ], [ 67.659903, 27.936684 ], [ 67.738153, 27.941427 ], [ 67.785578, 27.950912 ], [ 67.787949, 27.981738 ], [ 67.804548, 27.988851 ], [ 67.833003, 27.991223 ], [ 67.868571, 28.00545 ], [ 67.913625, 28.000708 ], [ 67.923109, 28.036276 ], [ 67.970534, 28.076587 ], [ 68.015588, 28.095557 ], [ 68.065384, 28.138239 ], [ 68.200544, 28.242573 ], [ 68.354674, 28.292369 ], [ 68.394985, 28.38959 ], [ 68.461379, 28.432272 ], [ 68.845519, 28.432272 ], [ 68.992536, 28.437014 ], [ 69.070786, 28.437014 ], [ 69.175121, 28.441757 ], [ 69.241515, 28.451242 ], [ 69.36084181, 28.45124489 ], [ 69.3617, 28.449684 ], [ 69.391118, 28.447845 ], [ 69.407665, 28.450297 ], [ 69.418697, 28.453361 ], [ 69.424213, 28.468683 ], [ 69.437696, 28.47665 ], [ 69.476306, 28.487681 ], [ 69.51124, 28.48523 ], [ 69.541883, 28.480327 ], [ 69.601944, 28.474811 ], [ 69.616653, 28.469908 ], [ 69.597041, 28.447845 ], [ 69.622169, 28.433136 ], [ 69.655263, 28.433136 ], [ 69.700616, 28.42762 ], [ 69.72531, 28.4270408 ], [ 69.761902, 28.395139 ], [ 69.788869, 28.374914 ], [ 69.7999, 28.365721 ], [ 69.811545, 28.361431 ], [ 69.815835, 28.338755 ], [ 69.809706, 28.311789 ], [ 69.810932, 28.2885 ], [ 69.814609, 28.275017 ], [ 69.830543, 28.271339 ], [ 69.828092, 28.245599 ], [ 69.839124, 28.227826 ], [ 69.855671, 28.194731 ], [ 69.837285, 28.181861 ], [ 69.837285, 28.170216 ], [ 69.844027, 28.161023 ], [ 69.842188, 28.140186 ], [ 69.859961, 28.110155 ], [ 69.882024, 28.075835 ], [ 69.905313, 28.045804 ], [ 69.934118, 28.018225 ], [ 69.962923, 27.987582 ], [ 69.983147, 27.9551 ], [ 69.994179, 27.939778 ], [ 70.007662, 27.935488 ], [ 70.0285, 27.934262 ], [ 70.056079, 27.904232 ], [ 70.074465, 27.895039 ], [ 70.094076, 27.889523 ], [ 70.145557, 27.877879 ], [ 70.160879, 27.86746 ], [ 70.17719441, 27.84644737 ], [ 70.165277, 27.836668 ], [ 70.143059, 27.816318 ], [ 70.135946, 27.807114 ], [ 70.126368, 27.792647 ], [ 70.116861, 27.768286 ], [ 70.111879, 27.752507 ], [ 70.098363, 27.723644 ], [ 70.079405, 27.676325 ], [ 70.030309, 27.561876 ], [ 70.00455, 27.547313 ], [ 69.988902, 27.537311 ], [ 69.95512, 27.512788 ], [ 69.935991, 27.497813 ], [ 69.92219033, 27.47918701 ], [ 69.92113587, 27.47939812 ], [ 69.92199758, 27.47881427 ], [ 69.914997, 27.465276 ], [ 69.893062, 27.4323 ], [ 69.884509, 27.422333 ], [ 69.851369, 27.391055 ], [ 69.834327, 27.371591 ], [ 69.817803, 27.355269 ], [ 69.801022, 27.342262 ], [ 69.780932, 27.324995 ], [ 69.779452, 27.320481 ], [ 69.71636, 27.293397 ], [ 69.697793, 27.27884 ], [ 69.685315, 27.263434 ], [ 69.673796, 27.252983 ], [ 69.651988, 27.229331 ], [ 69.624406, 27.206122 ], [ 69.614345, 27.201529 ], [ 69.600299, 27.192949 ], [ 69.587769, 27.179926 ], [ 69.574457, 27.152361 ], [ 69.525919, 27.032621 ], [ 69.514589, 27.010007 ], [ 69.515685, 27.003269 ], [ 69.502416, 26.896425 ], [ 69.499284, 26.865335 ], [ 69.485943, 26.80537 ], [ 69.491875, 26.788293 ], [ 69.50287, 26.764167 ], [ 69.507307, 26.756294 ], [ 69.507322, 26.754233 ], [ 69.511087, 26.744512 ], [ 69.518136, 26.742424 ], [ 69.617557, 26.699265 ], [ 69.723051, 26.654729 ], [ 69.735227, 26.645985 ], [ 69.791292, 26.599989 ], [ 69.825893, 26.589822 ], [ 69.895739, 26.580231 ], [ 69.934138, 26.582818 ], [ 70.015868, 26.594648 ], [ 70.05599, 26.601958 ], [ 70.08415, 26.595188 ], [ 70.117857, 26.588313 ], [ 70.129657, 26.581354 ], [ 70.139735, 26.572335 ], [ 70.156413, 26.565032 ], [ 70.175113, 26.552564 ], [ 70.17668, 26.548613 ], [ 70.176184, 26.546098 ], [ 70.177806, 26.53966 ], [ 70.178144, 26.531525 ], [ 70.180388, 26.520957 ], [ 70.180809, 26.509563 ], [ 70.185669, 26.489702 ], [ 70.186146, 26.479125 ], [ 70.181827, 26.454896 ], [ 70.178554, 26.423436 ], [ 70.184931, 26.382386 ], [ 70.18696, 26.374534 ], [ 70.185919, 26.372089 ], [ 70.186365, 26.369573 ], [ 70.180899, 26.343416 ], [ 70.16486, 26.294011 ], [ 70.176801, 26.250663 ], [ 70.169362, 26.217548 ], [ 70.161212114074218, 26.2 ], [ 67.344305380906093, 26.2 ], [ 67.34354, 26.20311 ] ], [ [ 69.48871901, 28.20373785 ], [ 69.52080771, 28.17782393 ], [ 69.52478735, 28.13777836 ], [ 69.5376138, 28.12999539 ], [ 69.55126592, 28.12995933 ], [ 69.56060171, 28.14414108 ], [ 69.56051059, 28.16996962 ], [ 69.57196951, 28.18672836 ], [ 69.57831851, 28.20091794 ], [ 69.56038335, 28.20613135 ], [ 69.55267674, 28.21390114 ], [ 69.53603944, 28.21394534 ], [ 69.52577312, 28.22172082 ], [ 69.52047644, 28.23059094 ], [ 69.515043, 28.242515 ], [ 69.503746, 28.250731 ], [ 69.475505, 28.268189 ], [ 69.476018, 28.231732 ], [ 69.465749, 28.217355 ], [ 69.477559, 28.205031 ], [ 69.48871901, 28.20373785 ] ], [ [ 69.60380479, 28.23184426 ], [ 69.62811904, 28.23177837 ], [ 69.64224883, 28.23023951 ], [ 69.66264698, 28.23814137 ], [ 69.66899486, 28.25232937 ], [ 69.6855095, 28.26209927 ], [ 69.69326657, 28.2638861 ], [ 69.70867596, 28.2483461 ], [ 69.72533201, 28.24184248 ], [ 69.74192437, 28.25341868 ], [ 69.74184634, 28.27537331 ], [ 69.74433179, 28.29602895 ], [ 69.74763206, 28.31387547 ], [ 69.737892, 28.314402 ], [ 69.712731, 28.29335 ], [ 69.69476, 28.300538 ], [ 69.682436, 28.314402 ], [ 69.668572, 28.335455 ], [ 69.647006, 28.347265 ], [ 69.63725, 28.35394 ], [ 69.604901, 28.357534 ], [ 69.582308, 28.35548 ], [ 69.580254, 28.365236 ], [ 69.569471, 28.383208 ], [ 69.556634, 28.399126 ], [ 69.544824, 28.399126 ], [ 69.531987, 28.38937 ], [ 69.542257, 28.370371 ], [ 69.558175, 28.349319 ], [ 69.566904, 28.329806 ], [ 69.57666, 28.312348 ], [ 69.592578, 28.288215 ], [ 69.594118, 28.256379 ], [ 69.60380479, 28.23184426 ] ] ] } }
]
}
