{
"type": "FeatureCollection",
"name": "breach_candidates_2022",
"crs": { "type": "name", "properties": { "name": "urn:ogc:def:crs:OGC:1.3:CRS84" } },
"features": [
{ "type": "Feature", "properties": { "bund_id": "BND151", "bund_name": "S M BUND", "km_start": 16.01, "km_end": 17.01, "sar_drop": -3.164461126136461, "label_strict": "breach" }, "geometry": { "type": "Point", "coordinates": [ 68.48686, 25.62776 ] } },
{ "type": "Feature", "properties": { "bund_id": "BND151", "bund_name": "S M BUND", "km_start": 18.01, "km_end": 19.01, "sar_drop": -3.1224737649814291, "label_strict": "breach" }, "geometry": { "type": "Point", "coordinates": [ 68.48995, 25.64195 ] } },
{ "type": "Feature", "properties": { "bund_id": "BND151", "bund_name": "S M BUND", "km_start": 19.01, "km_end": 20.02, "sar_drop": -3.0501805453627027, "label_strict": "breach" }, "geometry": { "type": "Point", "coordinates": [ 68.49455, 25.64944 ] } },
{ "type": "Feature", "properties": { "bund_id": "BND151", "bund_name": "S M BUND", "km_start": 30.02, "km_end": 31.02, "sar_drop": -2.9137413534538297, "label_strict": "breach" }, "geometry": { "type": "Point", "coordinates": [ 68.49093, 25.72638 ] } },
{ "type": "Feature", "properties": { "bund_id": "BND151", "bund_name": "S M BUND", "km_start": 31.02, "km_end": 32.02, "sar_drop": -2.8403907394592842, "label_strict": "breach" }, "geometry": { "type": "Point", "coordinates": [ 68.49298, 25.73353 ] } },
{ "type": "Feature", "properties": { "bund_id": "BND151", "bund_name": "S M BUND", "km_start": 32.02, "km_end": 33.03, "sar_drop": -3.0004476927700741, "label_strict": "breach" }, "geometry": { "type": "Point", "coordinates": [ 68.48701, 25.74044 ] } },
{ "type": "Feature", "properties": { "bund_id": "BND151", "bund_name": "S M BUND", "km_start": 33.03, "km_end": 34.03, "sar_drop": -2.6477602945718375, "label_strict": "breach" }, "geometry": { "type": "Point", "coordinates": [ 68.4783, 25.74451 ] } },
{ "type": "Feature", "properties": { "bund_id": "BND151", "bund_name": "S M BUND", "km_start": 35.03, "km_end": 36.03, "sar_drop": -2.7726123100490017, "label_strict": "breach" }, "geometry": { "type": "Point", "coordinates": [ 68.45875, 25.7444 ] } },
{ "type": "Feature", "properties": { "bund_id": "BND151", "bund_name": "S M BUND", "km_start": 64.05, "km_end": 65.05, "sar_drop": -2.8079868825280965, "label_strict": "breach" }, "geometry": { "type": "Point", "coordinates": [ 68.35355, 25.88371 ] } },
{ "type": "Feature", "properties": { "bund_id": "BND151", "bund_name": "S M BUND", "km_start": 65.05, "km_end": 66.05, "sar_drop": -2.5868323272465585, "label_strict": "breach" }, "geometry": { "type": "Point", "coordinates": [ 68.34974, 25.89188 ] } },
{ "type": "Feature", "properties": { "bund_id": "BND151", "bund_name": "S M BUND", "km_start": 66.05, "km_end": 67.05, "sar_drop": -3.5259708599405508, "label_strict": "breach" }, "geometry": { "type": "Point", "coordinates": [ 68.34272, 25.89785 ] } },
{ "type": "Feature", "properties": { "bund_id": "BND151", "bund_name": "S M BUND", "km_start": 75.06, "km_end": 76.06, "sar_drop": -2.938841743082842, "label_strict": "breach" }, "geometry": { "type": "Point", "coordinates": [ 68.35936, 25.96009 ] } },
{ "type": "Feature", "properties": { "bund_id": "BND151", "bund_name": "S M BUND", "km_start": 132.1, "km_end": 133.1, "sar_drop": -3.1386642833233815, "label_strict": "breach" }, "geometry": { "type": "Point", "coordinates": [ 68.03243, 26.2856 ] } },
{ "type": "Feature", "properties": { "bund_id": "BND151", "bund_name": "S M BUND", "km_start": 133.1, "km_end": 134.1, "sar_drop": -3.384441939306591, "label_strict": "breach" }, "geometry": { "type": "Point", "coordinates": [ 68.02921, 26.2939 ] } },
{ "type": "Feature", "properties": { "bund_id": "BND151", "bund_name": "S M BUND", "km_start": 206.16, "km_end": 207.16, "sar_drop": -2.6766397745924877, "label_strict": "breach" }, "geometry": { "type": "Point", "coordinates": [ 67.94876, 26.83209 ] } },
{ "type": "Feature", "properties": { "bund_id": "BND151", "bund_name": "S M BUND", "km_start": 211.16, "km_end": 212.16, "sar_drop": -2.8026620245345595, "label_strict": "breach" }, "geometry": { "type": "Point", "coordinates": [ 67.96268, 26.85998 ] } },
{ "type": "Feature", "properties": { "bund_id": "BND151", "bund_name": "S M BUND", "km_start": 425.33, "km_end": 426.33, "sar_drop": -2.5483233630596263, "label_strict": "breach" }, "geometry": { "type": "Point", "coordinates": [ 67.94902, 26.82877 ] } },
{ "type": "Feature", "properties": { "bund_id": "BND151", "bund_name": "S M BUND", "km_start": 507.39, "km_end": 508.39, "sar_drop": -3.0514383246308059, "label_strict": "breach" }, "geometry": { "type": "Point", "coordinates": [ 68.03218, 26.28906 ] } },
{ "type": "Feature", "properties": { "bund_id": "BND151", "bund_name": "S M BUND", "km_start": 564.43, "km_end": 565.43, "sar_drop": -2.7787177736076325, "label_strict": "breach" }, "geometry": { "type": "Point", "coordinates": [ 68.35937, 25.96068 ] } },
{ "type": "Feature", "properties": { "bund_id": "BND151", "bund_name": "S M BUND", "km_start": 573.44, "km_end": 574.44, "sar_drop": -2.6488998381684281, "label_strict": "breach" }, "geometry": { "type": "Point", "coordinates": [ 68.35129, 25.88956 ] } },
{ "type": "Feature", "properties": { "bund_id": "BND151", "bund_name": "S M BUND", "km_start": 602.46, "km_end": 603.46, "sar_drop": -2.6178222329238587, "label_strict": "breach" }, "geometry": { "type": "Point", "coordinates": [ 68.45941, 25.7448 ] } },
{ "type": "Feature", "properties": { "bund_id": "BND151", "bund_name": "S M BUND", "km_start": 604.46, "km_end": 605.47, "sar_drop": -2.5600099185119625, "label_strict": "breach" }, "geometry": { "type": "Point", "coordinates": [ 68.47906, 25.74465 ] } },
{ "type": "Feature", "properties": { "bund_id": "BND151", "bund_name": "S M BUND", "km_start": 606.47, "km_end": 607.47, "sar_drop": -2.6099168608945584, "label_strict": "breach" }, "geometry": { "type": "Point", "coordinates": [ 68.49318, 25.73307 ] } },
{ "type": "Feature", "properties": { "bund_id": "BND151", "bund_name": "S M BUND", "km_start": 619.48, "km_end": 620.48, "sar_drop": -2.6846993793219136, "label_strict": "breach" }, "geometry": { "type": "Point", "coordinates": [ 68.48959, 25.64166 ] } },
{ "type": "Feature", "properties": { "bund_id": "BND151", "bund_name": "S M BUND", "km_start": 621.48, "km_end": 622.48, "sar_drop": -2.8225432596883846, "label_strict": "breach" }, "geometry": { "type": "Point", "coordinates": [ 68.48649, 25.62743 ] } }
]
}
